<?xml version="1.0" encoding="UTF-8" ?>
<gpx version="1.1" xmlns:xsi="http://www.w3.org/2001/XMLSchema-instance"
    xmlns="http://www.topografix.com/GPX/1/1"
    xsi:schemaLocation="http://www.topografix.com/GPX/1/1 http://www.topografix.com/GPX/1/1/gpx.xsd"
    creator="Openrunner - https://www.openrunner.com" >	<trk>
	                   <name>Mera Peak 2025 01 -Lukla - Paiya-22353376</name>
						<trkseg>
					<trkpt lat="27.688740" lon="86.730970">
						<ele>2857</ele>
						<time>2026-07-26T16:53:03Z</time>
					</trkpt>
					<trkpt lat="27.689120" lon="86.730330">
						<ele>2855</ele>
						<time>2026-07-26T16:54:34Z</time>
					</trkpt>
					<trkpt lat="27.689160" lon="86.730110">
						<ele>2854</ele>
						<time>2026-07-26T16:55:01Z</time>
					</trkpt>
					<trkpt lat="27.689300" lon="86.730010">
						<ele>2855</ele>
						<time>2026-07-26T16:55:23Z</time>
					</trkpt>
					<trkpt lat="27.689220" lon="86.729940">
						<ele>2853</ele>
						<time>2026-07-26T16:55:36Z</time>
					</trkpt>
					<trkpt lat="27.689260" lon="86.729980">
						<ele>2854</ele>
						<time>2026-07-26T16:55:43Z</time>
					</trkpt>
					<trkpt lat="27.689110" lon="86.730010">
						<ele>2852</ele>
						<time>2026-07-26T16:56:04Z</time>
					</trkpt>
					<trkpt lat="27.689250" lon="86.729860">
						<ele>2852</ele>
						<time>2026-07-26T16:56:29Z</time>
					</trkpt>
					<trkpt lat="27.689130" lon="86.729680">
						<ele>2848</ele>
						<time>2026-07-26T16:56:56Z</time>
					</trkpt>
					<trkpt lat="27.688950" lon="86.729850">
						<ele>2847</ele>
						<time>2026-07-26T16:57:27Z</time>
					</trkpt>
					<trkpt lat="27.688830" lon="86.729730">
						<ele>2844</ele>
						<time>2026-07-26T16:57:49Z</time>
					</trkpt>
					<trkpt lat="27.688700" lon="86.730030">
						<ele>2845</ele>
						<time>2026-07-26T16:58:28Z</time>
					</trkpt>
					<trkpt lat="27.688320" lon="86.729590">
						<ele>2834</ele>
						<time>2026-07-26T16:59:41Z</time>
					</trkpt>
					<trkpt lat="27.688110" lon="86.729460">
						<ele>2831</ele>
						<time>2026-07-26T17:00:13Z</time>
					</trkpt>
					<trkpt lat="27.687950" lon="86.729460">
						<ele>2830</ele>
						<time>2026-07-26T17:00:34Z</time>
					</trkpt>
					<trkpt lat="27.687810" lon="86.729310">
						<ele>2827</ele>
						<time>2026-07-26T17:01:00Z</time>
					</trkpt>
					<trkpt lat="27.687270" lon="86.728400">
						<ele>2814</ele>
						<time>2026-07-26T17:03:09Z</time>
					</trkpt>
					<trkpt lat="27.686800" lon="86.727880">
						<ele>2805</ele>
						<time>2026-07-26T17:04:37Z</time>
					</trkpt>
					<trkpt lat="27.686540" lon="86.727390">
						<ele>2799</ele>
						<time>2026-07-26T17:05:45Z</time>
					</trkpt>
					<trkpt lat="27.686520" lon="86.727110">
						<ele>2797</ele>
						<time>2026-07-26T17:06:18Z</time>
					</trkpt>
					<trkpt lat="27.686000" lon="86.726500">
						<ele>2784</ele>
						<time>2026-07-26T17:07:58Z</time>
					</trkpt>
					<trkpt lat="27.685860" lon="86.726100">
						<ele>2774</ele>
						<time>2026-07-26T17:08:49Z</time>
					</trkpt>
					<trkpt lat="27.685760" lon="86.726000">
						<ele>2768</ele>
						<time>2026-07-26T17:09:07Z</time>
					</trkpt>
					<trkpt lat="27.685690" lon="86.726070">
						<ele>2767</ele>
						<time>2026-07-26T17:09:19Z</time>
					</trkpt>
					<trkpt lat="27.685610" lon="86.725740">
						<ele>2758</ele>
						<time>2026-07-26T17:09:59Z</time>
					</trkpt>
					<trkpt lat="27.685400" lon="86.725830">
						<ele>2750</ele>
						<time>2026-07-26T17:10:29Z</time>
					</trkpt>
					<trkpt lat="27.685340" lon="86.725760">
						<ele>2747</ele>
						<time>2026-07-26T17:10:41Z</time>
					</trkpt>
					<trkpt lat="27.685260" lon="86.724970">
						<ele>2735</ele>
						<time>2026-07-26T17:12:15Z</time>
					</trkpt>
					<trkpt lat="27.685140" lon="86.725310">
						<ele>2733</ele>
						<time>2026-07-26T17:12:58Z</time>
					</trkpt>
					<trkpt lat="27.685020" lon="86.725250">
						<ele>2728</ele>
						<time>2026-07-26T17:13:16Z</time>
					</trkpt>
					<trkpt lat="27.684800" lon="86.725390">
						<ele>2720</ele>
						<time>2026-07-26T17:13:49Z</time>
					</trkpt>
					<trkpt lat="27.684690" lon="86.725680">
						<ele>2719</ele>
						<time>2026-07-26T17:14:27Z</time>
					</trkpt>
					<trkpt lat="27.684330" lon="86.725170">
						<ele>2696</ele>
						<time>2026-07-26T17:15:44Z</time>
					</trkpt>
					<trkpt lat="27.683940" lon="86.724820">
						<ele>2679</ele>
						<time>2026-07-26T17:16:50Z</time>
					</trkpt>
					<trkpt lat="27.683910" lon="86.724960">
						<ele>2677</ele>
						<time>2026-07-26T17:17:07Z</time>
					</trkpt>
					<trkpt lat="27.683820" lon="86.725000">
						<ele>2673</ele>
						<time>2026-07-26T17:17:20Z</time>
					</trkpt>
					<trkpt lat="27.683760" lon="86.724900">
						<ele>2672</ele>
						<time>2026-07-26T17:17:34Z</time>
					</trkpt>
					<trkpt lat="27.683470" lon="86.724830">
						<ele>2662</ele>
						<time>2026-07-26T17:18:14Z</time>
					</trkpt>
					<trkpt lat="27.683320" lon="86.724830">
						<ele>2657</ele>
						<time>2026-07-26T17:18:34Z</time>
					</trkpt>
					<trkpt lat="27.683300" lon="86.724890">
						<ele>2656</ele>
						<time>2026-07-26T17:18:42Z</time>
					</trkpt>
					<trkpt lat="27.683010" lon="86.724850">
						<ele>2653</ele>
						<time>2026-07-26T17:19:21Z</time>
					</trkpt>
					<trkpt lat="27.682820" lon="86.724440">
						<ele>2652</ele>
						<time>2026-07-26T17:20:15Z</time>
					</trkpt>
					<trkpt lat="27.682890" lon="86.724130">
						<ele>2653</ele>
						<time>2026-07-26T17:20:53Z</time>
					</trkpt>
					<trkpt lat="27.682790" lon="86.723960">
						<ele>2650</ele>
						<time>2026-07-26T17:21:17Z</time>
					</trkpt>
					<trkpt lat="27.682810" lon="86.723750">
						<ele>2649</ele>
						<time>2026-07-26T17:21:42Z</time>
					</trkpt>
					<trkpt lat="27.682550" lon="86.723670">
						<ele>2642</ele>
						<time>2026-07-26T17:22:18Z</time>
					</trkpt>
					<trkpt lat="27.682580" lon="86.723430">
						<ele>2642</ele>
						<time>2026-07-26T17:22:47Z</time>
					</trkpt>
					<trkpt lat="27.682470" lon="86.722900">
						<ele>2639</ele>
						<time>2026-07-26T17:23:51Z</time>
					</trkpt>
					<trkpt lat="27.682100" lon="86.722340">
						<ele>2656</ele>
						<time>2026-07-26T17:25:14Z</time>
					</trkpt>
					<trkpt lat="27.681780" lon="86.721400">
						<ele>2642</ele>
						<time>2026-07-26T17:27:13Z</time>
					</trkpt>
					<trkpt lat="27.681530" lon="86.721080">
						<ele>2636</ele>
						<time>2026-07-26T17:28:03Z</time>
					</trkpt>
					<trkpt lat="27.681300" lon="86.721170">
						<ele>2643</ele>
						<time>2026-07-26T17:28:36Z</time>
					</trkpt>
					<trkpt lat="27.681140" lon="86.721140">
						<ele>2645</ele>
						<time>2026-07-26T17:28:57Z</time>
					</trkpt>
					<trkpt lat="27.681020" lon="86.720820">
						<ele>2634</ele>
						<time>2026-07-26T17:29:38Z</time>
					</trkpt>
					<trkpt lat="27.680930" lon="86.720820">
						<ele>2635</ele>
						<time>2026-07-26T17:29:50Z</time>
					</trkpt>
					<trkpt lat="27.680800" lon="86.720990">
						<ele>2642</ele>
						<time>2026-07-26T17:30:17Z</time>
					</trkpt>
					<trkpt lat="27.680420" lon="86.721220">
						<ele>2642</ele>
						<time>2026-07-26T17:31:14Z</time>
					</trkpt>
					<trkpt lat="27.680210" lon="86.721610">
						<ele>2654</ele>
						<time>2026-07-26T17:32:08Z</time>
					</trkpt>
					<trkpt lat="27.680000" lon="86.721460">
						<ele>2642</ele>
						<time>2026-07-26T17:32:41Z</time>
					</trkpt>
					<trkpt lat="27.679730" lon="86.721840">
						<ele>2650</ele>
						<time>2026-07-26T17:33:39Z</time>
					</trkpt>
					<trkpt lat="27.679420" lon="86.721950">
						<ele>2644</ele>
						<time>2026-07-26T17:34:22Z</time>
					</trkpt>
					<trkpt lat="27.679460" lon="86.722000">
						<ele>2647</ele>
						<time>2026-07-26T17:34:30Z</time>
					</trkpt>
					<trkpt lat="27.679220" lon="86.722060">
						<ele>2641</ele>
						<time>2026-07-26T17:35:03Z</time>
					</trkpt>
					<trkpt lat="27.679110" lon="86.721970">
						<ele>2632</ele>
						<time>2026-07-26T17:35:21Z</time>
					</trkpt>
					<trkpt lat="27.679030" lon="86.722000">
						<ele>2629</ele>
						<time>2026-07-26T17:35:33Z</time>
					</trkpt>
					<trkpt lat="27.678780" lon="86.720520">
						<ele>2561</ele>
						<time>2026-07-26T17:38:31Z</time>
					</trkpt>
					<trkpt lat="27.678610" lon="86.720270">
						<ele>2545</ele>
						<time>2026-07-26T17:39:08Z</time>
					</trkpt>
					<trkpt lat="27.678630" lon="86.719980">
						<ele>2533</ele>
						<time>2026-07-26T17:39:42Z</time>
					</trkpt>
					<trkpt lat="27.678470" lon="86.720150">
						<ele>2537</ele>
						<time>2026-07-26T17:40:11Z</time>
					</trkpt>
					<trkpt lat="27.678470" lon="86.719940">
						<ele>2529</ele>
						<time>2026-07-26T17:40:36Z</time>
					</trkpt>
					<trkpt lat="27.678310" lon="86.720010">
						<ele>2529</ele>
						<time>2026-07-26T17:40:59Z</time>
					</trkpt>
					<trkpt lat="27.678210" lon="86.719940">
						<ele>2518</ele>
						<time>2026-07-26T17:41:15Z</time>
					</trkpt>
					<trkpt lat="27.678190" lon="86.720000">
						<ele>2519</ele>
						<time>2026-07-26T17:41:22Z</time>
					</trkpt>
					<trkpt lat="27.678050" lon="86.719920">
						<ele>2506</ele>
						<time>2026-07-26T17:41:43Z</time>
					</trkpt>
					<trkpt lat="27.678030" lon="86.719810">
						<ele>2500</ele>
						<time>2026-07-26T17:41:57Z</time>
					</trkpt>
					<trkpt lat="27.677900" lon="86.719790">
						<ele>2491</ele>
						<time>2026-07-26T17:42:14Z</time>
					</trkpt>
					<trkpt lat="27.677810" lon="86.720030">
						<ele>2492</ele>
						<time>2026-07-26T17:42:45Z</time>
					</trkpt>
					<trkpt lat="27.677760" lon="86.719890">
						<ele>2484</ele>
						<time>2026-07-26T17:43:03Z</time>
					</trkpt>
					<trkpt lat="27.677570" lon="86.719860">
						<ele>2470</ele>
						<time>2026-07-26T17:43:28Z</time>
					</trkpt>
					<trkpt lat="27.677510" lon="86.719710">
						<ele>2463</ele>
						<time>2026-07-26T17:43:48Z</time>
					</trkpt>
					<trkpt lat="27.677470" lon="86.720010">
						<ele>2468</ele>
						<time>2026-07-26T17:44:24Z</time>
					</trkpt>
					<trkpt lat="27.677610" lon="86.720420">
						<ele>2489</ele>
						<time>2026-07-26T17:45:16Z</time>
					</trkpt>
					<trkpt lat="27.677550" lon="86.720560">
						<ele>2489</ele>
						<time>2026-07-26T17:45:34Z</time>
					</trkpt>
					<trkpt lat="27.677420" lon="86.720530">
						<ele>2483</ele>
						<time>2026-07-26T17:45:52Z</time>
					</trkpt>
					<trkpt lat="27.677410" lon="86.720700">
						<ele>2487</ele>
						<time>2026-07-26T17:46:12Z</time>
					</trkpt>
					<trkpt lat="27.677360" lon="86.720690">
						<ele>2486</ele>
						<time>2026-07-26T17:46:19Z</time>
					</trkpt>
					<trkpt lat="27.676940" lon="86.719670">
						<ele>2457</ele>
						<time>2026-07-26T17:48:32Z</time>
					</trkpt>
					<trkpt lat="27.676810" lon="86.719610">
						<ele>2455</ele>
						<time>2026-07-26T17:48:50Z</time>
					</trkpt>
					<trkpt lat="27.676820" lon="86.719770">
						<ele>2459</ele>
						<time>2026-07-26T17:49:09Z</time>
					</trkpt>
					<trkpt lat="27.676600" lon="86.719570">
						<ele>2455</ele>
						<time>2026-07-26T17:49:47Z</time>
					</trkpt>
					<trkpt lat="27.676410" lon="86.719310">
						<ele>2453</ele>
						<time>2026-07-26T17:50:27Z</time>
					</trkpt>
					<trkpt lat="27.676220" lon="86.718820">
						<ele>2434</ele>
						<time>2026-07-26T17:51:30Z</time>
					</trkpt>
					<trkpt lat="27.676060" lon="86.718730">
						<ele>2429</ele>
						<time>2026-07-26T17:51:54Z</time>
					</trkpt>
					<trkpt lat="27.676230" lon="86.718640">
						<ele>2425</ele>
						<time>2026-07-26T17:52:19Z</time>
					</trkpt>
					<trkpt lat="27.676240" lon="86.718540">
						<ele>2420</ele>
						<time>2026-07-26T17:52:31Z</time>
					</trkpt>
					<trkpt lat="27.676060" lon="86.718590">
						<ele>2422</ele>
						<time>2026-07-26T17:52:56Z</time>
					</trkpt>
					<trkpt lat="27.675600" lon="86.718260">
						<ele>2399</ele>
						<time>2026-07-26T17:54:08Z</time>
					</trkpt>
					<trkpt lat="27.675420" lon="86.717920">
						<ele>2372</ele>
						<time>2026-07-26T17:54:55Z</time>
					</trkpt>
					<trkpt lat="27.674730" lon="86.717980">
						<ele>2366</ele>
						<time>2026-07-26T17:56:27Z</time>
					</trkpt>
					<trkpt lat="27.674520" lon="86.717720">
						<ele>2345</ele>
						<time>2026-07-26T17:57:09Z</time>
					</trkpt>
					<trkpt lat="27.674240" lon="86.717650">
						<ele>2341</ele>
						<time>2026-07-26T17:57:47Z</time>
					</trkpt>
					<trkpt lat="27.674070" lon="86.717320">
						<ele>2319</ele>
						<time>2026-07-26T17:58:32Z</time>
					</trkpt>
					<trkpt lat="27.673790" lon="86.717290">
						<ele>2311</ele>
						<time>2026-07-26T17:59:10Z</time>
					</trkpt>
					<trkpt lat="27.673630" lon="86.717090">
						<ele>2298</ele>
						<time>2026-07-26T17:59:42Z</time>
					</trkpt>
					<trkpt lat="27.673270" lon="86.717830">
						<ele>2319</ele>
						<time>2026-07-26T18:01:22Z</time>
					</trkpt>
					<trkpt lat="27.672980" lon="86.717960">
						<ele>2309</ele>
						<time>2026-07-26T18:02:03Z</time>
					</trkpt>
					<trkpt lat="27.672790" lon="86.718430">
						<ele>2316</ele>
						<time>2026-07-26T18:03:04Z</time>
					</trkpt>
					<trkpt lat="27.672590" lon="86.718560">
						<ele>2309</ele>
						<time>2026-07-26T18:03:35Z</time>
					</trkpt>
					<trkpt lat="27.672360" lon="86.718860">
						<ele>2311</ele>
						<time>2026-07-26T18:04:22Z</time>
					</trkpt>
					<trkpt lat="27.672110" lon="86.719840">
						<ele>2322</ele>
						<time>2026-07-26T18:06:23Z</time>
					</trkpt>
					<trkpt lat="27.671730" lon="86.720010">
						<ele>2310</ele>
						<time>2026-07-26T18:07:17Z</time>
					</trkpt>
					<trkpt lat="27.671510" lon="86.719880">
						<ele>2317</ele>
						<time>2026-07-26T18:07:50Z</time>
					</trkpt>
					<trkpt lat="27.671280" lon="86.719560">
						<ele>2326</ele>
						<time>2026-07-26T18:08:39Z</time>
					</trkpt>
					<trkpt lat="27.671100" lon="86.719500">
						<ele>2335</ele>
						<time>2026-07-26T18:09:04Z</time>
					</trkpt>
					<trkpt lat="27.670830" lon="86.719270">
						<ele>2342</ele>
						<time>2026-07-26T18:09:49Z</time>
					</trkpt>
					<trkpt lat="27.670860" lon="86.718960">
						<ele>2332</ele>
						<time>2026-07-26T18:10:26Z</time>
					</trkpt>
					<trkpt lat="27.670760" lon="86.718710">
						<ele>2334</ele>
						<time>2026-07-26T18:10:58Z</time>
					</trkpt>
					<trkpt lat="27.670810" lon="86.718460">
						<ele>2324</ele>
						<time>2026-07-26T18:11:29Z</time>
					</trkpt>
					<trkpt lat="27.670740" lon="86.718400">
						<ele>2328</ele>
						<time>2026-07-26T18:11:40Z</time>
					</trkpt>
					<trkpt lat="27.670710" lon="86.718500">
						<ele>2333</ele>
						<time>2026-07-26T18:11:53Z</time>
					</trkpt>
					<trkpt lat="27.670670" lon="86.718350">
						<ele>2333</ele>
						<time>2026-07-26T18:12:11Z</time>
					</trkpt>
					<trkpt lat="27.670510" lon="86.718250">
						<ele>2343</ele>
						<time>2026-07-26T18:12:36Z</time>
					</trkpt>
					<trkpt lat="27.670270" lon="86.717870">
						<ele>2357</ele>
						<time>2026-07-26T18:13:31Z</time>
					</trkpt>
					<trkpt lat="27.670180" lon="86.717590">
						<ele>2361</ele>
						<time>2026-07-26T18:14:06Z</time>
					</trkpt>
					<trkpt lat="27.670200" lon="86.717350">
						<ele>2350</ele>
						<time>2026-07-26T18:14:35Z</time>
					</trkpt>
					<trkpt lat="27.670010" lon="86.717280">
						<ele>2366</ele>
						<time>2026-07-26T18:15:01Z</time>
					</trkpt>
					<trkpt lat="27.670020" lon="86.717440">
						<ele>2373</ele>
						<time>2026-07-26T18:15:20Z</time>
					</trkpt>
					<trkpt lat="27.669800" lon="86.717750">
						<ele>2398</ele>
						<time>2026-07-26T18:16:07Z</time>
					</trkpt>
					<trkpt lat="27.669620" lon="86.717120">
						<ele>2388</ele>
						<time>2026-07-26T18:17:25Z</time>
					</trkpt>
					<trkpt lat="27.669100" lon="86.717040">
						<ele>2422</ele>
						<time>2026-07-26T18:18:35Z</time>
					</trkpt>
					<trkpt lat="27.668880" lon="86.716830">
						<ele>2416</ele>
						<time>2026-07-26T18:19:14Z</time>
					</trkpt>
					<trkpt lat="27.668720" lon="86.716870">
						<ele>2425</ele>
						<time>2026-07-26T18:19:36Z</time>
					</trkpt>
					<trkpt lat="27.668750" lon="86.716920">
						<ele>2427</ele>
						<time>2026-07-26T18:19:43Z</time>
					</trkpt>
					<trkpt lat="27.668660" lon="86.717000">
						<ele>2437</ele>
						<time>2026-07-26T18:19:58Z</time>
					</trkpt>
					<trkpt lat="27.668620" lon="86.716850">
						<ele>2426</ele>
						<time>2026-07-26T18:20:17Z</time>
					</trkpt>
					<trkpt lat="27.668490" lon="86.716840">
						<ele>2430</ele>
						<time>2026-07-26T18:20:34Z</time>
					</trkpt>
					<trkpt lat="27.668110" lon="86.717150">
						<ele>2465</ele>
						<time>2026-07-26T18:21:37Z</time>
					</trkpt>
					<trkpt lat="27.667740" lon="86.717260">
						<ele>2477</ele>
						<time>2026-07-26T18:22:28Z</time>
					</trkpt>
					<trkpt lat="27.667560" lon="86.717210">
						<ele>2473</ele>
						<time>2026-07-26T18:22:52Z</time>
					</trkpt>
					<trkpt lat="27.667120" lon="86.717420">
						<ele>2497</ele>
						<time>2026-07-26T18:23:56Z</time>
					</trkpt>
					<trkpt lat="27.666840" lon="86.717370">
						<ele>2496</ele>
						<time>2026-07-26T18:24:34Z</time>
					</trkpt>
					<trkpt lat="27.666570" lon="86.717470">
						<ele>2508</ele>
						<time>2026-07-26T18:25:12Z</time>
					</trkpt>
					<trkpt lat="27.666390" lon="86.717420">
						<ele>2506</ele>
						<time>2026-07-26T18:25:37Z</time>
					</trkpt>
					<trkpt lat="27.666340" lon="86.717560">
						<ele>2520</ele>
						<time>2026-07-26T18:25:55Z</time>
					</trkpt>
					<trkpt lat="27.666200" lon="86.717480">
						<ele>2513</ele>
						<time>2026-07-26T18:26:15Z</time>
					</trkpt>
					<trkpt lat="27.666140" lon="86.717730">
						<ele>2540</ele>
						<time>2026-07-26T18:26:46Z</time>
					</trkpt>
					<trkpt lat="27.666100" lon="86.717600">
						<ele>2526</ele>
						<time>2026-07-26T18:27:02Z</time>
					</trkpt>
					<trkpt lat="27.665950" lon="86.717590">
						<ele>2526</ele>
						<time>2026-07-26T18:27:22Z</time>
					</trkpt>
					<trkpt lat="27.665720" lon="86.717750">
						<ele>2547</ele>
						<time>2026-07-26T18:27:58Z</time>
					</trkpt>
					<trkpt lat="27.665320" lon="86.717680">
						<ele>2550</ele>
						<time>2026-07-26T18:28:52Z</time>
					</trkpt>
					<trkpt lat="27.665210" lon="86.717510">
						<ele>2538</ele>
						<time>2026-07-26T18:29:17Z</time>
					</trkpt>
					<trkpt lat="27.664980" lon="86.717520">
						<ele>2546</ele>
						<time>2026-07-26T18:29:48Z</time>
					</trkpt>
					<trkpt lat="27.664760" lon="86.717410">
						<ele>2546</ele>
						<time>2026-07-26T18:30:20Z</time>
					</trkpt>
					<trkpt lat="27.664640" lon="86.717480">
						<ele>2555</ele>
						<time>2026-07-26T18:30:38Z</time>
					</trkpt>
					<trkpt lat="27.664640" lon="86.717650">
						<ele>2570</ele>
						<time>2026-07-26T18:30:58Z</time>
					</trkpt>
					<trkpt lat="27.664400" lon="86.717510">
						<ele>2567</ele>
						<time>2026-07-26T18:31:34Z</time>
					</trkpt>
					<trkpt lat="27.664000" lon="86.717710">
						<ele>2602</ele>
						<time>2026-07-26T18:32:33Z</time>
					</trkpt>
					<trkpt lat="27.663760" lon="86.717520">
						<ele>2596</ele>
						<time>2026-07-26T18:33:12Z</time>
					</trkpt>
					<trkpt lat="27.663760" lon="86.717620">
						<ele>2605</ele>
						<time>2026-07-26T18:33:24Z</time>
					</trkpt>
					<trkpt lat="27.663690" lon="86.717540">
						<ele>2601</ele>
						<time>2026-07-26T18:33:37Z</time>
					</trkpt>
					<trkpt lat="27.663540" lon="86.717610">
						<ele>2614</ele>
						<time>2026-07-26T18:33:59Z</time>
					</trkpt>
					<trkpt lat="27.663340" lon="86.717430">
						<ele>2610</ele>
						<time>2026-07-26T18:34:33Z</time>
					</trkpt>
					<trkpt lat="27.663220" lon="86.717050">
						<ele>2586</ele>
						<time>2026-07-26T18:35:20Z</time>
					</trkpt>
					<trkpt lat="27.663130" lon="86.717010">
						<ele>2587</ele>
						<time>2026-07-26T18:35:33Z</time>
					</trkpt>
					<trkpt lat="27.662950" lon="86.717090">
						<ele>2601</ele>
						<time>2026-07-26T18:35:59Z</time>
					</trkpt>
					<trkpt lat="27.662010" lon="86.717200">
						<ele>2639</ele>
						<time>2026-07-26T18:38:05Z</time>
					</trkpt>
					<trkpt lat="27.661720" lon="86.717490">
						<ele>2672</ele>
						<time>2026-07-26T18:38:57Z</time>
					</trkpt>
					<trkpt lat="27.661530" lon="86.717490">
						<ele>2676</ele>
						<time>2026-07-26T18:39:22Z</time>
					</trkpt>
					<trkpt lat="27.661380" lon="86.717600">
						<ele>2687</ele>
						<time>2026-07-26T18:39:46Z</time>
					</trkpt>
					<trkpt lat="27.660980" lon="86.717390">
						<ele>2677</ele>
						<time>2026-07-26T18:40:45Z</time>
					</trkpt>
					<trkpt lat="27.660810" lon="86.717460">
						<ele>2687</ele>
						<time>2026-07-26T18:41:09Z</time>
					</trkpt>
					<trkpt lat="27.660690" lon="86.717380">
						<ele>2687</ele>
						<time>2026-07-26T18:41:28Z</time>
					</trkpt>
					<trkpt lat="27.660360" lon="86.717380">
						<ele>2707</ele>
						<time>2026-07-26T18:42:12Z</time>
					</trkpt>
					<trkpt lat="27.660130" lon="86.717510">
						<ele>2735</ele>
						<time>2026-07-26T18:42:46Z</time>
					</trkpt>
					<trkpt lat="27.659900" lon="86.717530">
						<ele>2748</ele>
						<time>2026-07-26T18:43:17Z</time>
					</trkpt>
					<trkpt lat="27.659740" lon="86.717420">
						<ele>2744</ele>
						<time>2026-07-26T18:43:42Z</time>
					</trkpt>
					<trkpt lat="27.659620" lon="86.717200">
						<ele>2726</ele>
						<time>2026-07-26T18:44:12Z</time>
					</trkpt>
					<trkpt lat="27.659480" lon="86.717220">
						<ele>2734</ele>
						<time>2026-07-26T18:44:31Z</time>
					</trkpt>
					<trkpt lat="27.659220" lon="86.717010">
						<ele>2726</ele>
						<time>2026-07-26T18:45:14Z</time>
					</trkpt>
					<trkpt lat="27.659030" lon="86.716970">
						<ele>2729</ele>
						<time>2026-07-26T18:45:40Z</time>
					</trkpt>
					<trkpt lat="27.659020" lon="86.716820">
						<ele>2715</ele>
						<time>2026-07-26T18:45:58Z</time>
					</trkpt>
					<trkpt lat="27.658900" lon="86.716860">
						<ele>2723</ele>
						<time>2026-07-26T18:46:14Z</time>
					</trkpt>
					<trkpt lat="27.658950" lon="86.716660">
						<ele>2704</ele>
						<time>2026-07-26T18:46:39Z</time>
					</trkpt>
					<trkpt lat="27.658820" lon="86.716400">
						<ele>2697</ele>
						<time>2026-07-26T18:47:14Z</time>
					</trkpt>
					<trkpt lat="27.658380" lon="86.716600">
						<ele>2722</ele>
						<time>2026-07-26T18:48:17Z</time>
					</trkpt>
					<trkpt lat="27.658230" lon="86.716590">
						<ele>2730</ele>
						<time>2026-07-26T18:48:37Z</time>
					</trkpt>
					<trkpt lat="27.657970" lon="86.716170">
						<ele>2727</ele>
						<time>2026-07-26T18:49:38Z</time>
					</trkpt>
					<trkpt lat="27.657590" lon="86.716140">
						<ele>2749</ele>
						<time>2026-07-26T18:50:29Z</time>
					</trkpt>
					<trkpt lat="27.657290" lon="86.716030">
						<ele>2764</ele>
						<time>2026-07-26T18:51:11Z</time>
					</trkpt>
					<trkpt lat="27.656750" lon="86.715750">
						<ele>2793</ele>
						<time>2026-07-26T18:52:30Z</time>
					</trkpt>
					<trkpt lat="27.656600" lon="86.715590">
						<ele>2800</ele>
						<time>2026-07-26T18:52:58Z</time>
					</trkpt>
					<trkpt lat="27.656530" lon="86.715320">
						<ele>2797</ele>
						<time>2026-07-26T18:53:31Z</time>
					</trkpt>
					<trkpt lat="27.656640" lon="86.714850">
						<ele>2779</ele>
						<time>2026-07-26T18:54:28Z</time>
					</trkpt>
					<trkpt lat="27.656450" lon="86.714790">
						<ele>2793</ele>
						<time>2026-07-26T18:54:55Z</time>
					</trkpt>
					<trkpt lat="27.656370" lon="86.714660">
						<ele>2799</ele>
						<time>2026-07-26T18:55:14Z</time>
					</trkpt>
					<trkpt lat="27.656670" lon="86.714230">
						<ele>2767</ele>
						<time>2026-07-26T18:56:18Z</time>
					</trkpt>
					<trkpt lat="27.656760" lon="86.713070">
						<ele>2744</ele>
						<time>2026-07-26T18:58:36Z</time>
					</trkpt>
					<trkpt lat="27.656430" lon="86.713050">
						<ele>2765</ele>
						<time>2026-07-26T18:59:20Z</time>
					</trkpt>
					<trkpt lat="27.656140" lon="86.712860">
						<ele>2770</ele>
						<time>2026-07-26T19:00:05Z</time>
					</trkpt>
					<trkpt lat="27.656060" lon="86.712670">
						<ele>2760</ele>
						<time>2026-07-26T19:00:30Z</time>
					</trkpt>
					<trkpt lat="27.655840" lon="86.712620">
						<ele>2766</ele>
						<time>2026-07-26T19:01:00Z</time>
					</trkpt>
					<trkpt lat="27.655790" lon="86.712720">
						<ele>2776</ele>
						<time>2026-07-26T19:01:13Z</time>
					</trkpt>
					<trkpt lat="27.655800" lon="86.712620">
						<ele>2767</ele>
						<time>2026-07-26T19:01:25Z</time>
					</trkpt>
					<trkpt lat="27.655390" lon="86.712670">
						<ele>2786</ele>
						<time>2026-07-26T19:02:20Z</time>
					</trkpt>
					<trkpt lat="27.655050" lon="86.712540">
						<ele>2785</ele>
						<time>2026-07-26T19:03:08Z</time>
					</trkpt>
					<trkpt lat="27.654730" lon="86.712560">
						<ele>2788</ele>
						<time>2026-07-26T19:03:51Z</time>
					</trkpt>
					<trkpt lat="27.654520" lon="86.712430">
						<ele>2776</ele>
						<time>2026-07-26T19:04:23Z</time>
					</trkpt>
					<trkpt lat="27.654300" lon="86.712520">
						<ele>2784</ele>
						<time>2026-07-26T19:04:54Z</time>
					</trkpt>
					<trkpt lat="27.654180" lon="86.712450">
						<ele>2779</ele>
						<time>2026-07-26T19:05:12Z</time>
					</trkpt>
					<trkpt lat="27.654000" lon="86.712520">
						<ele>2777</ele>
						<time>2026-07-26T19:05:37Z</time>
					</trkpt>
					<trkpt lat="27.653720" lon="86.712240">
						<ele>2748</ele>
						<time>2026-07-26T19:06:27Z</time>
					</trkpt>
					<trkpt lat="27.653700" lon="86.711920">
						<ele>2727</ele>
						<time>2026-07-26T19:07:05Z</time>
					</trkpt>
					<trkpt lat="27.653510" lon="86.711600">
						<ele>2709</ele>
						<time>2026-07-26T19:07:51Z</time>
					</trkpt>
					<trkpt lat="27.653000" lon="86.712370">
						<ele>2719</ele>
						<time>2026-07-26T19:09:44Z</time>
					</trkpt>
					<trkpt lat="27.653040" lon="86.712800">
						<ele>2736</ele>
						<time>2026-07-26T19:10:35Z</time>
					</trkpt>
					<trkpt lat="27.652990" lon="86.713120">
						<ele>2742</ele>
						<time>2026-07-26T19:11:14Z</time>
					</trkpt>
					<trkpt lat="27.652780" lon="86.713440">
						<ele>2737</ele>
						<time>2026-07-26T19:12:01Z</time>
					</trkpt>
					<trkpt lat="27.652750" lon="86.713670">
						<ele>2743</ele>
						<time>2026-07-26T19:12:28Z</time>
					</trkpt>
					<trkpt lat="27.652660" lon="86.713800">
						<ele>2741</ele>
						<time>2026-07-26T19:12:48Z</time>
					</trkpt>
					<trkpt lat="27.652690" lon="86.714120">
						<ele>2753</ele>
						<time>2026-07-26T19:13:26Z</time>
					</trkpt>
					<trkpt lat="27.652500" lon="86.714570">
						<ele>2744</ele>
						<time>2026-07-26T19:14:25Z</time>
					</trkpt>
					<trkpt lat="27.652470" lon="86.715050">
						<ele>2745</ele>
						<time>2026-07-26T19:15:22Z</time>
					</trkpt>
					<trkpt lat="27.652860" lon="86.716650">
						<ele>2787</ele>
						<time>2026-07-26T19:18:38Z</time>
					</trkpt>
					<trkpt lat="27.652840" lon="86.717090">
						<ele>2793</ele>
						<time>2026-07-26T19:19:30Z</time>
					</trkpt>
					<trkpt lat="27.652150" lon="86.718680">
						<ele>2807</ele>
						<time>2026-07-26T19:22:59Z</time>
					</trkpt>
					<trkpt lat="27.652120" lon="86.718720">
						<ele>2807</ele>
						<time>2026-07-26T19:23:05Z</time>
					</trkpt>
					<trkpt lat="27.651780" lon="86.718620">
						<ele>2784</ele>
						<time>2026-07-26T19:23:52Z</time>
					</trkpt>
					<trkpt lat="27.651100" lon="86.719120">
						<ele>2778</ele>
						<time>2026-07-26T19:25:41Z</time>
					</trkpt>
					<trkpt lat="27.650930" lon="86.719440">
						<ele>2780</ele>
						<time>2026-07-26T19:26:25Z</time>
					</trkpt>
					<trkpt lat="27.650690" lon="86.719700">
						<ele>2774</ele>
						<time>2026-07-26T19:27:09Z</time>
					</trkpt>
					<trkpt lat="27.650470" lon="86.719810">
						<ele>2765</ele>
						<time>2026-07-26T19:27:41Z</time>
					</trkpt>
					<trkpt lat="27.650440" lon="86.720290">
						<ele>2781</ele>
						<time>2026-07-26T19:28:38Z</time>
					</trkpt>
					<trkpt lat="27.650260" lon="86.720480">
						<ele>2780</ele>
						<time>2026-07-26T19:29:11Z</time>
					</trkpt>
					<trkpt lat="27.650260" lon="86.720640">
						<ele>2787</ele>
						<time>2026-07-26T19:29:30Z</time>
					</trkpt>
					<trkpt lat="27.649960" lon="86.720520">
						<ele>2767</ele>
						<time>2026-07-26T19:30:12Z</time>
					</trkpt>
					<trkpt lat="27.649840" lon="86.720610">
						<ele>2766</ele>
						<time>2026-07-26T19:30:32Z</time>
					</trkpt>
					<trkpt lat="27.649560" lon="86.720630">
						<ele>2755</ele>
						<time>2026-07-26T19:31:09Z</time>
					</trkpt>
					<trkpt lat="27.649500" lon="86.720830">
						<ele>2762</ele>
						<time>2026-07-26T19:31:34Z</time>
					</trkpt>
					<trkpt lat="27.649290" lon="86.720860">
						<ele>2755</ele>
						<time>2026-07-26T19:32:02Z</time>
					</trkpt>
					<trkpt lat="27.649310" lon="86.721070">
						<ele>2767</ele>
						<time>2026-07-26T19:32:27Z</time>
					</trkpt>
					<trkpt lat="27.649170" lon="86.721310">
						<ele>2774</ele>
						<time>2026-07-26T19:33:01Z</time>
					</trkpt>
					<trkpt lat="27.648990" lon="86.721330">
						<ele>2768</ele>
						<time>2026-07-26T19:33:25Z</time>
					</trkpt>
					<trkpt lat="27.648810" lon="86.721240">
						<ele>2756</ele>
						<time>2026-07-26T19:33:52Z</time>
					</trkpt>
					<trkpt lat="27.648090" lon="86.722400">
						<ele>2773</ele>
						<time>2026-07-26T19:36:39Z</time>
					</trkpt>
					<trkpt lat="27.648210" lon="86.723170">
						<ele>2805</ele>
						<time>2026-07-26T19:38:11Z</time>
					</trkpt>
					<trkpt lat="27.648050" lon="86.723720">
						<ele>2815</ele>
						<time>2026-07-26T19:39:20Z</time>
					</trkpt>
					<trkpt lat="27.647780" lon="86.723830">
						<ele>2806</ele>
						<time>2026-07-26T19:39:58Z</time>
					</trkpt>
					<trkpt lat="27.647180" lon="86.723500">
						<ele>2767</ele>
						<time>2026-07-26T19:41:27Z</time>
					</trkpt>
					<trkpt lat="27.647090" lon="86.723520">
						<ele>2766</ele>
						<time>2026-07-26T19:41:40Z</time>
					</trkpt>
					<trkpt lat="27.646980" lon="86.724080">
						<ele>2791</ele>
						<time>2026-07-26T19:42:47Z</time>
					</trkpt>
					<trkpt lat="27.646740" lon="86.724090">
						<ele>2784</ele>
						<time>2026-07-26T19:43:19Z</time>
					</trkpt>
					<trkpt lat="27.646520" lon="86.724260">
						<ele>2782</ele>
						<time>2026-07-26T19:43:55Z</time>
					</trkpt>
					<trkpt lat="27.646420" lon="86.724560">
						<ele>2787</ele>
						<time>2026-07-26T19:44:33Z</time>
					</trkpt>
					<trkpt lat="27.646250" lon="86.724750">
						<ele>2785</ele>
						<time>2026-07-26T19:45:05Z</time>
					</trkpt>
					</trkseg>
				</trk>
			</gpx>