<?xml version="1.0" encoding="UTF-8" ?>
<gpx version="1.1" xmlns:xsi="http://www.w3.org/2001/XMLSchema-instance"
    xmlns="http://www.topografix.com/GPX/1/1"
    xsi:schemaLocation="http://www.topografix.com/GPX/1/1 http://www.topografix.com/GPX/1/1/gpx.xsd"
    creator="Openrunner - https://www.openrunner.com" >	<trk>
	                   <name>1 - Marche 10 km ranchal.GPX-24748130</name>
						<trkseg>
					<trkpt lat="46.131950" lon="4.396240">
						<ele>749</ele>
						<time>2026-07-28T22:49:05Z</time>
					</trkpt>
					<trkpt lat="46.131620" lon="4.396400">
						<ele>746</ele>
						<time>2026-07-28T22:49:51Z</time>
					</trkpt>
					<trkpt lat="46.131570" lon="4.396400">
						<ele>745</ele>
						<time>2026-07-28T22:49:58Z</time>
					</trkpt>
					<trkpt lat="46.131550" lon="4.396360">
						<ele>745</ele>
						<time>2026-07-28T22:50:03Z</time>
					</trkpt>
					<trkpt lat="46.131800" lon="4.395430">
						<ele>738</ele>
						<time>2026-07-28T22:51:35Z</time>
					</trkpt>
					<trkpt lat="46.131840" lon="4.395250">
						<ele>736</ele>
						<time>2026-07-28T22:51:52Z</time>
					</trkpt>
					<trkpt lat="46.131850" lon="4.395030">
						<ele>734</ele>
						<time>2026-07-28T22:52:13Z</time>
					</trkpt>
					<trkpt lat="46.131880" lon="4.394970">
						<ele>734</ele>
						<time>2026-07-28T22:52:20Z</time>
					</trkpt>
					<trkpt lat="46.132170" lon="4.394760">
						<ele>734</ele>
						<time>2026-07-28T22:53:03Z</time>
					</trkpt>
					<trkpt lat="46.132350" lon="4.394720">
						<ele>736</ele>
						<time>2026-07-28T22:53:27Z</time>
					</trkpt>
					<trkpt lat="46.132530" lon="4.394720">
						<ele>737</ele>
						<time>2026-07-28T22:53:51Z</time>
					</trkpt>
					<trkpt lat="46.132610" lon="4.394760">
						<ele>737</ele>
						<time>2026-07-28T22:54:03Z</time>
					</trkpt>
					<trkpt lat="46.132800" lon="4.394920">
						<ele>739</ele>
						<time>2026-07-28T22:54:32Z</time>
					</trkpt>
					<trkpt lat="46.133490" lon="4.395700">
						<ele>751</ele>
						<time>2026-07-28T22:56:29Z</time>
					</trkpt>
					<trkpt lat="46.133690" lon="4.395890">
						<ele>753</ele>
						<time>2026-07-28T22:57:01Z</time>
					</trkpt>
					<trkpt lat="46.133820" lon="4.395980">
						<ele>754</ele>
						<time>2026-07-28T22:57:20Z</time>
					</trkpt>
					<trkpt lat="46.134150" lon="4.396310">
						<ele>759</ele>
						<time>2026-07-28T22:58:14Z</time>
					</trkpt>
					<trkpt lat="46.134960" lon="4.396750">
						<ele>766</ele>
						<time>2026-07-28T23:00:09Z</time>
					</trkpt>
					<trkpt lat="46.135180" lon="4.396830">
						<ele>767</ele>
						<time>2026-07-28T23:00:39Z</time>
					</trkpt>
					<trkpt lat="46.135210" lon="4.396910">
						<ele>769</ele>
						<time>2026-07-28T23:00:48Z</time>
					</trkpt>
					<trkpt lat="46.135320" lon="4.396940">
						<ele>770</ele>
						<time>2026-07-28T23:01:03Z</time>
					</trkpt>
					<trkpt lat="46.135530" lon="4.397080">
						<ele>773</ele>
						<time>2026-07-28T23:01:34Z</time>
					</trkpt>
					<trkpt lat="46.136080" lon="4.397780">
						<ele>785</ele>
						<time>2026-07-28T23:03:12Z</time>
					</trkpt>
					<trkpt lat="46.136280" lon="4.398190">
						<ele>789</ele>
						<time>2026-07-28T23:03:58Z</time>
					</trkpt>
					<trkpt lat="46.136550" lon="4.398630">
						<ele>791</ele>
						<time>2026-07-28T23:04:52Z</time>
					</trkpt>
					<trkpt lat="46.136680" lon="4.398910">
						<ele>793</ele>
						<time>2026-07-28T23:05:23Z</time>
					</trkpt>
					<trkpt lat="46.136930" lon="4.399300">
						<ele>794</ele>
						<time>2026-07-28T23:06:13Z</time>
					</trkpt>
					<trkpt lat="46.137350" lon="4.399740">
						<ele>794</ele>
						<time>2026-07-28T23:07:22Z</time>
					</trkpt>
					<trkpt lat="46.137590" lon="4.399850">
						<ele>794</ele>
						<time>2026-07-28T23:07:55Z</time>
					</trkpt>
					<trkpt lat="46.137610" lon="4.399960">
						<ele>797</ele>
						<time>2026-07-28T23:08:06Z</time>
					</trkpt>
					<trkpt lat="46.137440" lon="4.400380">
						<ele>803</ele>
						<time>2026-07-28T23:08:51Z</time>
					</trkpt>
					<trkpt lat="46.137370" lon="4.400500">
						<ele>805</ele>
						<time>2026-07-28T23:09:05Z</time>
					</trkpt>
					<trkpt lat="46.137350" lon="4.400590">
						<ele>806</ele>
						<time>2026-07-28T23:09:14Z</time>
					</trkpt>
					<trkpt lat="46.137280" lon="4.400700">
						<ele>807</ele>
						<time>2026-07-28T23:09:28Z</time>
					</trkpt>
					<trkpt lat="46.137100" lon="4.400630">
						<ele>807</ele>
						<time>2026-07-28T23:09:53Z</time>
					</trkpt>
					<trkpt lat="46.136840" lon="4.400620">
						<ele>808</ele>
						<time>2026-07-28T23:10:28Z</time>
					</trkpt>
					<trkpt lat="46.136640" lon="4.400720">
						<ele>810</ele>
						<time>2026-07-28T23:10:56Z</time>
					</trkpt>
					<trkpt lat="46.136570" lon="4.400700">
						<ele>810</ele>
						<time>2026-07-28T23:11:05Z</time>
					</trkpt>
					<trkpt lat="46.136520" lon="4.400730">
						<ele>811</ele>
						<time>2026-07-28T23:11:13Z</time>
					</trkpt>
					<trkpt lat="46.136340" lon="4.400710">
						<ele>812</ele>
						<time>2026-07-28T23:11:37Z</time>
					</trkpt>
					<trkpt lat="46.136160" lon="4.400760">
						<ele>813</ele>
						<time>2026-07-28T23:12:01Z</time>
					</trkpt>
					<trkpt lat="46.136060" lon="4.400890">
						<ele>815</ele>
						<time>2026-07-28T23:12:19Z</time>
					</trkpt>
					<trkpt lat="46.136010" lon="4.400840">
						<ele>815</ele>
						<time>2026-07-28T23:12:27Z</time>
					</trkpt>
					<trkpt lat="46.135790" lon="4.400960">
						<ele>818</ele>
						<time>2026-07-28T23:12:59Z</time>
					</trkpt>
					<trkpt lat="46.135600" lon="4.401240">
						<ele>824</ele>
						<time>2026-07-28T23:13:35Z</time>
					</trkpt>
					<trkpt lat="46.135350" lon="4.401510">
						<ele>829</ele>
						<time>2026-07-28T23:14:16Z</time>
					</trkpt>
					<trkpt lat="46.135340" lon="4.401560">
						<ele>829</ele>
						<time>2026-07-28T23:14:21Z</time>
					</trkpt>
					<trkpt lat="46.135470" lon="4.401940">
						<ele>832</ele>
						<time>2026-07-28T23:15:00Z</time>
					</trkpt>
					<trkpt lat="46.135510" lon="4.402180">
						<ele>834</ele>
						<time>2026-07-28T23:15:23Z</time>
					</trkpt>
					<trkpt lat="46.135600" lon="4.402360">
						<ele>837</ele>
						<time>2026-07-28T23:15:44Z</time>
					</trkpt>
					<trkpt lat="46.135740" lon="4.402920">
						<ele>844</ele>
						<time>2026-07-28T23:16:39Z</time>
					</trkpt>
					<trkpt lat="46.135930" lon="4.403190">
						<ele>848</ele>
						<time>2026-07-28T23:17:14Z</time>
					</trkpt>
					<trkpt lat="46.135970" lon="4.403300">
						<ele>849</ele>
						<time>2026-07-28T23:17:26Z</time>
					</trkpt>
					<trkpt lat="46.136040" lon="4.403360">
						<ele>850</ele>
						<time>2026-07-28T23:17:37Z</time>
					</trkpt>
					<trkpt lat="46.136080" lon="4.403440">
						<ele>851</ele>
						<time>2026-07-28T23:17:46Z</time>
					</trkpt>
					<trkpt lat="46.136250" lon="4.403210">
						<ele>847</ele>
						<time>2026-07-28T23:18:17Z</time>
					</trkpt>
					<trkpt lat="46.136320" lon="4.403150">
						<ele>846</ele>
						<time>2026-07-28T23:18:28Z</time>
					</trkpt>
					<trkpt lat="46.136430" lon="4.403140">
						<ele>845</ele>
						<time>2026-07-28T23:18:43Z</time>
					</trkpt>
					<trkpt lat="46.136580" lon="4.403190">
						<ele>846</ele>
						<time>2026-07-28T23:19:03Z</time>
					</trkpt>
					<trkpt lat="46.136760" lon="4.403330">
						<ele>848</ele>
						<time>2026-07-28T23:19:30Z</time>
					</trkpt>
					<trkpt lat="46.136810" lon="4.403310">
						<ele>847</ele>
						<time>2026-07-28T23:19:37Z</time>
					</trkpt>
					<trkpt lat="46.136930" lon="4.403330">
						<ele>848</ele>
						<time>2026-07-28T23:19:53Z</time>
					</trkpt>
					<trkpt lat="46.137140" lon="4.403280">
						<ele>847</ele>
						<time>2026-07-28T23:20:22Z</time>
					</trkpt>
					<trkpt lat="46.137260" lon="4.403190">
						<ele>845</ele>
						<time>2026-07-28T23:20:40Z</time>
					</trkpt>
					<trkpt lat="46.137330" lon="4.403190">
						<ele>845</ele>
						<time>2026-07-28T23:20:49Z</time>
					</trkpt>
					<trkpt lat="46.137360" lon="4.403160">
						<ele>844</ele>
						<time>2026-07-28T23:20:54Z</time>
					</trkpt>
					<trkpt lat="46.137410" lon="4.403180">
						<ele>845</ele>
						<time>2026-07-28T23:21:01Z</time>
					</trkpt>
					<trkpt lat="46.137500" lon="4.403130">
						<ele>844</ele>
						<time>2026-07-28T23:21:14Z</time>
					</trkpt>
					<trkpt lat="46.137670" lon="4.403160">
						<ele>846</ele>
						<time>2026-07-28T23:21:37Z</time>
					</trkpt>
					<trkpt lat="46.137780" lon="4.403110">
						<ele>846</ele>
						<time>2026-07-28T23:21:52Z</time>
					</trkpt>
					<trkpt lat="46.137840" lon="4.403120">
						<ele>846</ele>
						<time>2026-07-28T23:22:00Z</time>
					</trkpt>
					<trkpt lat="46.138140" lon="4.403050">
						<ele>848</ele>
						<time>2026-07-28T23:22:41Z</time>
					</trkpt>
					<trkpt lat="46.138410" lon="4.403040">
						<ele>850</ele>
						<time>2026-07-28T23:23:17Z</time>
					</trkpt>
					<trkpt lat="46.138470" lon="4.403000">
						<ele>849</ele>
						<time>2026-07-28T23:23:26Z</time>
					</trkpt>
					<trkpt lat="46.138600" lon="4.402980">
						<ele>850</ele>
						<time>2026-07-28T23:23:43Z</time>
					</trkpt>
					<trkpt lat="46.138750" lon="4.403160">
						<ele>853</ele>
						<time>2026-07-28T23:24:09Z</time>
					</trkpt>
					<trkpt lat="46.138830" lon="4.403300">
						<ele>856</ele>
						<time>2026-07-28T23:24:26Z</time>
					</trkpt>
					<trkpt lat="46.138870" lon="4.403310">
						<ele>856</ele>
						<time>2026-07-28T23:24:31Z</time>
					</trkpt>
					<trkpt lat="46.138920" lon="4.403410">
						<ele>857</ele>
						<time>2026-07-28T23:24:43Z</time>
					</trkpt>
					<trkpt lat="46.138970" lon="4.403450">
						<ele>858</ele>
						<time>2026-07-28T23:24:50Z</time>
					</trkpt>
					<trkpt lat="46.139200" lon="4.403850">
						<ele>863</ele>
						<time>2026-07-28T23:25:38Z</time>
					</trkpt>
					<trkpt lat="46.139290" lon="4.403940">
						<ele>864</ele>
						<time>2026-07-28T23:25:53Z</time>
					</trkpt>
					<trkpt lat="46.139390" lon="4.404150">
						<ele>865</ele>
						<time>2026-07-28T23:26:17Z</time>
					</trkpt>
					<trkpt lat="46.139530" lon="4.404320">
						<ele>865</ele>
						<time>2026-07-28T23:26:41Z</time>
					</trkpt>
					<trkpt lat="46.139560" lon="4.404400">
						<ele>865</ele>
						<time>2026-07-28T23:26:49Z</time>
					</trkpt>
					<trkpt lat="46.139680" lon="4.404500">
						<ele>865</ele>
						<time>2026-07-28T23:27:08Z</time>
					</trkpt>
					<trkpt lat="46.139770" lon="4.404490">
						<ele>864</ele>
						<time>2026-07-28T23:27:20Z</time>
					</trkpt>
					<trkpt lat="46.139870" lon="4.404540">
						<ele>864</ele>
						<time>2026-07-28T23:27:34Z</time>
					</trkpt>
					<trkpt lat="46.139860" lon="4.404650">
						<ele>864</ele>
						<time>2026-07-28T23:27:44Z</time>
					</trkpt>
					<trkpt lat="46.140010" lon="4.404610">
						<ele>863</ele>
						<time>2026-07-28T23:28:05Z</time>
					</trkpt>
					<trkpt lat="46.140010" lon="4.404510">
						<ele>863</ele>
						<time>2026-07-28T23:28:14Z</time>
					</trkpt>
					<trkpt lat="46.140050" lon="4.404460">
						<ele>862</ele>
						<time>2026-07-28T23:28:21Z</time>
					</trkpt>
					<trkpt lat="46.140170" lon="4.404160">
						<ele>861</ele>
						<time>2026-07-28T23:28:53Z</time>
					</trkpt>
					<trkpt lat="46.140310" lon="4.403740">
						<ele>859</ele>
						<time>2026-07-28T23:29:36Z</time>
					</trkpt>
					<trkpt lat="46.140440" lon="4.403510">
						<ele>858</ele>
						<time>2026-07-28T23:30:04Z</time>
					</trkpt>
					<trkpt lat="46.140620" lon="4.403360">
						<ele>859</ele>
						<time>2026-07-28T23:30:31Z</time>
					</trkpt>
					<trkpt lat="46.140820" lon="4.403260">
						<ele>860</ele>
						<time>2026-07-28T23:31:00Z</time>
					</trkpt>
					<trkpt lat="46.140870" lon="4.403200">
						<ele>860</ele>
						<time>2026-07-28T23:31:08Z</time>
					</trkpt>
					<trkpt lat="46.140960" lon="4.403150">
						<ele>861</ele>
						<time>2026-07-28T23:31:21Z</time>
					</trkpt>
					<trkpt lat="46.141000" lon="4.403090">
						<ele>862</ele>
						<time>2026-07-28T23:31:29Z</time>
					</trkpt>
					<trkpt lat="46.141060" lon="4.403060">
						<ele>863</ele>
						<time>2026-07-28T23:31:37Z</time>
					</trkpt>
					<trkpt lat="46.141110" lon="4.402990">
						<ele>864</ele>
						<time>2026-07-28T23:31:47Z</time>
					</trkpt>
					<trkpt lat="46.141350" lon="4.402780">
						<ele>868</ele>
						<time>2026-07-28T23:32:24Z</time>
					</trkpt>
					<trkpt lat="46.141670" lon="4.402590">
						<ele>874</ele>
						<time>2026-07-28T23:33:10Z</time>
					</trkpt>
					<trkpt lat="46.141970" lon="4.402250">
						<ele>876</ele>
						<time>2026-07-28T23:34:01Z</time>
					</trkpt>
					<trkpt lat="46.142110" lon="4.402170">
						<ele>877</ele>
						<time>2026-07-28T23:34:21Z</time>
					</trkpt>
					<trkpt lat="46.142340" lon="4.402100">
						<ele>879</ele>
						<time>2026-07-28T23:34:53Z</time>
					</trkpt>
					<trkpt lat="46.142460" lon="4.402140">
						<ele>880</ele>
						<time>2026-07-28T23:35:09Z</time>
					</trkpt>
					<trkpt lat="46.142640" lon="4.402280">
						<ele>878</ele>
						<time>2026-07-28T23:35:36Z</time>
					</trkpt>
					<trkpt lat="46.142780" lon="4.402280">
						<ele>876</ele>
						<time>2026-07-28T23:35:55Z</time>
					</trkpt>
					<trkpt lat="46.143010" lon="4.402330">
						<ele>873</ele>
						<time>2026-07-28T23:36:26Z</time>
					</trkpt>
					<trkpt lat="46.143260" lon="4.402310">
						<ele>870</ele>
						<time>2026-07-28T23:36:59Z</time>
					</trkpt>
					<trkpt lat="46.143680" lon="4.402220">
						<ele>863</ele>
						<time>2026-07-28T23:37:56Z</time>
					</trkpt>
					<trkpt lat="46.143710" lon="4.402170">
						<ele>864</ele>
						<time>2026-07-28T23:38:02Z</time>
					</trkpt>
					<trkpt lat="46.143930" lon="4.402030">
						<ele>861</ele>
						<time>2026-07-28T23:38:34Z</time>
					</trkpt>
					<trkpt lat="46.144130" lon="4.401940">
						<ele>859</ele>
						<time>2026-07-28T23:39:02Z</time>
					</trkpt>
					<trkpt lat="46.144230" lon="4.401930">
						<ele>856</ele>
						<time>2026-07-28T23:39:16Z</time>
					</trkpt>
					<trkpt lat="46.144350" lon="4.401880">
						<ele>854</ele>
						<time>2026-07-28T23:39:32Z</time>
					</trkpt>
					<trkpt lat="46.144500" lon="4.401740">
						<ele>854</ele>
						<time>2026-07-28T23:39:56Z</time>
					</trkpt>
					<trkpt lat="46.144570" lon="4.401710">
						<ele>853</ele>
						<time>2026-07-28T23:40:06Z</time>
					</trkpt>
					<trkpt lat="46.144730" lon="4.401580">
						<ele>852</ele>
						<time>2026-07-28T23:40:30Z</time>
					</trkpt>
					<trkpt lat="46.144830" lon="4.401460">
						<ele>852</ele>
						<time>2026-07-28T23:40:48Z</time>
					</trkpt>
					<trkpt lat="46.145020" lon="4.401360">
						<ele>850</ele>
						<time>2026-07-28T23:41:15Z</time>
					</trkpt>
					<trkpt lat="46.145280" lon="4.401120">
						<ele>847</ele>
						<time>2026-07-28T23:41:56Z</time>
					</trkpt>
					<trkpt lat="46.145450" lon="4.401010">
						<ele>844</ele>
						<time>2026-07-28T23:42:21Z</time>
					</trkpt>
					<trkpt lat="46.145560" lon="4.400890">
						<ele>843</ele>
						<time>2026-07-28T23:42:39Z</time>
					</trkpt>
					<trkpt lat="46.145610" lon="4.400870">
						<ele>842</ele>
						<time>2026-07-28T23:42:46Z</time>
					</trkpt>
					<trkpt lat="46.145640" lon="4.400790">
						<ele>842</ele>
						<time>2026-07-28T23:42:54Z</time>
					</trkpt>
					<trkpt lat="46.145760" lon="4.400690">
						<ele>839</ele>
						<time>2026-07-28T23:43:13Z</time>
					</trkpt>
					<trkpt lat="46.145870" lon="4.400670">
						<ele>836</ele>
						<time>2026-07-28T23:43:28Z</time>
					</trkpt>
					<trkpt lat="46.146040" lon="4.400480">
						<ele>832</ele>
						<time>2026-07-28T23:43:56Z</time>
					</trkpt>
					<trkpt lat="46.146130" lon="4.400470">
						<ele>830</ele>
						<time>2026-07-28T23:44:08Z</time>
					</trkpt>
					<trkpt lat="46.146310" lon="4.400300">
						<ele>826</ele>
						<time>2026-07-28T23:44:37Z</time>
					</trkpt>
					<trkpt lat="46.146380" lon="4.400320">
						<ele>824</ele>
						<time>2026-07-28T23:44:47Z</time>
					</trkpt>
					<trkpt lat="46.146390" lon="4.400450">
						<ele>822</ele>
						<time>2026-07-28T23:44:59Z</time>
					</trkpt>
					<trkpt lat="46.146290" lon="4.400670">
						<ele>824</ele>
						<time>2026-07-28T23:45:23Z</time>
					</trkpt>
					<trkpt lat="46.146270" lon="4.400820">
						<ele>823</ele>
						<time>2026-07-28T23:45:37Z</time>
					</trkpt>
					<trkpt lat="46.146210" lon="4.400970">
						<ele>822</ele>
						<time>2026-07-28T23:45:53Z</time>
					</trkpt>
					<trkpt lat="46.146100" lon="4.401180">
						<ele>822</ele>
						<time>2026-07-28T23:46:18Z</time>
					</trkpt>
					<trkpt lat="46.145770" lon="4.401640">
						<ele>821</ele>
						<time>2026-07-28T23:47:19Z</time>
					</trkpt>
					<trkpt lat="46.145750" lon="4.401740">
						<ele>820</ele>
						<time>2026-07-28T23:47:28Z</time>
					</trkpt>
					<trkpt lat="46.145680" lon="4.401830">
						<ele>821</ele>
						<time>2026-07-28T23:47:41Z</time>
					</trkpt>
					<trkpt lat="46.145650" lon="4.401960">
						<ele>819</ele>
						<time>2026-07-28T23:47:54Z</time>
					</trkpt>
					<trkpt lat="46.145510" lon="4.402150">
						<ele>820</ele>
						<time>2026-07-28T23:48:19Z</time>
					</trkpt>
					<trkpt lat="46.145480" lon="4.402250">
						<ele>818</ele>
						<time>2026-07-28T23:48:29Z</time>
					</trkpt>
					<trkpt lat="46.145440" lon="4.402290">
						<ele>819</ele>
						<time>2026-07-28T23:48:36Z</time>
					</trkpt>
					<trkpt lat="46.145280" lon="4.402650">
						<ele>815</ele>
						<time>2026-07-28T23:49:15Z</time>
					</trkpt>
					<trkpt lat="46.145260" lon="4.402750">
						<ele>813</ele>
						<time>2026-07-28T23:49:25Z</time>
					</trkpt>
					<trkpt lat="46.145030" lon="4.403020">
						<ele>812</ele>
						<time>2026-07-28T23:50:05Z</time>
					</trkpt>
					<trkpt lat="46.145020" lon="4.403070">
						<ele>811</ele>
						<time>2026-07-28T23:50:09Z</time>
					</trkpt>
					<trkpt lat="46.144780" lon="4.403370">
						<ele>810</ele>
						<time>2026-07-28T23:50:52Z</time>
					</trkpt>
					<trkpt lat="46.144690" lon="4.403530">
						<ele>808</ele>
						<time>2026-07-28T23:51:11Z</time>
					</trkpt>
					<trkpt lat="46.144400" lon="4.403700">
						<ele>812</ele>
						<time>2026-07-28T23:51:53Z</time>
					</trkpt>
					<trkpt lat="46.144240" lon="4.403830">
						<ele>813</ele>
						<time>2026-07-28T23:52:17Z</time>
					</trkpt>
					<trkpt lat="46.144200" lon="4.403890">
						<ele>813</ele>
						<time>2026-07-28T23:52:25Z</time>
					</trkpt>
					<trkpt lat="46.144180" lon="4.404040">
						<ele>810</ele>
						<time>2026-07-28T23:52:39Z</time>
					</trkpt>
					<trkpt lat="46.144140" lon="4.404090">
						<ele>810</ele>
						<time>2026-07-28T23:52:46Z</time>
					</trkpt>
					<trkpt lat="46.144120" lon="4.404170">
						<ele>809</ele>
						<time>2026-07-28T23:52:54Z</time>
					</trkpt>
					<trkpt lat="46.143950" lon="4.404330">
						<ele>810</ele>
						<time>2026-07-28T23:53:21Z</time>
					</trkpt>
					<trkpt lat="46.143760" lon="4.404610">
						<ele>809</ele>
						<time>2026-07-28T23:53:57Z</time>
					</trkpt>
					<trkpt lat="46.143610" lon="4.404740">
						<ele>811</ele>
						<time>2026-07-28T23:54:21Z</time>
					</trkpt>
					<trkpt lat="46.143440" lon="4.404990">
						<ele>810</ele>
						<time>2026-07-28T23:54:53Z</time>
					</trkpt>
					<trkpt lat="46.143330" lon="4.405100">
						<ele>810</ele>
						<time>2026-07-28T23:55:11Z</time>
					</trkpt>
					<trkpt lat="46.143190" lon="4.405320">
						<ele>808</ele>
						<time>2026-07-28T23:55:38Z</time>
					</trkpt>
					<trkpt lat="46.143150" lon="4.405430">
						<ele>806</ele>
						<time>2026-07-28T23:55:50Z</time>
					</trkpt>
					<trkpt lat="46.143110" lon="4.405450">
						<ele>807</ele>
						<time>2026-07-28T23:55:56Z</time>
					</trkpt>
					<trkpt lat="46.143020" lon="4.405620">
						<ele>805</ele>
						<time>2026-07-28T23:56:15Z</time>
					</trkpt>
					<trkpt lat="46.142940" lon="4.405700">
						<ele>805</ele>
						<time>2026-07-28T23:56:28Z</time>
					</trkpt>
					<trkpt lat="46.142880" lon="4.405840">
						<ele>804</ele>
						<time>2026-07-28T23:56:43Z</time>
					</trkpt>
					<trkpt lat="46.142870" lon="4.405950">
						<ele>803</ele>
						<time>2026-07-28T23:56:54Z</time>
					</trkpt>
					<trkpt lat="46.142780" lon="4.406030">
						<ele>804</ele>
						<time>2026-07-28T23:57:08Z</time>
					</trkpt>
					<trkpt lat="46.142640" lon="4.406280">
						<ele>803</ele>
						<time>2026-07-28T23:57:38Z</time>
					</trkpt>
					<trkpt lat="46.142610" lon="4.406400">
						<ele>802</ele>
						<time>2026-07-28T23:57:49Z</time>
					</trkpt>
					<trkpt lat="46.142530" lon="4.406470">
						<ele>802</ele>
						<time>2026-07-28T23:58:02Z</time>
					</trkpt>
					<trkpt lat="46.142490" lon="4.406540">
						<ele>802</ele>
						<time>2026-07-28T23:58:10Z</time>
					</trkpt>
					<trkpt lat="46.142400" lon="4.406760">
						<ele>800</ele>
						<time>2026-07-28T23:58:34Z</time>
					</trkpt>
					<trkpt lat="46.142310" lon="4.406840">
						<ele>799</ele>
						<time>2026-07-28T23:58:48Z</time>
					</trkpt>
					<trkpt lat="46.142180" lon="4.407050">
						<ele>796</ele>
						<time>2026-07-28T23:59:14Z</time>
					</trkpt>
					<trkpt lat="46.141950" lon="4.407220">
						<ele>793</ele>
						<time>2026-07-28T23:59:49Z</time>
					</trkpt>
					<trkpt lat="46.141750" lon="4.407260">
						<ele>794</ele>
						<time>2026-07-29T00:00:15Z</time>
					</trkpt>
					<trkpt lat="46.141600" lon="4.407240">
						<ele>796</ele>
						<time>2026-07-29T00:00:36Z</time>
					</trkpt>
					<trkpt lat="46.141470" lon="4.407270">
						<ele>796</ele>
						<time>2026-07-29T00:00:53Z</time>
					</trkpt>
					<trkpt lat="46.141010" lon="4.407220">
						<ele>804</ele>
						<time>2026-07-29T00:01:55Z</time>
					</trkpt>
					<trkpt lat="46.140920" lon="4.407240">
						<ele>804</ele>
						<time>2026-07-29T00:02:07Z</time>
					</trkpt>
					<trkpt lat="46.140720" lon="4.407560">
						<ele>801</ele>
						<time>2026-07-29T00:02:47Z</time>
					</trkpt>
					<trkpt lat="46.140780" lon="4.407560">
						<ele>799</ele>
						<time>2026-07-29T00:02:55Z</time>
					</trkpt>
					<trkpt lat="46.140780" lon="4.407590">
						<ele>798</ele>
						<time>2026-07-29T00:02:57Z</time>
					</trkpt>
					<trkpt lat="46.140830" lon="4.407600">
						<ele>796</ele>
						<time>2026-07-29T00:03:04Z</time>
					</trkpt>
					<trkpt lat="46.140850" lon="4.407630">
						<ele>795</ele>
						<time>2026-07-29T00:03:08Z</time>
					</trkpt>
					<trkpt lat="46.140790" lon="4.407900">
						<ele>792</ele>
						<time>2026-07-29T00:03:34Z</time>
					</trkpt>
					<trkpt lat="46.140710" lon="4.408080">
						<ele>790</ele>
						<time>2026-07-29T00:03:54Z</time>
					</trkpt>
					<trkpt lat="46.140490" lon="4.408380">
						<ele>790</ele>
						<time>2026-07-29T00:04:34Z</time>
					</trkpt>
					<trkpt lat="46.140440" lon="4.408490">
						<ele>789</ele>
						<time>2026-07-29T00:04:47Z</time>
					</trkpt>
					<trkpt lat="46.140300" lon="4.408650">
						<ele>788</ele>
						<time>2026-07-29T00:05:10Z</time>
					</trkpt>
					<trkpt lat="46.139990" lon="4.408880">
						<ele>791</ele>
						<time>2026-07-29T00:05:57Z</time>
					</trkpt>
					<trkpt lat="46.139870" lon="4.409140">
						<ele>787</ele>
						<time>2026-07-29T00:06:26Z</time>
					</trkpt>
					<trkpt lat="46.139790" lon="4.409210">
						<ele>787</ele>
						<time>2026-07-29T00:06:38Z</time>
					</trkpt>
					<trkpt lat="46.139700" lon="4.409410">
						<ele>784</ele>
						<time>2026-07-29T00:07:00Z</time>
					</trkpt>
					<trkpt lat="46.139570" lon="4.409560">
						<ele>784</ele>
						<time>2026-07-29T00:07:23Z</time>
					</trkpt>
					<trkpt lat="46.139380" lon="4.409890">
						<ele>782</ele>
						<time>2026-07-29T00:08:02Z</time>
					</trkpt>
					<trkpt lat="46.139320" lon="4.409940">
						<ele>783</ele>
						<time>2026-07-29T00:08:11Z</time>
					</trkpt>
					<trkpt lat="46.139270" lon="4.409950">
						<ele>784</ele>
						<time>2026-07-29T00:08:18Z</time>
					</trkpt>
					<trkpt lat="46.139230" lon="4.410000">
						<ele>784</ele>
						<time>2026-07-29T00:08:25Z</time>
					</trkpt>
					<trkpt lat="46.139240" lon="4.410120">
						<ele>784</ele>
						<time>2026-07-29T00:08:36Z</time>
					</trkpt>
					<trkpt lat="46.139350" lon="4.410500">
						<ele>779</ele>
						<time>2026-07-29T00:09:15Z</time>
					</trkpt>
					<trkpt lat="46.139340" lon="4.410580">
						<ele>780</ele>
						<time>2026-07-29T00:09:22Z</time>
					</trkpt>
					<trkpt lat="46.139380" lon="4.410780">
						<ele>778</ele>
						<time>2026-07-29T00:09:41Z</time>
					</trkpt>
					<trkpt lat="46.139480" lon="4.411020">
						<ele>775</ele>
						<time>2026-07-29T00:10:07Z</time>
					</trkpt>
					<trkpt lat="46.139550" lon="4.411570">
						<ele>776</ele>
						<time>2026-07-29T00:10:59Z</time>
					</trkpt>
					<trkpt lat="46.139620" lon="4.411800">
						<ele>775</ele>
						<time>2026-07-29T00:11:22Z</time>
					</trkpt>
					<trkpt lat="46.139600" lon="4.412240">
						<ele>777</ele>
						<time>2026-07-29T00:12:03Z</time>
					</trkpt>
					<trkpt lat="46.139630" lon="4.412350">
						<ele>776</ele>
						<time>2026-07-29T00:12:14Z</time>
					</trkpt>
					<trkpt lat="46.139640" lon="4.412600">
						<ele>775</ele>
						<time>2026-07-29T00:12:37Z</time>
					</trkpt>
					<trkpt lat="46.139590" lon="4.412900">
						<ele>773</ele>
						<time>2026-07-29T00:13:06Z</time>
					</trkpt>
					<trkpt lat="46.139610" lon="4.413340">
						<ele>767</ele>
						<time>2026-07-29T00:13:46Z</time>
					</trkpt>
					<trkpt lat="46.139640" lon="4.413390">
						<ele>767</ele>
						<time>2026-07-29T00:13:52Z</time>
					</trkpt>
					<trkpt lat="46.139660" lon="4.413560">
						<ele>768</ele>
						<time>2026-07-29T00:14:08Z</time>
					</trkpt>
					<trkpt lat="46.139700" lon="4.413630">
						<ele>767</ele>
						<time>2026-07-29T00:14:17Z</time>
					</trkpt>
					<trkpt lat="46.139740" lon="4.413650">
						<ele>767</ele>
						<time>2026-07-29T00:14:22Z</time>
					</trkpt>
					<trkpt lat="46.139860" lon="4.413890">
						<ele>766</ele>
						<time>2026-07-29T00:14:50Z</time>
					</trkpt>
					<trkpt lat="46.139970" lon="4.414050">
						<ele>765</ele>
						<time>2026-07-29T00:15:11Z</time>
					</trkpt>
					<trkpt lat="46.140000" lon="4.414120">
						<ele>765</ele>
						<time>2026-07-29T00:15:18Z</time>
					</trkpt>
					<trkpt lat="46.139990" lon="4.414190">
						<ele>766</ele>
						<time>2026-07-29T00:15:25Z</time>
					</trkpt>
					<trkpt lat="46.140100" lon="4.414320">
						<ele>766</ele>
						<time>2026-07-29T00:15:44Z</time>
					</trkpt>
					<trkpt lat="46.140190" lon="4.414480">
						<ele>767</ele>
						<time>2026-07-29T00:16:03Z</time>
					</trkpt>
					<trkpt lat="46.140180" lon="4.414500">
						<ele>768</ele>
						<time>2026-07-29T00:16:05Z</time>
					</trkpt>
					<trkpt lat="46.140150" lon="4.414490">
						<ele>768</ele>
						<time>2026-07-29T00:16:09Z</time>
					</trkpt>
					<trkpt lat="46.140160" lon="4.414690">
						<ele>771</ele>
						<time>2026-07-29T00:16:28Z</time>
					</trkpt>
					<trkpt lat="46.140230" lon="4.414740">
						<ele>771</ele>
						<time>2026-07-29T00:16:38Z</time>
					</trkpt>
					<trkpt lat="46.140320" lon="4.415000">
						<ele>773</ele>
						<time>2026-07-29T00:17:05Z</time>
					</trkpt>
					<trkpt lat="46.140460" lon="4.415260">
						<ele>774</ele>
						<time>2026-07-29T00:17:36Z</time>
					</trkpt>
					<trkpt lat="46.140640" lon="4.415310">
						<ele>771</ele>
						<time>2026-07-29T00:18:00Z</time>
					</trkpt>
					<trkpt lat="46.140730" lon="4.415400">
						<ele>771</ele>
						<time>2026-07-29T00:18:15Z</time>
					</trkpt>
					<trkpt lat="46.140780" lon="4.415410">
						<ele>770</ele>
						<time>2026-07-29T00:18:21Z</time>
					</trkpt>
					<trkpt lat="46.141110" lon="4.415690">
						<ele>770</ele>
						<time>2026-07-29T00:19:12Z</time>
					</trkpt>
					<trkpt lat="46.141430" lon="4.415920">
						<ele>771</ele>
						<time>2026-07-29T00:20:00Z</time>
					</trkpt>
					<trkpt lat="46.141910" lon="4.416550">
						<ele>772</ele>
						<time>2026-07-29T00:21:27Z</time>
					</trkpt>
					<trkpt lat="46.142020" lon="4.416660">
						<ele>771</ele>
						<time>2026-07-29T00:21:45Z</time>
					</trkpt>
					<trkpt lat="46.142170" lon="4.416950">
						<ele>767</ele>
						<time>2026-07-29T00:22:18Z</time>
					</trkpt>
					<trkpt lat="46.142210" lon="4.417350">
						<ele>766</ele>
						<time>2026-07-29T00:22:55Z</time>
					</trkpt>
					<trkpt lat="46.142280" lon="4.417530">
						<ele>764</ele>
						<time>2026-07-29T00:23:14Z</time>
					</trkpt>
					<trkpt lat="46.142310" lon="4.417790">
						<ele>764</ele>
						<time>2026-07-29T00:23:39Z</time>
					</trkpt>
					<trkpt lat="46.142260" lon="4.418140">
						<ele>765</ele>
						<time>2026-07-29T00:24:12Z</time>
					</trkpt>
					<trkpt lat="46.142280" lon="4.418450">
						<ele>765</ele>
						<time>2026-07-29T00:24:41Z</time>
					</trkpt>
					<trkpt lat="46.142240" lon="4.418620">
						<ele>766</ele>
						<time>2026-07-29T00:24:57Z</time>
					</trkpt>
					<trkpt lat="46.142230" lon="4.418810">
						<ele>766</ele>
						<time>2026-07-29T00:25:15Z</time>
					</trkpt>
					<trkpt lat="46.142260" lon="4.419190">
						<ele>765</ele>
						<time>2026-07-29T00:25:50Z</time>
					</trkpt>
					<trkpt lat="46.142300" lon="4.419270">
						<ele>764</ele>
						<time>2026-07-29T00:25:59Z</time>
					</trkpt>
					<trkpt lat="46.142330" lon="4.420220">
						<ele>759</ele>
						<time>2026-07-29T00:27:27Z</time>
					</trkpt>
					<trkpt lat="46.142410" lon="4.420950">
						<ele>759</ele>
						<time>2026-07-29T00:28:36Z</time>
					</trkpt>
					<trkpt lat="46.142270" lon="4.421360">
						<ele>761</ele>
						<time>2026-07-29T00:29:18Z</time>
					</trkpt>
					<trkpt lat="46.142180" lon="4.421450">
						<ele>761</ele>
						<time>2026-07-29T00:29:33Z</time>
					</trkpt>
					<trkpt lat="46.142060" lon="4.421370">
						<ele>761</ele>
						<time>2026-07-29T00:29:50Z</time>
					</trkpt>
					<trkpt lat="46.141890" lon="4.421150">
						<ele>762</ele>
						<time>2026-07-29T00:30:21Z</time>
					</trkpt>
					<trkpt lat="46.141630" lon="4.420420">
						<ele>764</ele>
						<time>2026-07-29T00:31:37Z</time>
					</trkpt>
					<trkpt lat="46.141360" lon="4.420210">
						<ele>764</ele>
						<time>2026-07-29T00:32:17Z</time>
					</trkpt>
					<trkpt lat="46.141260" lon="4.420100">
						<ele>765</ele>
						<time>2026-07-29T00:32:34Z</time>
					</trkpt>
					<trkpt lat="46.141230" lon="4.420020">
						<ele>765</ele>
						<time>2026-07-29T00:32:43Z</time>
					</trkpt>
					<trkpt lat="46.141150" lon="4.419950">
						<ele>766</ele>
						<time>2026-07-29T00:32:55Z</time>
					</trkpt>
					<trkpt lat="46.141110" lon="4.419840">
						<ele>767</ele>
						<time>2026-07-29T00:33:07Z</time>
					</trkpt>
					<trkpt lat="46.141060" lon="4.419820">
						<ele>768</ele>
						<time>2026-07-29T00:33:14Z</time>
					</trkpt>
					<trkpt lat="46.141020" lon="4.419710">
						<ele>769</ele>
						<time>2026-07-29T00:33:25Z</time>
					</trkpt>
					<trkpt lat="46.140950" lon="4.419610">
						<ele>770</ele>
						<time>2026-07-29T00:33:38Z</time>
					</trkpt>
					<trkpt lat="46.140900" lon="4.419580">
						<ele>771</ele>
						<time>2026-07-29T00:33:45Z</time>
					</trkpt>
					<trkpt lat="46.140870" lon="4.419520">
						<ele>771</ele>
						<time>2026-07-29T00:33:52Z</time>
					</trkpt>
					<trkpt lat="46.140880" lon="4.419470">
						<ele>772</ele>
						<time>2026-07-29T00:33:57Z</time>
					</trkpt>
					<trkpt lat="46.140840" lon="4.419410">
						<ele>773</ele>
						<time>2026-07-29T00:34:05Z</time>
					</trkpt>
					<trkpt lat="46.140660" lon="4.419180">
						<ele>777</ele>
						<time>2026-07-29T00:34:37Z</time>
					</trkpt>
					<trkpt lat="46.140610" lon="4.419160">
						<ele>777</ele>
						<time>2026-07-29T00:34:44Z</time>
					</trkpt>
					<trkpt lat="46.140560" lon="4.419060">
						<ele>779</ele>
						<time>2026-07-29T00:34:55Z</time>
					</trkpt>
					<trkpt lat="46.140420" lon="4.419030">
						<ele>780</ele>
						<time>2026-07-29T00:35:14Z</time>
					</trkpt>
					<trkpt lat="46.140330" lon="4.419070">
						<ele>781</ele>
						<time>2026-07-29T00:35:27Z</time>
					</trkpt>
					<trkpt lat="46.140270" lon="4.419060">
						<ele>782</ele>
						<time>2026-07-29T00:35:35Z</time>
					</trkpt>
					<trkpt lat="46.140240" lon="4.419030">
						<ele>782</ele>
						<time>2026-07-29T00:35:40Z</time>
					</trkpt>
					<trkpt lat="46.140140" lon="4.419040">
						<ele>783</ele>
						<time>2026-07-29T00:35:53Z</time>
					</trkpt>
					<trkpt lat="46.140030" lon="4.418970">
						<ele>785</ele>
						<time>2026-07-29T00:36:09Z</time>
					</trkpt>
					<trkpt lat="46.139890" lon="4.418950">
						<ele>786</ele>
						<time>2026-07-29T00:36:28Z</time>
					</trkpt>
					<trkpt lat="46.139820" lon="4.418970">
						<ele>786</ele>
						<time>2026-07-29T00:36:37Z</time>
					</trkpt>
					<trkpt lat="46.139700" lon="4.418930">
						<ele>787</ele>
						<time>2026-07-29T00:36:54Z</time>
					</trkpt>
					<trkpt lat="46.139570" lon="4.418970">
						<ele>787</ele>
						<time>2026-07-29T00:37:11Z</time>
					</trkpt>
					<trkpt lat="46.139570" lon="4.418950">
						<ele>788</ele>
						<time>2026-07-29T00:37:13Z</time>
					</trkpt>
					<trkpt lat="46.139520" lon="4.418950">
						<ele>788</ele>
						<time>2026-07-29T00:37:20Z</time>
					</trkpt>
					<trkpt lat="46.139330" lon="4.418870">
						<ele>790</ele>
						<time>2026-07-29T00:37:46Z</time>
					</trkpt>
					<trkpt lat="46.139180" lon="4.418890">
						<ele>791</ele>
						<time>2026-07-29T00:38:06Z</time>
					</trkpt>
					<trkpt lat="46.139040" lon="4.418770">
						<ele>795</ele>
						<time>2026-07-29T00:38:28Z</time>
					</trkpt>
					<trkpt lat="46.138900" lon="4.418810">
						<ele>796</ele>
						<time>2026-07-29T00:38:47Z</time>
					</trkpt>
					<trkpt lat="46.138760" lon="4.418930">
						<ele>795</ele>
						<time>2026-07-29T00:39:09Z</time>
					</trkpt>
					<trkpt lat="46.138680" lon="4.419050">
						<ele>794</ele>
						<time>2026-07-29T00:39:24Z</time>
					</trkpt>
					<trkpt lat="46.138470" lon="4.419180">
						<ele>793</ele>
						<time>2026-07-29T00:39:55Z</time>
					</trkpt>
					<trkpt lat="46.138350" lon="4.419290">
						<ele>792</ele>
						<time>2026-07-29T00:40:14Z</time>
					</trkpt>
					<trkpt lat="46.138180" lon="4.419490">
						<ele>792</ele>
						<time>2026-07-29T00:40:43Z</time>
					</trkpt>
					<trkpt lat="46.137790" lon="4.419670">
						<ele>801</ele>
						<time>2026-07-29T00:41:38Z</time>
					</trkpt>
					<trkpt lat="46.137670" lon="4.419680">
						<ele>805</ele>
						<time>2026-07-29T00:41:54Z</time>
					</trkpt>
					<trkpt lat="46.137460" lon="4.419740">
						<ele>810</ele>
						<time>2026-07-29T00:42:22Z</time>
					</trkpt>
					<trkpt lat="46.137300" lon="4.419880">
						<ele>813</ele>
						<time>2026-07-29T00:42:47Z</time>
					</trkpt>
					<trkpt lat="46.137170" lon="4.420040">
						<ele>814</ele>
						<time>2026-07-29T00:43:10Z</time>
					</trkpt>
					<trkpt lat="46.137090" lon="4.420090">
						<ele>815</ele>
						<time>2026-07-29T00:43:22Z</time>
					</trkpt>
					<trkpt lat="46.136960" lon="4.420380">
						<ele>817</ele>
						<time>2026-07-29T00:43:54Z</time>
					</trkpt>
					<trkpt lat="46.136930" lon="4.420740">
						<ele>816</ele>
						<time>2026-07-29T00:44:27Z</time>
					</trkpt>
					<trkpt lat="46.136810" lon="4.421180">
						<ele>819</ele>
						<time>2026-07-29T00:45:11Z</time>
					</trkpt>
					<trkpt lat="46.136810" lon="4.421290">
						<ele>819</ele>
						<time>2026-07-29T00:45:21Z</time>
					</trkpt>
					<trkpt lat="46.136780" lon="4.421310">
						<ele>820</ele>
						<time>2026-07-29T00:45:26Z</time>
					</trkpt>
					<trkpt lat="46.136740" lon="4.421520">
						<ele>821</ele>
						<time>2026-07-29T00:45:46Z</time>
					</trkpt>
					<trkpt lat="46.136670" lon="4.421590">
						<ele>823</ele>
						<time>2026-07-29T00:45:57Z</time>
					</trkpt>
					<trkpt lat="46.136680" lon="4.421640">
						<ele>823</ele>
						<time>2026-07-29T00:46:02Z</time>
					</trkpt>
					<trkpt lat="46.136640" lon="4.421720">
						<ele>823</ele>
						<time>2026-07-29T00:46:11Z</time>
					</trkpt>
					<trkpt lat="46.136620" lon="4.421840">
						<ele>823</ele>
						<time>2026-07-29T00:46:22Z</time>
					</trkpt>
					<trkpt lat="46.136520" lon="4.422010">
						<ele>825</ele>
						<time>2026-07-29T00:46:43Z</time>
					</trkpt>
					<trkpt lat="46.136530" lon="4.422160">
						<ele>824</ele>
						<time>2026-07-29T00:46:57Z</time>
					</trkpt>
					<trkpt lat="46.136510" lon="4.422170">
						<ele>825</ele>
						<time>2026-07-29T00:47:00Z</time>
					</trkpt>
					<trkpt lat="46.136530" lon="4.422200">
						<ele>824</ele>
						<time>2026-07-29T00:47:04Z</time>
					</trkpt>
					<trkpt lat="46.136450" lon="4.422330">
						<ele>826</ele>
						<time>2026-07-29T00:47:20Z</time>
					</trkpt>
					<trkpt lat="46.136370" lon="4.422380">
						<ele>827</ele>
						<time>2026-07-29T00:47:31Z</time>
					</trkpt>
					<trkpt lat="46.136310" lon="4.422550">
						<ele>828</ele>
						<time>2026-07-29T00:47:49Z</time>
					</trkpt>
					<trkpt lat="46.136240" lon="4.422600">
						<ele>829</ele>
						<time>2026-07-29T00:47:59Z</time>
					</trkpt>
					<trkpt lat="46.136220" lon="4.422670">
						<ele>829</ele>
						<time>2026-07-29T00:48:06Z</time>
					</trkpt>
					<trkpt lat="46.136030" lon="4.422810">
						<ele>832</ele>
						<time>2026-07-29T00:48:35Z</time>
					</trkpt>
					<trkpt lat="46.135840" lon="4.422910">
						<ele>835</ele>
						<time>2026-07-29T00:49:02Z</time>
					</trkpt>
					<trkpt lat="46.135320" lon="4.423040">
						<ele>840</ele>
						<time>2026-07-29T00:50:12Z</time>
					</trkpt>
					<trkpt lat="46.135290" lon="4.423070">
						<ele>840</ele>
						<time>2026-07-29T00:50:17Z</time>
					</trkpt>
					<trkpt lat="46.135260" lon="4.423040">
						<ele>840</ele>
						<time>2026-07-29T00:50:22Z</time>
					</trkpt>
					<trkpt lat="46.135260" lon="4.423100">
						<ele>840</ele>
						<time>2026-07-29T00:50:28Z</time>
					</trkpt>
					<trkpt lat="46.135170" lon="4.423140">
						<ele>840</ele>
						<time>2026-07-29T00:50:40Z</time>
					</trkpt>
					<trkpt lat="46.135090" lon="4.423090">
						<ele>841</ele>
						<time>2026-07-29T00:50:52Z</time>
					</trkpt>
					<trkpt lat="46.135070" lon="4.423120">
						<ele>841</ele>
						<time>2026-07-29T00:50:56Z</time>
					</trkpt>
					<trkpt lat="46.135040" lon="4.423060">
						<ele>842</ele>
						<time>2026-07-29T00:51:02Z</time>
					</trkpt>
					<trkpt lat="46.134970" lon="4.423040">
						<ele>843</ele>
						<time>2026-07-29T00:51:12Z</time>
					</trkpt>
					<trkpt lat="46.134750" lon="4.423040">
						<ele>845</ele>
						<time>2026-07-29T00:51:41Z</time>
					</trkpt>
					<trkpt lat="46.134680" lon="4.423010">
						<ele>846</ele>
						<time>2026-07-29T00:51:51Z</time>
					</trkpt>
					<trkpt lat="46.134580" lon="4.423020">
						<ele>847</ele>
						<time>2026-07-29T00:52:04Z</time>
					</trkpt>
					<trkpt lat="46.134250" lon="4.423150">
						<ele>848</ele>
						<time>2026-07-29T00:52:50Z</time>
					</trkpt>
					<trkpt lat="46.133850" lon="4.423200">
						<ele>849</ele>
						<time>2026-07-29T00:53:44Z</time>
					</trkpt>
					<trkpt lat="46.133830" lon="4.423240">
						<ele>849</ele>
						<time>2026-07-29T00:53:48Z</time>
					</trkpt>
					<trkpt lat="46.133750" lon="4.423240">
						<ele>849</ele>
						<time>2026-07-29T00:53:59Z</time>
					</trkpt>
					<trkpt lat="46.133700" lon="4.423280">
						<ele>849</ele>
						<time>2026-07-29T00:54:07Z</time>
					</trkpt>
					<trkpt lat="46.133320" lon="4.423300">
						<ele>849</ele>
						<time>2026-07-29T00:54:57Z</time>
					</trkpt>
					<trkpt lat="46.133210" lon="4.423330">
						<ele>848</ele>
						<time>2026-07-29T00:55:12Z</time>
					</trkpt>
					<trkpt lat="46.132750" lon="4.423220">
						<ele>847</ele>
						<time>2026-07-29T00:56:14Z</time>
					</trkpt>
					<trkpt lat="46.132660" lon="4.423170">
						<ele>847</ele>
						<time>2026-07-29T00:56:27Z</time>
					</trkpt>
					<trkpt lat="46.132560" lon="4.423150">
						<ele>846</ele>
						<time>2026-07-29T00:56:41Z</time>
					</trkpt>
					<trkpt lat="46.132540" lon="4.423100">
						<ele>847</ele>
						<time>2026-07-29T00:56:46Z</time>
					</trkpt>
					<trkpt lat="46.132430" lon="4.423070">
						<ele>847</ele>
						<time>2026-07-29T00:57:01Z</time>
					</trkpt>
					<trkpt lat="46.132090" lon="4.422860">
						<ele>851</ele>
						<time>2026-07-29T00:57:50Z</time>
					</trkpt>
					<trkpt lat="46.131890" lon="4.422790">
						<ele>852</ele>
						<time>2026-07-29T00:58:18Z</time>
					</trkpt>
					<trkpt lat="46.131770" lon="4.422660">
						<ele>853</ele>
						<time>2026-07-29T00:58:38Z</time>
					</trkpt>
					<trkpt lat="46.131660" lon="4.422640">
						<ele>854</ele>
						<time>2026-07-29T00:58:53Z</time>
					</trkpt>
					<trkpt lat="46.131550" lon="4.422560">
						<ele>855</ele>
						<time>2026-07-29T00:59:09Z</time>
					</trkpt>
					<trkpt lat="46.131480" lon="4.422560">
						<ele>856</ele>
						<time>2026-07-29T00:59:18Z</time>
					</trkpt>
					<trkpt lat="46.131030" lon="4.422940">
						<ele>861</ele>
						<time>2026-07-29T01:00:28Z</time>
					</trkpt>
					<trkpt lat="46.130620" lon="4.423150">
						<ele>864</ele>
						<time>2026-07-29T01:01:26Z</time>
					</trkpt>
					<trkpt lat="46.130030" lon="4.423660">
						<ele>866</ele>
						<time>2026-07-29T01:02:58Z</time>
					</trkpt>
					<trkpt lat="46.129610" lon="4.423940">
						<ele>863</ele>
						<time>2026-07-29T01:04:00Z</time>
					</trkpt>
					<trkpt lat="46.129180" lon="4.424150">
						<ele>862</ele>
						<time>2026-07-29T01:05:00Z</time>
					</trkpt>
					<trkpt lat="46.129010" lon="4.424270">
						<ele>862</ele>
						<time>2026-07-29T01:05:25Z</time>
					</trkpt>
					<trkpt lat="46.128980" lon="4.424330">
						<ele>862</ele>
						<time>2026-07-29T01:05:32Z</time>
					</trkpt>
					<trkpt lat="46.128620" lon="4.424570">
						<ele>864</ele>
						<time>2026-07-29T01:06:25Z</time>
					</trkpt>
					<trkpt lat="46.128350" lon="4.424810">
						<ele>868</ele>
						<time>2026-07-29T01:07:08Z</time>
					</trkpt>
					<trkpt lat="46.128260" lon="4.424810">
						<ele>868</ele>
						<time>2026-07-29T01:07:20Z</time>
					</trkpt>
					<trkpt lat="46.128080" lon="4.424910">
						<ele>871</ele>
						<time>2026-07-29T01:07:45Z</time>
					</trkpt>
					<trkpt lat="46.127960" lon="4.425070">
						<ele>873</ele>
						<time>2026-07-29T01:08:07Z</time>
					</trkpt>
					<trkpt lat="46.127910" lon="4.425050">
						<ele>874</ele>
						<time>2026-07-29T01:08:14Z</time>
					</trkpt>
					<trkpt lat="46.127820" lon="4.425090">
						<ele>874</ele>
						<time>2026-07-29T01:08:27Z</time>
					</trkpt>
					<trkpt lat="46.127670" lon="4.425230">
						<ele>875</ele>
						<time>2026-07-29T01:08:50Z</time>
					</trkpt>
					<trkpt lat="46.127610" lon="4.425230">
						<ele>876</ele>
						<time>2026-07-29T01:08:58Z</time>
					</trkpt>
					<trkpt lat="46.127420" lon="4.425400">
						<ele>877</ele>
						<time>2026-07-29T01:09:28Z</time>
					</trkpt>
					<trkpt lat="46.127260" lon="4.425460">
						<ele>877</ele>
						<time>2026-07-29T01:09:50Z</time>
					</trkpt>
					<trkpt lat="46.127160" lon="4.425450">
						<ele>877</ele>
						<time>2026-07-29T01:10:04Z</time>
					</trkpt>
					<trkpt lat="46.127060" lon="4.425500">
						<ele>877</ele>
						<time>2026-07-29T01:10:18Z</time>
					</trkpt>
					<trkpt lat="46.126930" lon="4.425510">
						<ele>877</ele>
						<time>2026-07-29T01:10:35Z</time>
					</trkpt>
					<trkpt lat="46.126870" lon="4.425490">
						<ele>877</ele>
						<time>2026-07-29T01:10:43Z</time>
					</trkpt>
					<trkpt lat="46.126640" lon="4.425570">
						<ele>876</ele>
						<time>2026-07-29T01:11:15Z</time>
					</trkpt>
					<trkpt lat="46.126270" lon="4.425910">
						<ele>875</ele>
						<time>2026-07-29T01:12:14Z</time>
					</trkpt>
					<trkpt lat="46.126140" lon="4.426070">
						<ele>874</ele>
						<time>2026-07-29T01:12:36Z</time>
					</trkpt>
					<trkpt lat="46.125720" lon="4.426400">
						<ele>877</ele>
						<time>2026-07-29T01:13:40Z</time>
					</trkpt>
					<trkpt lat="46.125670" lon="4.426470">
						<ele>877</ele>
						<time>2026-07-29T01:13:49Z</time>
					</trkpt>
					<trkpt lat="46.125380" lon="4.426710">
						<ele>878</ele>
						<time>2026-07-29T01:14:34Z</time>
					</trkpt>
					<trkpt lat="46.125300" lon="4.426810">
						<ele>878</ele>
						<time>2026-07-29T01:14:48Z</time>
					</trkpt>
					<trkpt lat="46.125000" lon="4.426980">
						<ele>879</ele>
						<time>2026-07-29T01:15:31Z</time>
					</trkpt>
					<trkpt lat="46.124530" lon="4.427370">
						<ele>875</ele>
						<time>2026-07-29T01:16:44Z</time>
					</trkpt>
					<trkpt lat="46.124270" lon="4.427850">
						<ele>872</ele>
						<time>2026-07-29T01:17:40Z</time>
					</trkpt>
					<trkpt lat="46.124280" lon="4.427930">
						<ele>871</ele>
						<time>2026-07-29T01:17:47Z</time>
					</trkpt>
					<trkpt lat="46.124180" lon="4.428120">
						<ele>871</ele>
						<time>2026-07-29T01:18:09Z</time>
					</trkpt>
					<trkpt lat="46.123900" lon="4.428330">
						<ele>871</ele>
						<time>2026-07-29T01:18:52Z</time>
					</trkpt>
					<trkpt lat="46.123880" lon="4.428400">
						<ele>871</ele>
						<time>2026-07-29T01:18:59Z</time>
					</trkpt>
					<trkpt lat="46.123800" lon="4.428400">
						<ele>871</ele>
						<time>2026-07-29T01:19:09Z</time>
					</trkpt>
					<trkpt lat="46.123660" lon="4.428250">
						<ele>871</ele>
						<time>2026-07-29T01:19:33Z</time>
					</trkpt>
					<trkpt lat="46.123530" lon="4.428190">
						<ele>871</ele>
						<time>2026-07-29T01:19:51Z</time>
					</trkpt>
					<trkpt lat="46.123300" lon="4.428000">
						<ele>869</ele>
						<time>2026-07-29T01:20:26Z</time>
					</trkpt>
					<trkpt lat="46.123180" lon="4.427960">
						<ele>869</ele>
						<time>2026-07-29T01:20:43Z</time>
					</trkpt>
					<trkpt lat="46.123140" lon="4.427810">
						<ele>867</ele>
						<time>2026-07-29T01:20:57Z</time>
					</trkpt>
					<trkpt lat="46.122980" lon="4.427800">
						<ele>867</ele>
						<time>2026-07-29T01:21:19Z</time>
					</trkpt>
					<trkpt lat="46.122900" lon="4.427740">
						<ele>866</ele>
						<time>2026-07-29T01:21:31Z</time>
					</trkpt>
					<trkpt lat="46.122910" lon="4.427690">
						<ele>866</ele>
						<time>2026-07-29T01:21:36Z</time>
					</trkpt>
					<trkpt lat="46.122840" lon="4.427560">
						<ele>865</ele>
						<time>2026-07-29T01:21:51Z</time>
					</trkpt>
					<trkpt lat="46.122760" lon="4.427260">
						<ele>863</ele>
						<time>2026-07-29T01:22:21Z</time>
					</trkpt>
					<trkpt lat="46.122700" lon="4.427110">
						<ele>862</ele>
						<time>2026-07-29T01:22:37Z</time>
					</trkpt>
					<trkpt lat="46.122620" lon="4.427010">
						<ele>861</ele>
						<time>2026-07-29T01:22:51Z</time>
					</trkpt>
					<trkpt lat="46.122570" lon="4.426890">
						<ele>860</ele>
						<time>2026-07-29T01:23:04Z</time>
					</trkpt>
					<trkpt lat="46.122480" lon="4.426520">
						<ele>857</ele>
						<time>2026-07-29T01:23:40Z</time>
					</trkpt>
					<trkpt lat="46.122360" lon="4.426220">
						<ele>854</ele>
						<time>2026-07-29T01:24:12Z</time>
					</trkpt>
					<trkpt lat="46.122220" lon="4.426010">
						<ele>853</ele>
						<time>2026-07-29T01:24:39Z</time>
					</trkpt>
					<trkpt lat="46.122200" lon="4.425920">
						<ele>852</ele>
						<time>2026-07-29T01:24:48Z</time>
					</trkpt>
					<trkpt lat="46.122070" lon="4.425640">
						<ele>849</ele>
						<time>2026-07-29T01:25:19Z</time>
					</trkpt>
					<trkpt lat="46.122020" lon="4.425400">
						<ele>846</ele>
						<time>2026-07-29T01:25:42Z</time>
					</trkpt>
					<trkpt lat="46.122060" lon="4.424870">
						<ele>839</ele>
						<time>2026-07-29T01:26:31Z</time>
					</trkpt>
					<trkpt lat="46.122040" lon="4.424770">
						<ele>838</ele>
						<time>2026-07-29T01:26:41Z</time>
					</trkpt>
					<trkpt lat="46.121890" lon="4.424430">
						<ele>836</ele>
						<time>2026-07-29T01:27:18Z</time>
					</trkpt>
					<trkpt lat="46.121750" lon="4.424010">
						<ele>834</ele>
						<time>2026-07-29T01:28:01Z</time>
					</trkpt>
					<trkpt lat="46.121450" lon="4.423440">
						<ele>829</ele>
						<time>2026-07-29T01:29:08Z</time>
					</trkpt>
					<trkpt lat="46.121250" lon="4.422790">
						<ele>825</ele>
						<time>2026-07-29T01:30:13Z</time>
					</trkpt>
					<trkpt lat="46.120920" lon="4.421850">
						<ele>820</ele>
						<time>2026-07-29T01:31:51Z</time>
					</trkpt>
					<trkpt lat="46.120810" lon="4.421460">
						<ele>818</ele>
						<time>2026-07-29T01:32:30Z</time>
					</trkpt>
					<trkpt lat="46.120780" lon="4.421220">
						<ele>816</ele>
						<time>2026-07-29T01:32:52Z</time>
					</trkpt>
					<trkpt lat="46.120700" lon="4.420980">
						<ele>813</ele>
						<time>2026-07-29T01:33:17Z</time>
					</trkpt>
					<trkpt lat="46.120630" lon="4.420440">
						<ele>809</ele>
						<time>2026-07-29T01:34:08Z</time>
					</trkpt>
					<trkpt lat="46.120630" lon="4.419770">
						<ele>805</ele>
						<time>2026-07-29T01:35:10Z</time>
					</trkpt>
					<trkpt lat="46.120530" lon="4.418840">
						<ele>795</ele>
						<time>2026-07-29T01:36:37Z</time>
					</trkpt>
					<trkpt lat="46.120520" lon="4.418410">
						<ele>791</ele>
						<time>2026-07-29T01:37:17Z</time>
					</trkpt>
					<trkpt lat="46.120560" lon="4.418100">
						<ele>788</ele>
						<time>2026-07-29T01:37:46Z</time>
					</trkpt>
					<trkpt lat="46.120560" lon="4.417800">
						<ele>785</ele>
						<time>2026-07-29T01:38:14Z</time>
					</trkpt>
					<trkpt lat="46.120480" lon="4.417500">
						<ele>781</ele>
						<time>2026-07-29T01:38:43Z</time>
					</trkpt>
					<trkpt lat="46.120360" lon="4.417250">
						<ele>779</ele>
						<time>2026-07-29T01:39:11Z</time>
					</trkpt>
					<trkpt lat="46.120270" lon="4.416820">
						<ele>778</ele>
						<time>2026-07-29T01:39:53Z</time>
					</trkpt>
					<trkpt lat="46.120290" lon="4.416740">
						<ele>778</ele>
						<time>2026-07-29T01:40:01Z</time>
					</trkpt>
					<trkpt lat="46.120330" lon="4.416710">
						<ele>778</ele>
						<time>2026-07-29T01:40:07Z</time>
					</trkpt>
					<trkpt lat="46.120500" lon="4.416740">
						<ele>778</ele>
						<time>2026-07-29T01:40:30Z</time>
					</trkpt>
					<trkpt lat="46.120610" lon="4.416730">
						<ele>779</ele>
						<time>2026-07-29T01:40:44Z</time>
					</trkpt>
					<trkpt lat="46.120740" lon="4.416810">
						<ele>780</ele>
						<time>2026-07-29T01:41:03Z</time>
					</trkpt>
					<trkpt lat="46.121030" lon="4.416920">
						<ele>779</ele>
						<time>2026-07-29T01:41:43Z</time>
					</trkpt>
					<trkpt lat="46.121100" lon="4.416980">
						<ele>779</ele>
						<time>2026-07-29T01:41:54Z</time>
					</trkpt>
					<trkpt lat="46.121380" lon="4.417120">
						<ele>778</ele>
						<time>2026-07-29T01:42:34Z</time>
					</trkpt>
					<trkpt lat="46.121470" lon="4.417200">
						<ele>778</ele>
						<time>2026-07-29T01:42:48Z</time>
					</trkpt>
					<trkpt lat="46.121630" lon="4.417250">
						<ele>777</ele>
						<time>2026-07-29T01:43:10Z</time>
					</trkpt>
					<trkpt lat="46.121770" lon="4.417360">
						<ele>777</ele>
						<time>2026-07-29T01:43:31Z</time>
					</trkpt>
					<trkpt lat="46.121860" lon="4.417400">
						<ele>777</ele>
						<time>2026-07-29T01:43:43Z</time>
					</trkpt>
					<trkpt lat="46.121980" lon="4.417500">
						<ele>777</ele>
						<time>2026-07-29T01:44:02Z</time>
					</trkpt>
					<trkpt lat="46.122000" lon="4.417550">
						<ele>778</ele>
						<time>2026-07-29T01:44:07Z</time>
					</trkpt>
					<trkpt lat="46.122220" lon="4.417700">
						<ele>779</ele>
						<time>2026-07-29T01:44:40Z</time>
					</trkpt>
					<trkpt lat="46.122250" lon="4.417760">
						<ele>780</ele>
						<time>2026-07-29T01:44:47Z</time>
					</trkpt>
					<trkpt lat="46.122320" lon="4.417820">
						<ele>781</ele>
						<time>2026-07-29T01:44:57Z</time>
					</trkpt>
					<trkpt lat="46.122400" lon="4.417820">
						<ele>780</ele>
						<time>2026-07-29T01:45:08Z</time>
					</trkpt>
					<trkpt lat="46.122510" lon="4.417900">
						<ele>781</ele>
						<time>2026-07-29T01:45:25Z</time>
					</trkpt>
					<trkpt lat="46.122590" lon="4.417970">
						<ele>781</ele>
						<time>2026-07-29T01:45:37Z</time>
					</trkpt>
					<trkpt lat="46.122620" lon="4.418060">
						<ele>781</ele>
						<time>2026-07-29T01:45:46Z</time>
					</trkpt>
					<trkpt lat="46.122590" lon="4.418110">
						<ele>783</ele>
						<time>2026-07-29T01:45:52Z</time>
					</trkpt>
					<trkpt lat="46.122640" lon="4.418180">
						<ele>783</ele>
						<time>2026-07-29T01:46:02Z</time>
					</trkpt>
					<trkpt lat="46.122670" lon="4.418340">
						<ele>784</ele>
						<time>2026-07-29T01:46:17Z</time>
					</trkpt>
					<trkpt lat="46.123050" lon="4.419170">
						<ele>784</ele>
						<time>2026-07-29T01:47:49Z</time>
					</trkpt>
					<trkpt lat="46.123130" lon="4.419230">
						<ele>783</ele>
						<time>2026-07-29T01:48:01Z</time>
					</trkpt>
					<trkpt lat="46.123200" lon="4.419190">
						<ele>781</ele>
						<time>2026-07-29T01:48:11Z</time>
					</trkpt>
					<trkpt lat="46.123240" lon="4.419130">
						<ele>780</ele>
						<time>2026-07-29T01:48:19Z</time>
					</trkpt>
					<trkpt lat="46.123260" lon="4.419020">
						<ele>778</ele>
						<time>2026-07-29T01:48:29Z</time>
					</trkpt>
					<trkpt lat="46.123360" lon="4.418810">
						<ele>774</ele>
						<time>2026-07-29T01:48:53Z</time>
					</trkpt>
					<trkpt lat="46.123590" lon="4.418400">
						<ele>773</ele>
						<time>2026-07-29T01:49:42Z</time>
					</trkpt>
					<trkpt lat="46.123780" lon="4.418140">
						<ele>773</ele>
						<time>2026-07-29T01:50:17Z</time>
					</trkpt>
					<trkpt lat="46.124020" lon="4.417960">
						<ele>774</ele>
						<time>2026-07-29T01:50:53Z</time>
					</trkpt>
					<trkpt lat="46.124540" lon="4.417670">
						<ele>778</ele>
						<time>2026-07-29T01:52:07Z</time>
					</trkpt>
					<trkpt lat="46.125130" lon="4.417090">
						<ele>777</ele>
						<time>2026-07-29T01:53:42Z</time>
					</trkpt>
					<trkpt lat="46.125290" lon="4.416970">
						<ele>778</ele>
						<time>2026-07-29T01:54:06Z</time>
					</trkpt>
					<trkpt lat="46.125380" lon="4.416810">
						<ele>777</ele>
						<time>2026-07-29T01:54:26Z</time>
					</trkpt>
					<trkpt lat="46.125500" lon="4.416390">
						<ele>775</ele>
						<time>2026-07-29T01:55:08Z</time>
					</trkpt>
					<trkpt lat="46.125550" lon="4.416130">
						<ele>774</ele>
						<time>2026-07-29T01:55:33Z</time>
					</trkpt>
					<trkpt lat="46.125560" lon="4.415920">
						<ele>773</ele>
						<time>2026-07-29T01:55:52Z</time>
					</trkpt>
					<trkpt lat="46.125390" lon="4.415470">
						<ele>775</ele>
						<time>2026-07-29T01:56:39Z</time>
					</trkpt>
					<trkpt lat="46.125120" lon="4.415060">
						<ele>776</ele>
						<time>2026-07-29T01:57:32Z</time>
					</trkpt>
					<trkpt lat="46.125000" lon="4.414820">
						<ele>777</ele>
						<time>2026-07-29T01:57:59Z</time>
					</trkpt>
					<trkpt lat="46.125010" lon="4.414680">
						<ele>779</ele>
						<time>2026-07-29T01:58:12Z</time>
					</trkpt>
					<trkpt lat="46.124910" lon="4.414360">
						<ele>782</ele>
						<time>2026-07-29T01:58:45Z</time>
					</trkpt>
					<trkpt lat="46.124880" lon="4.414030">
						<ele>784</ele>
						<time>2026-07-29T01:59:15Z</time>
					</trkpt>
					<trkpt lat="46.124830" lon="4.413890">
						<ele>784</ele>
						<time>2026-07-29T01:59:30Z</time>
					</trkpt>
					<trkpt lat="46.124730" lon="4.413210">
						<ele>785</ele>
						<time>2026-07-29T02:00:34Z</time>
					</trkpt>
					<trkpt lat="46.124700" lon="4.413100">
						<ele>785</ele>
						<time>2026-07-29T02:00:45Z</time>
					</trkpt>
					<trkpt lat="46.124590" lon="4.412900">
						<ele>783</ele>
						<time>2026-07-29T02:01:09Z</time>
					</trkpt>
					<trkpt lat="46.124530" lon="4.412650">
						<ele>782</ele>
						<time>2026-07-29T02:01:33Z</time>
					</trkpt>
					<trkpt lat="46.124490" lon="4.412570">
						<ele>781</ele>
						<time>2026-07-29T02:01:42Z</time>
					</trkpt>
					<trkpt lat="46.124160" lon="4.412180">
						<ele>777</ele>
						<time>2026-07-29T02:02:39Z</time>
					</trkpt>
					<trkpt lat="46.123920" lon="4.411990">
						<ele>773</ele>
						<time>2026-07-29T02:03:16Z</time>
					</trkpt>
					<trkpt lat="46.123670" lon="4.411580">
						<ele>769</ele>
						<time>2026-07-29T02:04:06Z</time>
					</trkpt>
					<trkpt lat="46.123530" lon="4.411220">
						<ele>769</ele>
						<time>2026-07-29T02:04:44Z</time>
					</trkpt>
					<trkpt lat="46.123310" lon="4.410320">
						<ele>770</ele>
						<time>2026-07-29T02:06:13Z</time>
					</trkpt>
					<trkpt lat="46.123210" lon="4.409760">
						<ele>771</ele>
						<time>2026-07-29T02:07:06Z</time>
					</trkpt>
					<trkpt lat="46.123210" lon="4.409420">
						<ele>772</ele>
						<time>2026-07-29T02:07:38Z</time>
					</trkpt>
					<trkpt lat="46.123150" lon="4.409140">
						<ele>771</ele>
						<time>2026-07-29T02:08:05Z</time>
					</trkpt>
					<trkpt lat="46.123130" lon="4.408590">
						<ele>771</ele>
						<time>2026-07-29T02:08:56Z</time>
					</trkpt>
					<trkpt lat="46.123170" lon="4.408500">
						<ele>773</ele>
						<time>2026-07-29T02:09:06Z</time>
					</trkpt>
					<trkpt lat="46.123130" lon="4.408280">
						<ele>772</ele>
						<time>2026-07-29T02:09:27Z</time>
					</trkpt>
					<trkpt lat="46.123200" lon="4.407460">
						<ele>777</ele>
						<time>2026-07-29T02:10:43Z</time>
					</trkpt>
					<trkpt lat="46.123210" lon="4.407070">
						<ele>776</ele>
						<time>2026-07-29T02:11:19Z</time>
					</trkpt>
					<trkpt lat="46.123320" lon="4.405910">
						<ele>772</ele>
						<time>2026-07-29T02:13:07Z</time>
					</trkpt>
					<trkpt lat="46.123450" lon="4.405180">
						<ele>772</ele>
						<time>2026-07-29T02:14:17Z</time>
					</trkpt>
					<trkpt lat="46.123760" lon="4.404210">
						<ele>772</ele>
						<time>2026-07-29T02:15:56Z</time>
					</trkpt>
					<trkpt lat="46.123820" lon="4.403890">
						<ele>771</ele>
						<time>2026-07-29T02:16:27Z</time>
					</trkpt>
					<trkpt lat="46.123880" lon="4.403120">
						<ele>764</ele>
						<time>2026-07-29T02:17:38Z</time>
					</trkpt>
					<trkpt lat="46.124040" lon="4.401990">
						<ele>746</ele>
						<time>2026-07-29T02:19:25Z</time>
					</trkpt>
					<trkpt lat="46.124100" lon="4.401200">
						<ele>739</ele>
						<time>2026-07-29T02:20:38Z</time>
					</trkpt>
					<trkpt lat="46.124210" lon="4.400490">
						<ele>735</ele>
						<time>2026-07-29T02:21:46Z</time>
					</trkpt>
					<trkpt lat="46.124250" lon="4.400400">
						<ele>735</ele>
						<time>2026-07-29T02:21:56Z</time>
					</trkpt>
					<trkpt lat="46.124580" lon="4.400200">
						<ele>731</ele>
						<time>2026-07-29T02:22:43Z</time>
					</trkpt>
					<trkpt lat="46.124690" lon="4.400180">
						<ele>730</ele>
						<time>2026-07-29T02:22:58Z</time>
					</trkpt>
					<trkpt lat="46.124840" lon="4.400210">
						<ele>729</ele>
						<time>2026-07-29T02:23:18Z</time>
					</trkpt>
					<trkpt lat="46.124990" lon="4.400200">
						<ele>728</ele>
						<time>2026-07-29T02:23:38Z</time>
					</trkpt>
					<trkpt lat="46.125330" lon="4.400300">
						<ele>724</ele>
						<time>2026-07-29T02:24:25Z</time>
					</trkpt>
					<trkpt lat="46.125640" lon="4.400320">
						<ele>720</ele>
						<time>2026-07-29T02:25:06Z</time>
					</trkpt>
					<trkpt lat="46.125810" lon="4.400400">
						<ele>719</ele>
						<time>2026-07-29T02:25:30Z</time>
					</trkpt>
					<trkpt lat="46.125910" lon="4.400490">
						<ele>718</ele>
						<time>2026-07-29T02:25:46Z</time>
					</trkpt>
					<trkpt lat="46.126100" lon="4.400860">
						<ele>720</ele>
						<time>2026-07-29T02:26:28Z</time>
					</trkpt>
					<trkpt lat="46.126210" lon="4.400930">
						<ele>719</ele>
						<time>2026-07-29T02:26:44Z</time>
					</trkpt>
					<trkpt lat="46.126800" lon="4.400880">
						<ele>713</ele>
						<time>2026-07-29T02:28:03Z</time>
					</trkpt>
					<trkpt lat="46.127390" lon="4.400990">
						<ele>711</ele>
						<time>2026-07-29T02:29:23Z</time>
					</trkpt>
					<trkpt lat="46.127590" lon="4.401070">
						<ele>711</ele>
						<time>2026-07-29T02:29:50Z</time>
					</trkpt>
					<trkpt lat="46.127720" lon="4.401060">
						<ele>712</ele>
						<time>2026-07-29T02:30:08Z</time>
					</trkpt>
					<trkpt lat="46.128050" lon="4.400770">
						<ele>711</ele>
						<time>2026-07-29T02:30:59Z</time>
					</trkpt>
					<trkpt lat="46.128350" lon="4.400400">
						<ele>712</ele>
						<time>2026-07-29T02:31:52Z</time>
					</trkpt>
					<trkpt lat="46.128540" lon="4.400020">
						<ele>714</ele>
						<time>2026-07-29T02:32:35Z</time>
					</trkpt>
					<trkpt lat="46.128670" lon="4.399840">
						<ele>714</ele>
						<time>2026-07-29T02:32:59Z</time>
					</trkpt>
					<trkpt lat="46.128910" lon="4.399270">
						<ele>716</ele>
						<time>2026-07-29T02:34:01Z</time>
					</trkpt>
					<trkpt lat="46.128960" lon="4.399060">
						<ele>716</ele>
						<time>2026-07-29T02:34:22Z</time>
					</trkpt>
					<trkpt lat="46.129100" lon="4.398830">
						<ele>719</ele>
						<time>2026-07-29T02:34:50Z</time>
					</trkpt>
					<trkpt lat="46.129150" lon="4.398650">
						<ele>721</ele>
						<time>2026-07-29T02:35:08Z</time>
					</trkpt>
					<trkpt lat="46.129140" lon="4.398490">
						<ele>721</ele>
						<time>2026-07-29T02:35:23Z</time>
					</trkpt>
					<trkpt lat="46.129060" lon="4.398300">
						<ele>720</ele>
						<time>2026-07-29T02:35:43Z</time>
					</trkpt>
					<trkpt lat="46.129000" lon="4.398050">
						<ele>721</ele>
						<time>2026-07-29T02:36:08Z</time>
					</trkpt>
					<trkpt lat="46.128890" lon="4.397840">
						<ele>720</ele>
						<time>2026-07-29T02:36:32Z</time>
					</trkpt>
					<trkpt lat="46.128970" lon="4.397680">
						<ele>722</ele>
						<time>2026-07-29T02:36:50Z</time>
					</trkpt>
					<trkpt lat="46.129100" lon="4.397650">
						<ele>724</ele>
						<time>2026-07-29T02:37:08Z</time>
					</trkpt>
					<trkpt lat="46.129160" lon="4.397590">
						<ele>725</ele>
						<time>2026-07-29T02:37:18Z</time>
					</trkpt>
					<trkpt lat="46.129260" lon="4.397560">
						<ele>726</ele>
						<time>2026-07-29T02:37:31Z</time>
					</trkpt>
					<trkpt lat="46.129320" lon="4.397450">
						<ele>727</ele>
						<time>2026-07-29T02:37:44Z</time>
					</trkpt>
					<trkpt lat="46.129450" lon="4.397420">
						<ele>728</ele>
						<time>2026-07-29T02:38:02Z</time>
					</trkpt>
					<trkpt lat="46.129490" lon="4.397380">
						<ele>728</ele>
						<time>2026-07-29T02:38:08Z</time>
					</trkpt>
					<trkpt lat="46.129570" lon="4.397420">
						<ele>729</ele>
						<time>2026-07-29T02:38:20Z</time>
					</trkpt>
					<trkpt lat="46.129670" lon="4.397390">
						<ele>730</ele>
						<time>2026-07-29T02:38:33Z</time>
					</trkpt>
					<trkpt lat="46.129890" lon="4.397150">
						<ele>732</ele>
						<time>2026-07-29T02:39:10Z</time>
					</trkpt>
					<trkpt lat="46.130360" lon="4.396770">
						<ele>734</ele>
						<time>2026-07-29T02:40:22Z</time>
					</trkpt>
					<trkpt lat="46.130920" lon="4.396400">
						<ele>736</ele>
						<time>2026-07-29T02:41:44Z</time>
					</trkpt>
					<trkpt lat="46.131030" lon="4.396290">
						<ele>737</ele>
						<time>2026-07-29T02:42:02Z</time>
					</trkpt>
					<trkpt lat="46.131170" lon="4.396080">
						<ele>736</ele>
						<time>2026-07-29T02:42:29Z</time>
					</trkpt>
					<trkpt lat="46.131350" lon="4.395780">
						<ele>735</ele>
						<time>2026-07-29T02:43:06Z</time>
					</trkpt>
					<trkpt lat="46.131410" lon="4.395610">
						<ele>734</ele>
						<time>2026-07-29T02:43:23Z</time>
					</trkpt>
					<trkpt lat="46.131550" lon="4.395390">
						<ele>734</ele>
						<time>2026-07-29T02:43:51Z</time>
					</trkpt>
					<trkpt lat="46.131790" lon="4.395170">
						<ele>735</ele>
						<time>2026-07-29T02:44:29Z</time>
					</trkpt>
					<trkpt lat="46.131840" lon="4.395190">
						<ele>736</ele>
						<time>2026-07-29T02:44:36Z</time>
					</trkpt>
					<trkpt lat="46.131850" lon="4.395290">
						<ele>737</ele>
						<time>2026-07-29T02:44:45Z</time>
					</trkpt>
					<trkpt lat="46.131720" lon="4.395830">
						<ele>741</ele>
						<time>2026-07-29T02:45:38Z</time>
					</trkpt>
					<trkpt lat="46.131600" lon="4.396180">
						<ele>743</ele>
						<time>2026-07-29T02:46:14Z</time>
					</trkpt>
					<trkpt lat="46.131550" lon="4.396440">
						<ele>746</ele>
						<time>2026-07-29T02:46:39Z</time>
					</trkpt>
					<trkpt lat="46.131570" lon="4.396470">
						<ele>746</ele>
						<time>2026-07-29T02:46:43Z</time>
					</trkpt>
					<trkpt lat="46.131620" lon="4.396480">
						<ele>747</ele>
						<time>2026-07-29T02:46:50Z</time>
					</trkpt>
					<trkpt lat="46.131740" lon="4.396380">
						<ele>748</ele>
						<time>2026-07-29T02:47:08Z</time>
					</trkpt>
					<trkpt lat="46.132030" lon="4.396250">
						<ele>750</ele>
						<time>2026-07-29T02:47:49Z</time>
					</trkpt>
					</trkseg>
				</trk>
			</gpx>