<?xml version="1.0" encoding="UTF-8" ?>
<gpx version="1.1" xmlns:xsi="http://www.w3.org/2001/XMLSchema-instance"
    xmlns="http://www.topografix.com/GPX/1/1"
    xsi:schemaLocation="http://www.topografix.com/GPX/1/1 http://www.topografix.com/GPX/1/1/gpx.xsd"
    creator="Openrunner - https://www.openrunner.com" >	<trk>
	                   <name>1 - POLAR Marche 12 km ranchal 2.GPX-24751255</name>
						<trkseg>
					<trkpt lat="46.132120" lon="4.396130">
						<ele>750</ele>
						<time>2026-07-29T11:00:35Z</time>
					</trkpt>
					<trkpt lat="46.131690" lon="4.396380">
						<ele>747</ele>
						<time>2026-07-29T11:01:37Z</time>
					</trkpt>
					<trkpt lat="46.131620" lon="4.396390">
						<ele>746</ele>
						<time>2026-07-29T11:01:46Z</time>
					</trkpt>
					<trkpt lat="46.131580" lon="4.396360">
						<ele>745</ele>
						<time>2026-07-29T11:01:52Z</time>
					</trkpt>
					<trkpt lat="46.131600" lon="4.396080">
						<ele>742</ele>
						<time>2026-07-29T11:02:18Z</time>
					</trkpt>
					<trkpt lat="46.131750" lon="4.395550">
						<ele>738</ele>
						<time>2026-07-29T11:03:11Z</time>
					</trkpt>
					<trkpt lat="46.131850" lon="4.395290">
						<ele>737</ele>
						<time>2026-07-29T11:03:39Z</time>
					</trkpt>
					<trkpt lat="46.131850" lon="4.395060">
						<ele>734</ele>
						<time>2026-07-29T11:04:00Z</time>
					</trkpt>
					<trkpt lat="46.131870" lon="4.395010">
						<ele>734</ele>
						<time>2026-07-29T11:04:05Z</time>
					</trkpt>
					<trkpt lat="46.131940" lon="4.394930">
						<ele>734</ele>
						<time>2026-07-29T11:04:17Z</time>
					</trkpt>
					<trkpt lat="46.132040" lon="4.394890">
						<ele>735</ele>
						<time>2026-07-29T11:04:31Z</time>
					</trkpt>
					<trkpt lat="46.132170" lon="4.394740">
						<ele>734</ele>
						<time>2026-07-29T11:04:53Z</time>
					</trkpt>
					<trkpt lat="46.132260" lon="4.394700">
						<ele>735</ele>
						<time>2026-07-29T11:05:06Z</time>
					</trkpt>
					<trkpt lat="46.132520" lon="4.394670">
						<ele>736</ele>
						<time>2026-07-29T11:05:41Z</time>
					</trkpt>
					<trkpt lat="46.132690" lon="4.394770">
						<ele>737</ele>
						<time>2026-07-29T11:06:05Z</time>
					</trkpt>
					<trkpt lat="46.132850" lon="4.394910">
						<ele>739</ele>
						<time>2026-07-29T11:06:30Z</time>
					</trkpt>
					<trkpt lat="46.133050" lon="4.395160">
						<ele>742</ele>
						<time>2026-07-29T11:07:05Z</time>
					</trkpt>
					<trkpt lat="46.133370" lon="4.395480">
						<ele>747</ele>
						<time>2026-07-29T11:07:57Z</time>
					</trkpt>
					<trkpt lat="46.133520" lon="4.395680">
						<ele>750</ele>
						<time>2026-07-29T11:08:25Z</time>
					</trkpt>
					<trkpt lat="46.133600" lon="4.395720">
						<ele>750</ele>
						<time>2026-07-29T11:08:36Z</time>
					</trkpt>
					<trkpt lat="46.133670" lon="4.395800">
						<ele>751</ele>
						<time>2026-07-29T11:08:48Z</time>
					</trkpt>
					<trkpt lat="46.133780" lon="4.395840">
						<ele>751</ele>
						<time>2026-07-29T11:09:03Z</time>
					</trkpt>
					<trkpt lat="46.133880" lon="4.395980">
						<ele>754</ele>
						<time>2026-07-29T11:09:22Z</time>
					</trkpt>
					<trkpt lat="46.134070" lon="4.396150">
						<ele>756</ele>
						<time>2026-07-29T11:09:51Z</time>
					</trkpt>
					<trkpt lat="46.134570" lon="4.396480">
						<ele>761</ele>
						<time>2026-07-29T11:11:05Z</time>
					</trkpt>
					<trkpt lat="46.134920" lon="4.396630">
						<ele>763</ele>
						<time>2026-07-29T11:11:54Z</time>
					</trkpt>
					<trkpt lat="46.135240" lon="4.396860">
						<ele>768</ele>
						<time>2026-07-29T11:12:41Z</time>
					</trkpt>
					<trkpt lat="46.135510" lon="4.397020">
						<ele>771</ele>
						<time>2026-07-29T11:13:20Z</time>
					</trkpt>
					<trkpt lat="46.135640" lon="4.397170">
						<ele>775</ele>
						<time>2026-07-29T11:13:42Z</time>
					</trkpt>
					<trkpt lat="46.135700" lon="4.397300">
						<ele>778</ele>
						<time>2026-07-29T11:13:57Z</time>
					</trkpt>
					<trkpt lat="46.136050" lon="4.397790">
						<ele>785</ele>
						<time>2026-07-29T11:15:02Z</time>
					</trkpt>
					<trkpt lat="46.136350" lon="4.398370">
						<ele>791</ele>
						<time>2026-07-29T11:16:09Z</time>
					</trkpt>
					<trkpt lat="46.136570" lon="4.398720">
						<ele>792</ele>
						<time>2026-07-29T11:16:53Z</time>
					</trkpt>
					<trkpt lat="46.136630" lon="4.398870">
						<ele>793</ele>
						<time>2026-07-29T11:17:09Z</time>
					</trkpt>
					<trkpt lat="46.136720" lon="4.399010">
						<ele>794</ele>
						<time>2026-07-29T11:17:26Z</time>
					</trkpt>
					<trkpt lat="46.136920" lon="4.399200">
						<ele>792</ele>
						<time>2026-07-29T11:17:58Z</time>
					</trkpt>
					<trkpt lat="46.136970" lon="4.399340">
						<ele>793</ele>
						<time>2026-07-29T11:18:13Z</time>
					</trkpt>
					<trkpt lat="46.137150" lon="4.399530">
						<ele>794</ele>
						<time>2026-07-29T11:18:43Z</time>
					</trkpt>
					<trkpt lat="46.137330" lon="4.399700">
						<ele>794</ele>
						<time>2026-07-29T11:19:11Z</time>
					</trkpt>
					<trkpt lat="46.137420" lon="4.399740">
						<ele>793</ele>
						<time>2026-07-29T11:19:24Z</time>
					</trkpt>
					<trkpt lat="46.137670" lon="4.399770">
						<ele>792</ele>
						<time>2026-07-29T11:19:57Z</time>
					</trkpt>
					<trkpt lat="46.138090" lon="4.399650">
						<ele>789</ele>
						<time>2026-07-29T11:20:54Z</time>
					</trkpt>
					<trkpt lat="46.138360" lon="4.399660">
						<ele>789</ele>
						<time>2026-07-29T11:21:30Z</time>
					</trkpt>
					<trkpt lat="46.138560" lon="4.399630">
						<ele>790</ele>
						<time>2026-07-29T11:21:57Z</time>
					</trkpt>
					<trkpt lat="46.138830" lon="4.399470">
						<ele>790</ele>
						<time>2026-07-29T11:22:36Z</time>
					</trkpt>
					<trkpt lat="46.139040" lon="4.399410">
						<ele>790</ele>
						<time>2026-07-29T11:23:05Z</time>
					</trkpt>
					<trkpt lat="46.139160" lon="4.399330">
						<ele>790</ele>
						<time>2026-07-29T11:23:22Z</time>
					</trkpt>
					<trkpt lat="46.139260" lon="4.399220">
						<ele>792</ele>
						<time>2026-07-29T11:23:39Z</time>
					</trkpt>
					<trkpt lat="46.139500" lon="4.398500">
						<ele>792</ele>
						<time>2026-07-29T11:24:53Z</time>
					</trkpt>
					<trkpt lat="46.139570" lon="4.398400">
						<ele>792</ele>
						<time>2026-07-29T11:25:06Z</time>
					</trkpt>
					<trkpt lat="46.139610" lon="4.398450">
						<ele>794</ele>
						<time>2026-07-29T11:25:13Z</time>
					</trkpt>
					<trkpt lat="46.139680" lon="4.398970">
						<ele>801</ele>
						<time>2026-07-29T11:26:02Z</time>
					</trkpt>
					<trkpt lat="46.139730" lon="4.399130">
						<ele>804</ele>
						<time>2026-07-29T11:26:19Z</time>
					</trkpt>
					<trkpt lat="46.139790" lon="4.399610">
						<ele>810</ele>
						<time>2026-07-29T11:27:04Z</time>
					</trkpt>
					<trkpt lat="46.139790" lon="4.400170">
						<ele>815</ele>
						<time>2026-07-29T11:27:55Z</time>
					</trkpt>
					<trkpt lat="46.139830" lon="4.400380">
						<ele>818</ele>
						<time>2026-07-29T11:28:16Z</time>
					</trkpt>
					<trkpt lat="46.139890" lon="4.400370">
						<ele>819</ele>
						<time>2026-07-29T11:28:24Z</time>
					</trkpt>
					<trkpt lat="46.139970" lon="4.400290">
						<ele>819</ele>
						<time>2026-07-29T11:28:37Z</time>
					</trkpt>
					<trkpt lat="46.140260" lon="4.399890">
						<ele>823</ele>
						<time>2026-07-29T11:29:30Z</time>
					</trkpt>
					<trkpt lat="46.140320" lon="4.399820">
						<ele>825</ele>
						<time>2026-07-29T11:29:40Z</time>
					</trkpt>
					<trkpt lat="46.140390" lon="4.399790">
						<ele>827</ele>
						<time>2026-07-29T11:29:50Z</time>
					</trkpt>
					<trkpt lat="46.140520" lon="4.399600">
						<ele>830</ele>
						<time>2026-07-29T11:30:15Z</time>
					</trkpt>
					<trkpt lat="46.140570" lon="4.399580">
						<ele>831</ele>
						<time>2026-07-29T11:30:22Z</time>
					</trkpt>
					<trkpt lat="46.140740" lon="4.399360">
						<ele>836</ele>
						<time>2026-07-29T11:30:52Z</time>
					</trkpt>
					<trkpt lat="46.140810" lon="4.399320">
						<ele>837</ele>
						<time>2026-07-29T11:31:02Z</time>
					</trkpt>
					<trkpt lat="46.140850" lon="4.399240">
						<ele>838</ele>
						<time>2026-07-29T11:31:11Z</time>
					</trkpt>
					<trkpt lat="46.140970" lon="4.399180">
						<ele>840</ele>
						<time>2026-07-29T11:31:28Z</time>
					</trkpt>
					<trkpt lat="46.141020" lon="4.399120">
						<ele>841</ele>
						<time>2026-07-29T11:31:37Z</time>
					</trkpt>
					<trkpt lat="46.141140" lon="4.399110">
						<ele>842</ele>
						<time>2026-07-29T11:31:53Z</time>
					</trkpt>
					<trkpt lat="46.141320" lon="4.398960">
						<ele>844</ele>
						<time>2026-07-29T11:32:21Z</time>
					</trkpt>
					<trkpt lat="46.141400" lon="4.398950">
						<ele>845</ele>
						<time>2026-07-29T11:32:32Z</time>
					</trkpt>
					<trkpt lat="46.141480" lon="4.399080">
						<ele>848</ele>
						<time>2026-07-29T11:32:48Z</time>
					</trkpt>
					<trkpt lat="46.141490" lon="4.399150">
						<ele>849</ele>
						<time>2026-07-29T11:32:54Z</time>
					</trkpt>
					<trkpt lat="46.141600" lon="4.399160">
						<ele>851</ele>
						<time>2026-07-29T11:33:09Z</time>
					</trkpt>
					<trkpt lat="46.141880" lon="4.399290">
						<ele>855</ele>
						<time>2026-07-29T11:33:48Z</time>
					</trkpt>
					<trkpt lat="46.142060" lon="4.399550">
						<ele>859</ele>
						<time>2026-07-29T11:34:22Z</time>
					</trkpt>
					<trkpt lat="46.142070" lon="4.399620">
						<ele>860</ele>
						<time>2026-07-29T11:34:29Z</time>
					</trkpt>
					<trkpt lat="46.142110" lon="4.399680">
						<ele>861</ele>
						<time>2026-07-29T11:34:36Z</time>
					</trkpt>
					<trkpt lat="46.142140" lon="4.399670">
						<ele>861</ele>
						<time>2026-07-29T11:34:41Z</time>
					</trkpt>
					<trkpt lat="46.142210" lon="4.399590">
						<ele>861</ele>
						<time>2026-07-29T11:34:52Z</time>
					</trkpt>
					<trkpt lat="46.142380" lon="4.399210">
						<ele>859</ele>
						<time>2026-07-29T11:35:34Z</time>
					</trkpt>
					<trkpt lat="46.142570" lon="4.398900">
						<ele>860</ele>
						<time>2026-07-29T11:36:13Z</time>
					</trkpt>
					<trkpt lat="46.142660" lon="4.398830">
						<ele>860</ele>
						<time>2026-07-29T11:36:26Z</time>
					</trkpt>
					<trkpt lat="46.142690" lon="4.398750">
						<ele>860</ele>
						<time>2026-07-29T11:36:35Z</time>
					</trkpt>
					<trkpt lat="46.142790" lon="4.398660">
						<ele>861</ele>
						<time>2026-07-29T11:36:50Z</time>
					</trkpt>
					<trkpt lat="46.142990" lon="4.398240">
						<ele>860</ele>
						<time>2026-07-29T11:37:37Z</time>
					</trkpt>
					<trkpt lat="46.143030" lon="4.398110">
						<ele>860</ele>
						<time>2026-07-29T11:37:51Z</time>
					</trkpt>
					<trkpt lat="46.143160" lon="4.397940">
						<ele>861</ele>
						<time>2026-07-29T11:38:14Z</time>
					</trkpt>
					<trkpt lat="46.143230" lon="4.397770">
						<ele>861</ele>
						<time>2026-07-29T11:38:32Z</time>
					</trkpt>
					<trkpt lat="46.143230" lon="4.397700">
						<ele>861</ele>
						<time>2026-07-29T11:38:39Z</time>
					</trkpt>
					<trkpt lat="46.143280" lon="4.397640">
						<ele>862</ele>
						<time>2026-07-29T11:38:47Z</time>
					</trkpt>
					<trkpt lat="46.143360" lon="4.397460">
						<ele>862</ele>
						<time>2026-07-29T11:39:07Z</time>
					</trkpt>
					<trkpt lat="46.143410" lon="4.397420">
						<ele>862</ele>
						<time>2026-07-29T11:39:15Z</time>
					</trkpt>
					<trkpt lat="46.143490" lon="4.397280">
						<ele>861</ele>
						<time>2026-07-29T11:39:32Z</time>
					</trkpt>
					<trkpt lat="46.144030" lon="4.396210">
						<ele>855</ele>
						<time>2026-07-29T11:41:34Z</time>
					</trkpt>
					<trkpt lat="46.144150" lon="4.396080">
						<ele>854</ele>
						<time>2026-07-29T11:41:54Z</time>
					</trkpt>
					<trkpt lat="46.144220" lon="4.395900">
						<ele>853</ele>
						<time>2026-07-29T11:42:13Z</time>
					</trkpt>
					<trkpt lat="46.144280" lon="4.395610">
						<ele>851</ele>
						<time>2026-07-29T11:42:41Z</time>
					</trkpt>
					<trkpt lat="46.144370" lon="4.395410">
						<ele>849</ele>
						<time>2026-07-29T11:43:03Z</time>
					</trkpt>
					<trkpt lat="46.144720" lon="4.394910">
						<ele>841</ele>
						<time>2026-07-29T11:44:09Z</time>
					</trkpt>
					<trkpt lat="46.144850" lon="4.394760">
						<ele>838</ele>
						<time>2026-07-29T11:44:31Z</time>
					</trkpt>
					<trkpt lat="46.145090" lon="4.394390">
						<ele>833</ele>
						<time>2026-07-29T11:45:18Z</time>
					</trkpt>
					<trkpt lat="46.145150" lon="4.394340">
						<ele>832</ele>
						<time>2026-07-29T11:45:27Z</time>
					</trkpt>
					<trkpt lat="46.145230" lon="4.394160">
						<ele>830</ele>
						<time>2026-07-29T11:45:47Z</time>
					</trkpt>
					<trkpt lat="46.145250" lon="4.394050">
						<ele>829</ele>
						<time>2026-07-29T11:45:57Z</time>
					</trkpt>
					<trkpt lat="46.145210" lon="4.393520">
						<ele>827</ele>
						<time>2026-07-29T11:46:47Z</time>
					</trkpt>
					<trkpt lat="46.145270" lon="4.393340">
						<ele>826</ele>
						<time>2026-07-29T11:47:05Z</time>
					</trkpt>
					<trkpt lat="46.145490" lon="4.392990">
						<ele>821</ele>
						<time>2026-07-29T11:47:49Z</time>
					</trkpt>
					<trkpt lat="46.145690" lon="4.392770">
						<ele>818</ele>
						<time>2026-07-29T11:48:23Z</time>
					</trkpt>
					<trkpt lat="46.145940" lon="4.392420">
						<ele>814</ele>
						<time>2026-07-29T11:49:09Z</time>
					</trkpt>
					<trkpt lat="46.146180" lon="4.392020">
						<ele>812</ele>
						<time>2026-07-29T11:49:58Z</time>
					</trkpt>
					<trkpt lat="46.146290" lon="4.391880">
						<ele>811</ele>
						<time>2026-07-29T11:50:17Z</time>
					</trkpt>
					<trkpt lat="46.146720" lon="4.390980">
						<ele>809</ele>
						<time>2026-07-29T11:51:59Z</time>
					</trkpt>
					<trkpt lat="46.146880" lon="4.390710">
						<ele>809</ele>
						<time>2026-07-29T11:52:31Z</time>
					</trkpt>
					<trkpt lat="46.146940" lon="4.390510">
						<ele>808</ele>
						<time>2026-07-29T11:52:52Z</time>
					</trkpt>
					<trkpt lat="46.146970" lon="4.390480">
						<ele>808</ele>
						<time>2026-07-29T11:52:56Z</time>
					</trkpt>
					<trkpt lat="46.147010" lon="4.390510">
						<ele>808</ele>
						<time>2026-07-29T11:53:02Z</time>
					</trkpt>
					<trkpt lat="46.147160" lon="4.391100">
						<ele>810</ele>
						<time>2026-07-29T11:54:01Z</time>
					</trkpt>
					<trkpt lat="46.147320" lon="4.392100">
						<ele>809</ele>
						<time>2026-07-29T11:55:35Z</time>
					</trkpt>
					<trkpt lat="46.147450" lon="4.392450">
						<ele>807</ele>
						<time>2026-07-29T11:56:12Z</time>
					</trkpt>
					<trkpt lat="46.147550" lon="4.392840">
						<ele>803</ele>
						<time>2026-07-29T11:56:51Z</time>
					</trkpt>
					<trkpt lat="46.147510" lon="4.393150">
						<ele>802</ele>
						<time>2026-07-29T11:57:20Z</time>
					</trkpt>
					<trkpt lat="46.147320" lon="4.393820">
						<ele>797</ele>
						<time>2026-07-29T11:58:27Z</time>
					</trkpt>
					<trkpt lat="46.147250" lon="4.393980">
						<ele>796</ele>
						<time>2026-07-29T11:58:44Z</time>
					</trkpt>
					<trkpt lat="46.146920" lon="4.394320">
						<ele>797</ele>
						<time>2026-07-29T11:59:38Z</time>
					</trkpt>
					<trkpt lat="46.146870" lon="4.394400">
						<ele>797</ele>
						<time>2026-07-29T11:59:48Z</time>
					</trkpt>
					<trkpt lat="46.146770" lon="4.394720">
						<ele>795</ele>
						<time>2026-07-29T12:00:21Z</time>
					</trkpt>
					<trkpt lat="46.146780" lon="4.395110">
						<ele>793</ele>
						<time>2026-07-29T12:00:57Z</time>
					</trkpt>
					<trkpt lat="46.146910" lon="4.395530">
						<ele>792</ele>
						<time>2026-07-29T12:01:39Z</time>
					</trkpt>
					<trkpt lat="46.147030" lon="4.395750">
						<ele>790</ele>
						<time>2026-07-29T12:02:05Z</time>
					</trkpt>
					<trkpt lat="46.147270" lon="4.396440">
						<ele>786</ele>
						<time>2026-07-29T12:03:17Z</time>
					</trkpt>
					<trkpt lat="46.147350" lon="4.396790">
						<ele>786</ele>
						<time>2026-07-29T12:03:51Z</time>
					</trkpt>
					<trkpt lat="46.147420" lon="4.396930">
						<ele>786</ele>
						<time>2026-07-29T12:04:07Z</time>
					</trkpt>
					<trkpt lat="46.147700" lon="4.397340">
						<ele>788</ele>
						<time>2026-07-29T12:05:00Z</time>
					</trkpt>
					<trkpt lat="46.147810" lon="4.397460">
						<ele>788</ele>
						<time>2026-07-29T12:05:18Z</time>
					</trkpt>
					<trkpt lat="46.147860" lon="4.397480">
						<ele>788</ele>
						<time>2026-07-29T12:05:25Z</time>
					</trkpt>
					<trkpt lat="46.147980" lon="4.397650">
						<ele>788</ele>
						<time>2026-07-29T12:05:48Z</time>
					</trkpt>
					<trkpt lat="46.148080" lon="4.397710">
						<ele>788</ele>
						<time>2026-07-29T12:06:02Z</time>
					</trkpt>
					<trkpt lat="46.148130" lon="4.397770">
						<ele>788</ele>
						<time>2026-07-29T12:06:11Z</time>
					</trkpt>
					<trkpt lat="46.148290" lon="4.397830">
						<ele>787</ele>
						<time>2026-07-29T12:06:33Z</time>
					</trkpt>
					<trkpt lat="46.148360" lon="4.397890">
						<ele>786</ele>
						<time>2026-07-29T12:06:44Z</time>
					</trkpt>
					<trkpt lat="46.148530" lon="4.397970">
						<ele>784</ele>
						<time>2026-07-29T12:07:08Z</time>
					</trkpt>
					<trkpt lat="46.148880" lon="4.398320">
						<ele>781</ele>
						<time>2026-07-29T12:08:04Z</time>
					</trkpt>
					<trkpt lat="46.149060" lon="4.398930">
						<ele>781</ele>
						<time>2026-07-29T12:09:06Z</time>
					</trkpt>
					<trkpt lat="46.149200" lon="4.399070">
						<ele>780</ele>
						<time>2026-07-29T12:09:28Z</time>
					</trkpt>
					<trkpt lat="46.149300" lon="4.399220">
						<ele>779</ele>
						<time>2026-07-29T12:09:48Z</time>
					</trkpt>
					<trkpt lat="46.149350" lon="4.399250">
						<ele>778</ele>
						<time>2026-07-29T12:09:55Z</time>
					</trkpt>
					<trkpt lat="46.149390" lon="4.399350">
						<ele>777</ele>
						<time>2026-07-29T12:10:06Z</time>
					</trkpt>
					<trkpt lat="46.149470" lon="4.399440">
						<ele>775</ele>
						<time>2026-07-29T12:10:19Z</time>
					</trkpt>
					<trkpt lat="46.149510" lon="4.399680">
						<ele>774</ele>
						<time>2026-07-29T12:10:42Z</time>
					</trkpt>
					<trkpt lat="46.149410" lon="4.400370">
						<ele>772</ele>
						<time>2026-07-29T12:11:47Z</time>
					</trkpt>
					<trkpt lat="46.149430" lon="4.400460">
						<ele>771</ele>
						<time>2026-07-29T12:11:56Z</time>
					</trkpt>
					<trkpt lat="46.149380" lon="4.400610">
						<ele>770</ele>
						<time>2026-07-29T12:12:11Z</time>
					</trkpt>
					<trkpt lat="46.149240" lon="4.400830">
						<ele>771</ele>
						<time>2026-07-29T12:12:39Z</time>
					</trkpt>
					<trkpt lat="46.149200" lon="4.401000">
						<ele>770</ele>
						<time>2026-07-29T12:12:55Z</time>
					</trkpt>
					<trkpt lat="46.149070" lon="4.401280">
						<ele>769</ele>
						<time>2026-07-29T12:13:27Z</time>
					</trkpt>
					<trkpt lat="46.148900" lon="4.401610">
						<ele>768</ele>
						<time>2026-07-29T12:14:05Z</time>
					</trkpt>
					<trkpt lat="46.148580" lon="4.402110">
						<ele>768</ele>
						<time>2026-07-29T12:15:07Z</time>
					</trkpt>
					<trkpt lat="46.148480" lon="4.402520">
						<ele>766</ele>
						<time>2026-07-29T12:15:48Z</time>
					</trkpt>
					<trkpt lat="46.148410" lon="4.402560">
						<ele>766</ele>
						<time>2026-07-29T12:15:58Z</time>
					</trkpt>
					<trkpt lat="46.148310" lon="4.402540">
						<ele>767</ele>
						<time>2026-07-29T12:16:11Z</time>
					</trkpt>
					<trkpt lat="46.148080" lon="4.402590">
						<ele>768</ele>
						<time>2026-07-29T12:16:42Z</time>
					</trkpt>
					<trkpt lat="46.148020" lon="4.402580">
						<ele>768</ele>
						<time>2026-07-29T12:16:50Z</time>
					</trkpt>
					<trkpt lat="46.147590" lon="4.402690">
						<ele>768</ele>
						<time>2026-07-29T12:17:49Z</time>
					</trkpt>
					<trkpt lat="46.147400" lon="4.402840">
						<ele>767</ele>
						<time>2026-07-29T12:18:17Z</time>
					</trkpt>
					<trkpt lat="46.147240" lon="4.403030">
						<ele>765</ele>
						<time>2026-07-29T12:18:45Z</time>
					</trkpt>
					<trkpt lat="46.147080" lon="4.403310">
						<ele>762</ele>
						<time>2026-07-29T12:19:19Z</time>
					</trkpt>
					<trkpt lat="46.146860" lon="4.403890">
						<ele>752</ele>
						<time>2026-07-29T12:20:20Z</time>
					</trkpt>
					<trkpt lat="46.146720" lon="4.404090">
						<ele>750</ele>
						<time>2026-07-29T12:20:46Z</time>
					</trkpt>
					<trkpt lat="46.146550" lon="4.404240">
						<ele>750</ele>
						<time>2026-07-29T12:21:13Z</time>
					</trkpt>
					<trkpt lat="46.146490" lon="4.404350">
						<ele>749</ele>
						<time>2026-07-29T12:21:26Z</time>
					</trkpt>
					<trkpt lat="46.146220" lon="4.404690">
						<ele>748</ele>
						<time>2026-07-29T12:22:13Z</time>
					</trkpt>
					<trkpt lat="46.145820" lon="4.404970">
						<ele>751</ele>
						<time>2026-07-29T12:23:13Z</time>
					</trkpt>
					<trkpt lat="46.145570" lon="4.405210">
						<ele>753</ele>
						<time>2026-07-29T12:23:53Z</time>
					</trkpt>
					<trkpt lat="46.145520" lon="4.405310">
						<ele>753</ele>
						<time>2026-07-29T12:24:04Z</time>
					</trkpt>
					<trkpt lat="46.145380" lon="4.405400">
						<ele>755</ele>
						<time>2026-07-29T12:24:25Z</time>
					</trkpt>
					<trkpt lat="46.145250" lon="4.405680">
						<ele>753</ele>
						<time>2026-07-29T12:24:56Z</time>
					</trkpt>
					<trkpt lat="46.145200" lon="4.405860">
						<ele>752</ele>
						<time>2026-07-29T12:25:14Z</time>
					</trkpt>
					<trkpt lat="46.145130" lon="4.405980">
						<ele>752</ele>
						<time>2026-07-29T12:25:28Z</time>
					</trkpt>
					<trkpt lat="46.145060" lon="4.406220">
						<ele>751</ele>
						<time>2026-07-29T12:25:52Z</time>
					</trkpt>
					<trkpt lat="46.144800" lon="4.406860">
						<ele>748</ele>
						<time>2026-07-29T12:27:01Z</time>
					</trkpt>
					<trkpt lat="46.144670" lon="4.407130">
						<ele>748</ele>
						<time>2026-07-29T12:27:31Z</time>
					</trkpt>
					<trkpt lat="46.144600" lon="4.407440">
						<ele>746</ele>
						<time>2026-07-29T12:28:01Z</time>
					</trkpt>
					<trkpt lat="46.144620" lon="4.407670">
						<ele>743</ele>
						<time>2026-07-29T12:28:23Z</time>
					</trkpt>
					<trkpt lat="46.145260" lon="4.408200">
						<ele>726</ele>
						<time>2026-07-29T12:30:01Z</time>
					</trkpt>
					<trkpt lat="46.145520" lon="4.408590">
						<ele>712</ele>
						<time>2026-07-29T12:30:51Z</time>
					</trkpt>
					<trkpt lat="46.145790" lon="4.408830">
						<ele>701</ele>
						<time>2026-07-29T12:31:34Z</time>
					</trkpt>
					<trkpt lat="46.145840" lon="4.408920">
						<ele>699</ele>
						<time>2026-07-29T12:31:44Z</time>
					</trkpt>
					<trkpt lat="46.145890" lon="4.408900">
						<ele>699</ele>
						<time>2026-07-29T12:31:51Z</time>
					</trkpt>
					<trkpt lat="46.146050" lon="4.408650">
						<ele>700</ele>
						<time>2026-07-29T12:32:23Z</time>
					</trkpt>
					<trkpt lat="46.146060" lon="4.408520">
						<ele>701</ele>
						<time>2026-07-29T12:32:35Z</time>
					</trkpt>
					<trkpt lat="46.146110" lon="4.408440">
						<ele>702</ele>
						<time>2026-07-29T12:32:45Z</time>
					</trkpt>
					<trkpt lat="46.146180" lon="4.408780">
						<ele>696</ele>
						<time>2026-07-29T12:33:18Z</time>
					</trkpt>
					<trkpt lat="46.146240" lon="4.408880">
						<ele>693</ele>
						<time>2026-07-29T12:33:30Z</time>
					</trkpt>
					<trkpt lat="46.146270" lon="4.409090">
						<ele>690</ele>
						<time>2026-07-29T12:33:50Z</time>
					</trkpt>
					<trkpt lat="46.146380" lon="4.409290">
						<ele>686</ele>
						<time>2026-07-29T12:34:13Z</time>
					</trkpt>
					<trkpt lat="46.146480" lon="4.409410">
						<ele>684</ele>
						<time>2026-07-29T12:34:31Z</time>
					</trkpt>
					<trkpt lat="46.146500" lon="4.409540">
						<ele>682</ele>
						<time>2026-07-29T12:34:43Z</time>
					</trkpt>
					<trkpt lat="46.146790" lon="4.409730">
						<ele>677</ele>
						<time>2026-07-29T12:35:25Z</time>
					</trkpt>
					<trkpt lat="46.146920" lon="4.409920">
						<ele>674</ele>
						<time>2026-07-29T12:35:50Z</time>
					</trkpt>
					<trkpt lat="46.147260" lon="4.410220">
						<ele>670</ele>
						<time>2026-07-29T12:36:43Z</time>
					</trkpt>
					<trkpt lat="46.147320" lon="4.410350">
						<ele>669</ele>
						<time>2026-07-29T12:36:58Z</time>
					</trkpt>
					<trkpt lat="46.147440" lon="4.410460">
						<ele>668</ele>
						<time>2026-07-29T12:37:17Z</time>
					</trkpt>
					<trkpt lat="46.147530" lon="4.410500">
						<ele>667</ele>
						<time>2026-07-29T12:37:29Z</time>
					</trkpt>
					<trkpt lat="46.147620" lon="4.410630">
						<ele>665</ele>
						<time>2026-07-29T12:37:46Z</time>
					</trkpt>
					<trkpt lat="46.147630" lon="4.410730">
						<ele>664</ele>
						<time>2026-07-29T12:37:56Z</time>
					</trkpt>
					<trkpt lat="46.147770" lon="4.410870">
						<ele>661</ele>
						<time>2026-07-29T12:38:18Z</time>
					</trkpt>
					<trkpt lat="46.147800" lon="4.410860">
						<ele>661</ele>
						<time>2026-07-29T12:38:22Z</time>
					</trkpt>
					<trkpt lat="46.147970" lon="4.411050">
						<ele>658</ele>
						<time>2026-07-29T12:38:51Z</time>
					</trkpt>
					<trkpt lat="46.148080" lon="4.411130">
						<ele>656</ele>
						<time>2026-07-29T12:39:08Z</time>
					</trkpt>
					<trkpt lat="46.148100" lon="4.411200">
						<ele>656</ele>
						<time>2026-07-29T12:39:15Z</time>
					</trkpt>
					<trkpt lat="46.148310" lon="4.411370">
						<ele>653</ele>
						<time>2026-07-29T12:39:47Z</time>
					</trkpt>
					<trkpt lat="46.148460" lon="4.411340">
						<ele>650</ele>
						<time>2026-07-29T12:40:07Z</time>
					</trkpt>
					<trkpt lat="46.148570" lon="4.411410">
						<ele>648</ele>
						<time>2026-07-29T12:40:23Z</time>
					</trkpt>
					<trkpt lat="46.148700" lon="4.411590">
						<ele>646</ele>
						<time>2026-07-29T12:40:47Z</time>
					</trkpt>
					<trkpt lat="46.149010" lon="4.411810">
						<ele>640</ele>
						<time>2026-07-29T12:41:33Z</time>
					</trkpt>
					<trkpt lat="46.149190" lon="4.412020">
						<ele>636</ele>
						<time>2026-07-29T12:42:04Z</time>
					</trkpt>
					<trkpt lat="46.149400" lon="4.412180">
						<ele>633</ele>
						<time>2026-07-29T12:42:36Z</time>
					</trkpt>
					<trkpt lat="46.149660" lon="4.412140">
						<ele>630</ele>
						<time>2026-07-29T12:43:11Z</time>
					</trkpt>
					<trkpt lat="46.149730" lon="4.412180">
						<ele>629</ele>
						<time>2026-07-29T12:43:21Z</time>
					</trkpt>
					<trkpt lat="46.149920" lon="4.412170">
						<ele>627</ele>
						<time>2026-07-29T12:43:46Z</time>
					</trkpt>
					<trkpt lat="46.150150" lon="4.412090">
						<ele>625</ele>
						<time>2026-07-29T12:44:18Z</time>
					</trkpt>
					<trkpt lat="46.150450" lon="4.411950">
						<ele>622</ele>
						<time>2026-07-29T12:45:00Z</time>
					</trkpt>
					<trkpt lat="46.150720" lon="4.411690">
						<ele>619</ele>
						<time>2026-07-29T12:45:43Z</time>
					</trkpt>
					<trkpt lat="46.150850" lon="4.411650">
						<ele>617</ele>
						<time>2026-07-29T12:46:01Z</time>
					</trkpt>
					<trkpt lat="46.150900" lon="4.411600">
						<ele>619</ele>
						<time>2026-07-29T12:46:09Z</time>
					</trkpt>
					<trkpt lat="46.150940" lon="4.411490">
						<ele>619</ele>
						<time>2026-07-29T12:46:20Z</time>
					</trkpt>
					<trkpt lat="46.151010" lon="4.411390">
						<ele>621</ele>
						<time>2026-07-29T12:46:33Z</time>
					</trkpt>
					<trkpt lat="46.151080" lon="4.411160">
						<ele>621</ele>
						<time>2026-07-29T12:46:57Z</time>
					</trkpt>
					<trkpt lat="46.151130" lon="4.411110">
						<ele>621</ele>
						<time>2026-07-29T12:47:05Z</time>
					</trkpt>
					<trkpt lat="46.151200" lon="4.410940">
						<ele>621</ele>
						<time>2026-07-29T12:47:23Z</time>
					</trkpt>
					<trkpt lat="46.151250" lon="4.410890">
						<ele>620</ele>
						<time>2026-07-29T12:47:31Z</time>
					</trkpt>
					<trkpt lat="46.151300" lon="4.410750">
						<ele>620</ele>
						<time>2026-07-29T12:47:46Z</time>
					</trkpt>
					<trkpt lat="46.151280" lon="4.410680">
						<ele>620</ele>
						<time>2026-07-29T12:47:53Z</time>
					</trkpt>
					<trkpt lat="46.151320" lon="4.410400">
						<ele>619</ele>
						<time>2026-07-29T12:48:19Z</time>
					</trkpt>
					<trkpt lat="46.151360" lon="4.410370">
						<ele>619</ele>
						<time>2026-07-29T12:48:25Z</time>
					</trkpt>
					<trkpt lat="46.151500" lon="4.410310">
						<ele>618</ele>
						<time>2026-07-29T12:48:45Z</time>
					</trkpt>
					<trkpt lat="46.151770" lon="4.410140">
						<ele>615</ele>
						<time>2026-07-29T12:49:24Z</time>
					</trkpt>
					<trkpt lat="46.151910" lon="4.410150">
						<ele>617</ele>
						<time>2026-07-29T12:49:43Z</time>
					</trkpt>
					<trkpt lat="46.152080" lon="4.410070">
						<ele>617</ele>
						<time>2026-07-29T12:50:07Z</time>
					</trkpt>
					<trkpt lat="46.152120" lon="4.410090">
						<ele>617</ele>
						<time>2026-07-29T12:50:12Z</time>
					</trkpt>
					<trkpt lat="46.152250" lon="4.410060">
						<ele>618</ele>
						<time>2026-07-29T12:50:30Z</time>
					</trkpt>
					<trkpt lat="46.152360" lon="4.410000">
						<ele>617</ele>
						<time>2026-07-29T12:50:45Z</time>
					</trkpt>
					<trkpt lat="46.152420" lon="4.410010">
						<ele>618</ele>
						<time>2026-07-29T12:50:54Z</time>
					</trkpt>
					<trkpt lat="46.152640" lon="4.409940">
						<ele>618</ele>
						<time>2026-07-29T12:51:24Z</time>
					</trkpt>
					<trkpt lat="46.152770" lon="4.409940">
						<ele>618</ele>
						<time>2026-07-29T12:51:41Z</time>
					</trkpt>
					<trkpt lat="46.152830" lon="4.409850">
						<ele>616</ele>
						<time>2026-07-29T12:51:52Z</time>
					</trkpt>
					<trkpt lat="46.153020" lon="4.409810">
						<ele>616</ele>
						<time>2026-07-29T12:52:18Z</time>
					</trkpt>
					<trkpt lat="46.153080" lon="4.409730">
						<ele>614</ele>
						<time>2026-07-29T12:52:29Z</time>
					</trkpt>
					<trkpt lat="46.153150" lon="4.409740">
						<ele>615</ele>
						<time>2026-07-29T12:52:38Z</time>
					</trkpt>
					<trkpt lat="46.153340" lon="4.409640">
						<ele>612</ele>
						<time>2026-07-29T12:53:05Z</time>
					</trkpt>
					<trkpt lat="46.153410" lon="4.409640">
						<ele>612</ele>
						<time>2026-07-29T12:53:15Z</time>
					</trkpt>
					<trkpt lat="46.153480" lon="4.409580">
						<ele>609</ele>
						<time>2026-07-29T12:53:26Z</time>
					</trkpt>
					<trkpt lat="46.153660" lon="4.409560">
						<ele>608</ele>
						<time>2026-07-29T12:53:50Z</time>
					</trkpt>
					<trkpt lat="46.153710" lon="4.409530">
						<ele>607</ele>
						<time>2026-07-29T12:53:57Z</time>
					</trkpt>
					<trkpt lat="46.153730" lon="4.409550">
						<ele>607</ele>
						<time>2026-07-29T12:54:00Z</time>
					</trkpt>
					<trkpt lat="46.153900" lon="4.409560">
						<ele>607</ele>
						<time>2026-07-29T12:54:23Z</time>
					</trkpt>
					<trkpt lat="46.154120" lon="4.409700">
						<ele>609</ele>
						<time>2026-07-29T12:54:55Z</time>
					</trkpt>
					<trkpt lat="46.154180" lon="4.409780">
						<ele>610</ele>
						<time>2026-07-29T12:55:06Z</time>
					</trkpt>
					<trkpt lat="46.154310" lon="4.410120">
						<ele>615</ele>
						<time>2026-07-29T12:55:42Z</time>
					</trkpt>
					<trkpt lat="46.154330" lon="4.410400">
						<ele>620</ele>
						<time>2026-07-29T12:56:08Z</time>
					</trkpt>
					<trkpt lat="46.154370" lon="4.410580">
						<ele>622</ele>
						<time>2026-07-29T12:56:25Z</time>
					</trkpt>
					<trkpt lat="46.154420" lon="4.410670">
						<ele>623</ele>
						<time>2026-07-29T12:56:36Z</time>
					</trkpt>
					<trkpt lat="46.154510" lon="4.410740">
						<ele>623</ele>
						<time>2026-07-29T12:56:50Z</time>
					</trkpt>
					<trkpt lat="46.154670" lon="4.410720">
						<ele>620</ele>
						<time>2026-07-29T12:57:11Z</time>
					</trkpt>
					<trkpt lat="46.154720" lon="4.410750">
						<ele>620</ele>
						<time>2026-07-29T12:57:18Z</time>
					</trkpt>
					<trkpt lat="46.154830" lon="4.410740">
						<ele>618</ele>
						<time>2026-07-29T12:57:33Z</time>
					</trkpt>
					<trkpt lat="46.155140" lon="4.410590">
						<ele>615</ele>
						<time>2026-07-29T12:58:17Z</time>
					</trkpt>
					<trkpt lat="46.155490" lon="4.410520">
						<ele>618</ele>
						<time>2026-07-29T12:59:04Z</time>
					</trkpt>
					<trkpt lat="46.155810" lon="4.410530">
						<ele>621</ele>
						<time>2026-07-29T12:59:46Z</time>
					</trkpt>
					<trkpt lat="46.155910" lon="4.410500">
						<ele>622</ele>
						<time>2026-07-29T13:00:00Z</time>
					</trkpt>
					<trkpt lat="46.156090" lon="4.410490">
						<ele>623</ele>
						<time>2026-07-29T13:00:24Z</time>
					</trkpt>
					<trkpt lat="46.156150" lon="4.410450">
						<ele>623</ele>
						<time>2026-07-29T13:00:33Z</time>
					</trkpt>
					<trkpt lat="46.156270" lon="4.410420">
						<ele>623</ele>
						<time>2026-07-29T13:00:49Z</time>
					</trkpt>
					<trkpt lat="46.156690" lon="4.410400">
						<ele>626</ele>
						<time>2026-07-29T13:01:45Z</time>
					</trkpt>
					<trkpt lat="46.156780" lon="4.410410">
						<ele>627</ele>
						<time>2026-07-29T13:01:57Z</time>
					</trkpt>
					<trkpt lat="46.156840" lon="4.410460">
						<ele>627</ele>
						<time>2026-07-29T13:02:07Z</time>
					</trkpt>
					<trkpt lat="46.157100" lon="4.410750">
						<ele>631</ele>
						<time>2026-07-29T13:02:50Z</time>
					</trkpt>
					<trkpt lat="46.157110" lon="4.410790">
						<ele>631</ele>
						<time>2026-07-29T13:02:54Z</time>
					</trkpt>
					<trkpt lat="46.157080" lon="4.410870">
						<ele>632</ele>
						<time>2026-07-29T13:03:03Z</time>
					</trkpt>
					<trkpt lat="46.156910" lon="4.411110">
						<ele>637</ele>
						<time>2026-07-29T13:03:34Z</time>
					</trkpt>
					<trkpt lat="46.156580" lon="4.411680">
						<ele>649</ele>
						<time>2026-07-29T13:04:43Z</time>
					</trkpt>
					<trkpt lat="46.156470" lon="4.411810">
						<ele>648</ele>
						<time>2026-07-29T13:05:02Z</time>
					</trkpt>
					<trkpt lat="46.156290" lon="4.412360">
						<ele>652</ele>
						<time>2026-07-29T13:05:58Z</time>
					</trkpt>
					<trkpt lat="46.155700" lon="4.413690">
						<ele>661</ele>
						<time>2026-07-29T13:08:24Z</time>
					</trkpt>
					<trkpt lat="46.155650" lon="4.413740">
						<ele>662</ele>
						<time>2026-07-29T13:08:32Z</time>
					</trkpt>
					<trkpt lat="46.155590" lon="4.413880">
						<ele>663</ele>
						<time>2026-07-29T13:08:48Z</time>
					</trkpt>
					<trkpt lat="46.155520" lon="4.413910">
						<ele>664</ele>
						<time>2026-07-29T13:08:57Z</time>
					</trkpt>
					<trkpt lat="46.155490" lon="4.413980">
						<ele>665</ele>
						<time>2026-07-29T13:09:05Z</time>
					</trkpt>
					<trkpt lat="46.155350" lon="4.414150">
						<ele>668</ele>
						<time>2026-07-29T13:09:29Z</time>
					</trkpt>
					<trkpt lat="46.155280" lon="4.414170">
						<ele>669</ele>
						<time>2026-07-29T13:09:39Z</time>
					</trkpt>
					<trkpt lat="46.155240" lon="4.414250">
						<ele>669</ele>
						<time>2026-07-29T13:09:48Z</time>
					</trkpt>
					<trkpt lat="46.155150" lon="4.414330">
						<ele>670</ele>
						<time>2026-07-29T13:10:02Z</time>
					</trkpt>
					<trkpt lat="46.154980" lon="4.414710">
						<ele>674</ele>
						<time>2026-07-29T13:10:44Z</time>
					</trkpt>
					<trkpt lat="46.154750" lon="4.414960">
						<ele>679</ele>
						<time>2026-07-29T13:11:22Z</time>
					</trkpt>
					<trkpt lat="46.154580" lon="4.415280">
						<ele>683</ele>
						<time>2026-07-29T13:12:00Z</time>
					</trkpt>
					<trkpt lat="46.154370" lon="4.415770">
						<ele>690</ele>
						<time>2026-07-29T13:12:53Z</time>
					</trkpt>
					<trkpt lat="46.154030" lon="4.416300">
						<ele>697</ele>
						<time>2026-07-29T13:14:00Z</time>
					</trkpt>
					<trkpt lat="46.153840" lon="4.416720">
						<ele>697</ele>
						<time>2026-07-29T13:14:46Z</time>
					</trkpt>
					<trkpt lat="46.153780" lon="4.416910">
						<ele>698</ele>
						<time>2026-07-29T13:15:05Z</time>
					</trkpt>
					<trkpt lat="46.153650" lon="4.417080">
						<ele>699</ele>
						<time>2026-07-29T13:15:29Z</time>
					</trkpt>
					<trkpt lat="46.153580" lon="4.417220">
						<ele>699</ele>
						<time>2026-07-29T13:15:45Z</time>
					</trkpt>
					<trkpt lat="46.153470" lon="4.417560">
						<ele>702</ele>
						<time>2026-07-29T13:16:19Z</time>
					</trkpt>
					<trkpt lat="46.153400" lon="4.417660">
						<ele>703</ele>
						<time>2026-07-29T13:16:33Z</time>
					</trkpt>
					<trkpt lat="46.153290" lon="4.417740">
						<ele>703</ele>
						<time>2026-07-29T13:16:49Z</time>
					</trkpt>
					<trkpt lat="46.153240" lon="4.417840">
						<ele>704</ele>
						<time>2026-07-29T13:17:00Z</time>
					</trkpt>
					<trkpt lat="46.153050" lon="4.418080">
						<ele>706</ele>
						<time>2026-07-29T13:17:34Z</time>
					</trkpt>
					<trkpt lat="46.152930" lon="4.418340">
						<ele>708</ele>
						<time>2026-07-29T13:18:03Z</time>
					</trkpt>
					<trkpt lat="46.152720" lon="4.418680">
						<ele>708</ele>
						<time>2026-07-29T13:18:45Z</time>
					</trkpt>
					<trkpt lat="46.152640" lon="4.418870">
						<ele>709</ele>
						<time>2026-07-29T13:19:06Z</time>
					</trkpt>
					<trkpt lat="46.152460" lon="4.419170">
						<ele>710</ele>
						<time>2026-07-29T13:19:42Z</time>
					</trkpt>
					<trkpt lat="46.152420" lon="4.419280">
						<ele>711</ele>
						<time>2026-07-29T13:19:54Z</time>
					</trkpt>
					<trkpt lat="46.152200" lon="4.419590">
						<ele>715</ele>
						<time>2026-07-29T13:20:35Z</time>
					</trkpt>
					<trkpt lat="46.152180" lon="4.419680">
						<ele>717</ele>
						<time>2026-07-29T13:20:44Z</time>
					</trkpt>
					<trkpt lat="46.152140" lon="4.419690">
						<ele>717</ele>
						<time>2026-07-29T13:20:49Z</time>
					</trkpt>
					<trkpt lat="46.152000" lon="4.419930">
						<ele>720</ele>
						<time>2026-07-29T13:21:18Z</time>
					</trkpt>
					<trkpt lat="46.151860" lon="4.420050">
						<ele>721</ele>
						<time>2026-07-29T13:21:40Z</time>
					</trkpt>
					<trkpt lat="46.151820" lon="4.420240">
						<ele>724</ele>
						<time>2026-07-29T13:21:58Z</time>
					</trkpt>
					<trkpt lat="46.151740" lon="4.420410">
						<ele>726</ele>
						<time>2026-07-29T13:22:17Z</time>
					</trkpt>
					<trkpt lat="46.151560" lon="4.420650">
						<ele>730</ele>
						<time>2026-07-29T13:22:50Z</time>
					</trkpt>
					<trkpt lat="46.151390" lon="4.421080">
						<ele>733</ele>
						<time>2026-07-29T13:23:36Z</time>
					</trkpt>
					<trkpt lat="46.151300" lon="4.421250">
						<ele>734</ele>
						<time>2026-07-29T13:23:55Z</time>
					</trkpt>
					<trkpt lat="46.151220" lon="4.421300">
						<ele>734</ele>
						<time>2026-07-29T13:24:07Z</time>
					</trkpt>
					<trkpt lat="46.151010" lon="4.421700">
						<ele>734</ele>
						<time>2026-07-29T13:24:53Z</time>
					</trkpt>
					<trkpt lat="46.151020" lon="4.421810">
						<ele>735</ele>
						<time>2026-07-29T13:25:04Z</time>
					</trkpt>
					<trkpt lat="46.150990" lon="4.421910">
						<ele>735</ele>
						<time>2026-07-29T13:25:14Z</time>
					</trkpt>
					<trkpt lat="46.150930" lon="4.421950">
						<ele>735</ele>
						<time>2026-07-29T13:25:23Z</time>
					</trkpt>
					<trkpt lat="46.150860" lon="4.422110">
						<ele>735</ele>
						<time>2026-07-29T13:25:40Z</time>
					</trkpt>
					<trkpt lat="46.150760" lon="4.422180">
						<ele>735</ele>
						<time>2026-07-29T13:25:55Z</time>
					</trkpt>
					<trkpt lat="46.150710" lon="4.422300">
						<ele>735</ele>
						<time>2026-07-29T13:26:08Z</time>
					</trkpt>
					<trkpt lat="46.150640" lon="4.422350">
						<ele>734</ele>
						<time>2026-07-29T13:26:18Z</time>
					</trkpt>
					<trkpt lat="46.150560" lon="4.422460">
						<ele>734</ele>
						<time>2026-07-29T13:26:33Z</time>
					</trkpt>
					<trkpt lat="46.150390" lon="4.422840">
						<ele>731</ele>
						<time>2026-07-29T13:27:15Z</time>
					</trkpt>
					<trkpt lat="46.150390" lon="4.423220">
						<ele>732</ele>
						<time>2026-07-29T13:27:50Z</time>
					</trkpt>
					<trkpt lat="46.150360" lon="4.423460">
						<ele>731</ele>
						<time>2026-07-29T13:28:12Z</time>
					</trkpt>
					<trkpt lat="46.150300" lon="4.423650">
						<ele>729</ele>
						<time>2026-07-29T13:28:32Z</time>
					</trkpt>
					<trkpt lat="46.150240" lon="4.423710">
						<ele>728</ele>
						<time>2026-07-29T13:28:41Z</time>
					</trkpt>
					<trkpt lat="46.150240" lon="4.423790">
						<ele>728</ele>
						<time>2026-07-29T13:28:49Z</time>
					</trkpt>
					<trkpt lat="46.150130" lon="4.424130">
						<ele>725</ele>
						<time>2026-07-29T13:29:24Z</time>
					</trkpt>
					<trkpt lat="46.149920" lon="4.424530">
						<ele>722</ele>
						<time>2026-07-29T13:30:10Z</time>
					</trkpt>
					<trkpt lat="46.149800" lon="4.424670">
						<ele>721</ele>
						<time>2026-07-29T13:30:31Z</time>
					</trkpt>
					<trkpt lat="46.149680" lon="4.424960">
						<ele>720</ele>
						<time>2026-07-29T13:31:02Z</time>
					</trkpt>
					<trkpt lat="46.149580" lon="4.425040">
						<ele>719</ele>
						<time>2026-07-29T13:31:17Z</time>
					</trkpt>
					<trkpt lat="46.149530" lon="4.425130">
						<ele>718</ele>
						<time>2026-07-29T13:31:28Z</time>
					</trkpt>
					<trkpt lat="46.149400" lon="4.425270">
						<ele>716</ele>
						<time>2026-07-29T13:31:49Z</time>
					</trkpt>
					<trkpt lat="46.149250" lon="4.425280">
						<ele>715</ele>
						<time>2026-07-29T13:32:09Z</time>
					</trkpt>
					<trkpt lat="46.148930" lon="4.424920">
						<ele>717</ele>
						<time>2026-07-29T13:33:04Z</time>
					</trkpt>
					<trkpt lat="46.148820" lon="4.424850">
						<ele>718</ele>
						<time>2026-07-29T13:33:20Z</time>
					</trkpt>
					<trkpt lat="46.148680" lon="4.424990">
						<ele>719</ele>
						<time>2026-07-29T13:33:42Z</time>
					</trkpt>
					<trkpt lat="46.148630" lon="4.425000">
						<ele>720</ele>
						<time>2026-07-29T13:33:49Z</time>
					</trkpt>
					<trkpt lat="46.148570" lon="4.425110">
						<ele>720</ele>
						<time>2026-07-29T13:34:02Z</time>
					</trkpt>
					<trkpt lat="46.148500" lon="4.425150">
						<ele>720</ele>
						<time>2026-07-29T13:34:12Z</time>
					</trkpt>
					<trkpt lat="46.148410" lon="4.425160">
						<ele>721</ele>
						<time>2026-07-29T13:34:24Z</time>
					</trkpt>
					<trkpt lat="46.148390" lon="4.425200">
						<ele>721</ele>
						<time>2026-07-29T13:34:29Z</time>
					</trkpt>
					<trkpt lat="46.148280" lon="4.425240">
						<ele>722</ele>
						<time>2026-07-29T13:34:44Z</time>
					</trkpt>
					<trkpt lat="46.148250" lon="4.425330">
						<ele>722</ele>
						<time>2026-07-29T13:34:53Z</time>
					</trkpt>
					<trkpt lat="46.148190" lon="4.425400">
						<ele>723</ele>
						<time>2026-07-29T13:35:03Z</time>
					</trkpt>
					<trkpt lat="46.148030" lon="4.425530">
						<ele>725</ele>
						<time>2026-07-29T13:35:28Z</time>
					</trkpt>
					<trkpt lat="46.147920" lon="4.425550">
						<ele>727</ele>
						<time>2026-07-29T13:35:43Z</time>
					</trkpt>
					<trkpt lat="46.147890" lon="4.425610">
						<ele>728</ele>
						<time>2026-07-29T13:35:49Z</time>
					</trkpt>
					<trkpt lat="46.147840" lon="4.425630">
						<ele>728</ele>
						<time>2026-07-29T13:35:56Z</time>
					</trkpt>
					<trkpt lat="46.147750" lon="4.425600">
						<ele>730</ele>
						<time>2026-07-29T13:36:09Z</time>
					</trkpt>
					<trkpt lat="46.147660" lon="4.425530">
						<ele>732</ele>
						<time>2026-07-29T13:36:22Z</time>
					</trkpt>
					<trkpt lat="46.147580" lon="4.425530">
						<ele>734</ele>
						<time>2026-07-29T13:36:33Z</time>
					</trkpt>
					<trkpt lat="46.147560" lon="4.425570">
						<ele>734</ele>
						<time>2026-07-29T13:36:38Z</time>
					</trkpt>
					<trkpt lat="46.147470" lon="4.425560">
						<ele>736</ele>
						<time>2026-07-29T13:36:50Z</time>
					</trkpt>
					<trkpt lat="46.147400" lon="4.425600">
						<ele>738</ele>
						<time>2026-07-29T13:37:00Z</time>
					</trkpt>
					<trkpt lat="46.147340" lon="4.425600">
						<ele>739</ele>
						<time>2026-07-29T13:37:08Z</time>
					</trkpt>
					<trkpt lat="46.147310" lon="4.425640">
						<ele>740</ele>
						<time>2026-07-29T13:37:13Z</time>
					</trkpt>
					<trkpt lat="46.147170" lon="4.425670">
						<ele>743</ele>
						<time>2026-07-29T13:37:32Z</time>
					</trkpt>
					<trkpt lat="46.146810" lon="4.425950">
						<ele>749</ele>
						<time>2026-07-29T13:38:27Z</time>
					</trkpt>
					<trkpt lat="46.146630" lon="4.426010">
						<ele>753</ele>
						<time>2026-07-29T13:38:51Z</time>
					</trkpt>
					<trkpt lat="46.146560" lon="4.426000">
						<ele>755</ele>
						<time>2026-07-29T13:39:01Z</time>
					</trkpt>
					<trkpt lat="46.146490" lon="4.426040">
						<ele>756</ele>
						<time>2026-07-29T13:39:11Z</time>
					</trkpt>
					<trkpt lat="46.146460" lon="4.426020">
						<ele>757</ele>
						<time>2026-07-29T13:39:15Z</time>
					</trkpt>
					<trkpt lat="46.146400" lon="4.426050">
						<ele>758</ele>
						<time>2026-07-29T13:39:24Z</time>
					</trkpt>
					<trkpt lat="46.145680" lon="4.425950">
						<ele>772</ele>
						<time>2026-07-29T13:41:00Z</time>
					</trkpt>
					<trkpt lat="46.145600" lon="4.425970">
						<ele>773</ele>
						<time>2026-07-29T13:41:11Z</time>
					</trkpt>
					<trkpt lat="46.145450" lon="4.425920">
						<ele>774</ele>
						<time>2026-07-29T13:41:31Z</time>
					</trkpt>
					<trkpt lat="46.145280" lon="4.425900">
						<ele>774</ele>
						<time>2026-07-29T13:41:54Z</time>
					</trkpt>
					<trkpt lat="46.145200" lon="4.425850">
						<ele>775</ele>
						<time>2026-07-29T13:42:06Z</time>
					</trkpt>
					<trkpt lat="46.145070" lon="4.425830">
						<ele>776</ele>
						<time>2026-07-29T13:42:23Z</time>
					</trkpt>
					<trkpt lat="46.144910" lon="4.425740">
						<ele>776</ele>
						<time>2026-07-29T13:42:46Z</time>
					</trkpt>
					<trkpt lat="46.144790" lon="4.425710">
						<ele>776</ele>
						<time>2026-07-29T13:43:02Z</time>
					</trkpt>
					<trkpt lat="46.144610" lon="4.425570">
						<ele>776</ele>
						<time>2026-07-29T13:43:30Z</time>
					</trkpt>
					<trkpt lat="46.144550" lon="4.425470">
						<ele>776</ele>
						<time>2026-07-29T13:43:42Z</time>
					</trkpt>
					<trkpt lat="46.144410" lon="4.425390">
						<ele>776</ele>
						<time>2026-07-29T13:44:02Z</time>
					</trkpt>
					<trkpt lat="46.144330" lon="4.425290">
						<ele>777</ele>
						<time>2026-07-29T13:44:16Z</time>
					</trkpt>
					<trkpt lat="46.144180" lon="4.425190">
						<ele>777</ele>
						<time>2026-07-29T13:44:38Z</time>
					</trkpt>
					<trkpt lat="46.144090" lon="4.425050">
						<ele>778</ele>
						<time>2026-07-29T13:44:56Z</time>
					</trkpt>
					<trkpt lat="46.143990" lon="4.425000">
						<ele>778</ele>
						<time>2026-07-29T13:45:10Z</time>
					</trkpt>
					<trkpt lat="46.143920" lon="4.424920">
						<ele>778</ele>
						<time>2026-07-29T13:45:22Z</time>
					</trkpt>
					<trkpt lat="46.143760" lon="4.424810">
						<ele>778</ele>
						<time>2026-07-29T13:45:46Z</time>
					</trkpt>
					<trkpt lat="46.143410" lon="4.424290">
						<ele>777</ele>
						<time>2026-07-29T13:46:53Z</time>
					</trkpt>
					<trkpt lat="46.143140" lon="4.423950">
						<ele>774</ele>
						<time>2026-07-29T13:47:40Z</time>
					</trkpt>
					<trkpt lat="46.143060" lon="4.423790">
						<ele>772</ele>
						<time>2026-07-29T13:47:59Z</time>
					</trkpt>
					<trkpt lat="46.142720" lon="4.423390">
						<ele>767</ele>
						<time>2026-07-29T13:48:57Z</time>
					</trkpt>
					<trkpt lat="46.142580" lon="4.422880">
						<ele>765</ele>
						<time>2026-07-29T13:49:48Z</time>
					</trkpt>
					<trkpt lat="46.142610" lon="4.422480">
						<ele>763</ele>
						<time>2026-07-29T13:50:25Z</time>
					</trkpt>
					<trkpt lat="46.142520" lon="4.422090">
						<ele>762</ele>
						<time>2026-07-29T13:51:03Z</time>
					</trkpt>
					<trkpt lat="46.142270" lon="4.421790">
						<ele>761</ele>
						<time>2026-07-29T13:51:47Z</time>
					</trkpt>
					<trkpt lat="46.142030" lon="4.421410">
						<ele>762</ele>
						<time>2026-07-29T13:52:34Z</time>
					</trkpt>
					<trkpt lat="46.141850" lon="4.420940">
						<ele>763</ele>
						<time>2026-07-29T13:53:24Z</time>
					</trkpt>
					<trkpt lat="46.141620" lon="4.420430">
						<ele>764</ele>
						<time>2026-07-29T13:54:20Z</time>
					</trkpt>
					<trkpt lat="46.141430" lon="4.420260">
						<ele>764</ele>
						<time>2026-07-29T13:54:50Z</time>
					</trkpt>
					<trkpt lat="46.141250" lon="4.420160">
						<ele>765</ele>
						<time>2026-07-29T13:55:16Z</time>
					</trkpt>
					<trkpt lat="46.141130" lon="4.420040">
						<ele>765</ele>
						<time>2026-07-29T13:55:35Z</time>
					</trkpt>
					<trkpt lat="46.140990" lon="4.419830">
						<ele>768</ele>
						<time>2026-07-29T13:56:02Z</time>
					</trkpt>
					<trkpt lat="46.140920" lon="4.419600">
						<ele>770</ele>
						<time>2026-07-29T13:56:25Z</time>
					</trkpt>
					<trkpt lat="46.140860" lon="4.419490">
						<ele>772</ele>
						<time>2026-07-29T13:56:38Z</time>
					</trkpt>
					<trkpt lat="46.140850" lon="4.419380">
						<ele>773</ele>
						<time>2026-07-29T13:56:48Z</time>
					</trkpt>
					<trkpt lat="46.140740" lon="4.419270">
						<ele>775</ele>
						<time>2026-07-29T13:57:06Z</time>
					</trkpt>
					<trkpt lat="46.140620" lon="4.419040">
						<ele>778</ele>
						<time>2026-07-29T13:57:33Z</time>
					</trkpt>
					<trkpt lat="46.140540" lon="4.418980">
						<ele>779</ele>
						<time>2026-07-29T13:57:45Z</time>
					</trkpt>
					<trkpt lat="46.140410" lon="4.418800">
						<ele>783</ele>
						<time>2026-07-29T13:58:09Z</time>
					</trkpt>
					<trkpt lat="46.140400" lon="4.418710">
						<ele>784</ele>
						<time>2026-07-29T13:58:17Z</time>
					</trkpt>
					<trkpt lat="46.140350" lon="4.418670">
						<ele>785</ele>
						<time>2026-07-29T13:58:25Z</time>
					</trkpt>
					<trkpt lat="46.140230" lon="4.418470">
						<ele>788</ele>
						<time>2026-07-29T13:58:49Z</time>
					</trkpt>
					<trkpt lat="46.140210" lon="4.418340">
						<ele>790</ele>
						<time>2026-07-29T13:59:02Z</time>
					</trkpt>
					<trkpt lat="46.140110" lon="4.418110">
						<ele>792</ele>
						<time>2026-07-29T13:59:27Z</time>
					</trkpt>
					<trkpt lat="46.140020" lon="4.418020">
						<ele>793</ele>
						<time>2026-07-29T13:59:42Z</time>
					</trkpt>
					<trkpt lat="46.139930" lon="4.417990">
						<ele>794</ele>
						<time>2026-07-29T13:59:54Z</time>
					</trkpt>
					<trkpt lat="46.139850" lon="4.417910">
						<ele>796</ele>
						<time>2026-07-29T14:00:07Z</time>
					</trkpt>
					<trkpt lat="46.139780" lon="4.417900">
						<ele>797</ele>
						<time>2026-07-29T14:00:16Z</time>
					</trkpt>
					<trkpt lat="46.139620" lon="4.417720">
						<ele>800</ele>
						<time>2026-07-29T14:00:43Z</time>
					</trkpt>
					<trkpt lat="46.139470" lon="4.417480">
						<ele>804</ele>
						<time>2026-07-29T14:01:13Z</time>
					</trkpt>
					<trkpt lat="46.139390" lon="4.417470">
						<ele>805</ele>
						<time>2026-07-29T14:01:24Z</time>
					</trkpt>
					<trkpt lat="46.139350" lon="4.417440">
						<ele>806</ele>
						<time>2026-07-29T14:01:30Z</time>
					</trkpt>
					<trkpt lat="46.139340" lon="4.417390">
						<ele>806</ele>
						<time>2026-07-29T14:01:35Z</time>
					</trkpt>
					<trkpt lat="46.139290" lon="4.417370">
						<ele>807</ele>
						<time>2026-07-29T14:01:42Z</time>
					</trkpt>
					<trkpt lat="46.139210" lon="4.417260">
						<ele>809</ele>
						<time>2026-07-29T14:01:56Z</time>
					</trkpt>
					<trkpt lat="46.139170" lon="4.417160">
						<ele>810</ele>
						<time>2026-07-29T14:02:07Z</time>
					</trkpt>
					<trkpt lat="46.139020" lon="4.417050">
						<ele>814</ele>
						<time>2026-07-29T14:02:30Z</time>
					</trkpt>
					<trkpt lat="46.138980" lon="4.416950">
						<ele>816</ele>
						<time>2026-07-29T14:02:40Z</time>
					</trkpt>
					<trkpt lat="46.138870" lon="4.416840">
						<ele>820</ele>
						<time>2026-07-29T14:02:58Z</time>
					</trkpt>
					<trkpt lat="46.138630" lon="4.416740">
						<ele>828</ele>
						<time>2026-07-29T14:03:31Z</time>
					</trkpt>
					<trkpt lat="46.138500" lon="4.416760">
						<ele>832</ele>
						<time>2026-07-29T14:03:49Z</time>
					</trkpt>
					<trkpt lat="46.138470" lon="4.416710">
						<ele>833</ele>
						<time>2026-07-29T14:03:55Z</time>
					</trkpt>
					<trkpt lat="46.138270" lon="4.416820">
						<ele>838</ele>
						<time>2026-07-29T14:04:24Z</time>
					</trkpt>
					<trkpt lat="46.138020" lon="4.417060">
						<ele>840</ele>
						<time>2026-07-29T14:05:04Z</time>
					</trkpt>
					<trkpt lat="46.137980" lon="4.417200">
						<ele>840</ele>
						<time>2026-07-29T14:05:18Z</time>
					</trkpt>
					<trkpt lat="46.137900" lon="4.417210">
						<ele>842</ele>
						<time>2026-07-29T14:05:28Z</time>
					</trkpt>
					<trkpt lat="46.137810" lon="4.417320">
						<ele>843</ele>
						<time>2026-07-29T14:05:44Z</time>
					</trkpt>
					<trkpt lat="46.137710" lon="4.417290">
						<ele>846</ele>
						<time>2026-07-29T14:05:58Z</time>
					</trkpt>
					<trkpt lat="46.137480" lon="4.417330">
						<ele>851</ele>
						<time>2026-07-29T14:06:29Z</time>
					</trkpt>
					<trkpt lat="46.137280" lon="4.417300">
						<ele>854</ele>
						<time>2026-07-29T14:06:55Z</time>
					</trkpt>
					<trkpt lat="46.137120" lon="4.417340">
						<ele>856</ele>
						<time>2026-07-29T14:07:17Z</time>
					</trkpt>
					<trkpt lat="46.137020" lon="4.417300">
						<ele>857</ele>
						<time>2026-07-29T14:07:31Z</time>
					</trkpt>
					<trkpt lat="46.136810" lon="4.417300">
						<ele>860</ele>
						<time>2026-07-29T14:07:59Z</time>
					</trkpt>
					<trkpt lat="46.136710" lon="4.417350">
						<ele>861</ele>
						<time>2026-07-29T14:08:13Z</time>
					</trkpt>
					<trkpt lat="46.136540" lon="4.417300">
						<ele>863</ele>
						<time>2026-07-29T14:08:36Z</time>
					</trkpt>
					<trkpt lat="46.136420" lon="4.417300">
						<ele>864</ele>
						<time>2026-07-29T14:08:52Z</time>
					</trkpt>
					<trkpt lat="46.136380" lon="4.417330">
						<ele>864</ele>
						<time>2026-07-29T14:08:58Z</time>
					</trkpt>
					<trkpt lat="46.136220" lon="4.417280">
						<ele>866</ele>
						<time>2026-07-29T14:09:20Z</time>
					</trkpt>
					<trkpt lat="46.136180" lon="4.417310">
						<ele>866</ele>
						<time>2026-07-29T14:09:26Z</time>
					</trkpt>
					<trkpt lat="46.136110" lon="4.417310">
						<ele>867</ele>
						<time>2026-07-29T14:09:35Z</time>
					</trkpt>
					<trkpt lat="46.136080" lon="4.417340">
						<ele>867</ele>
						<time>2026-07-29T14:09:40Z</time>
					</trkpt>
					<trkpt lat="46.136010" lon="4.417340">
						<ele>867</ele>
						<time>2026-07-29T14:09:50Z</time>
					</trkpt>
					<trkpt lat="46.135900" lon="4.417300">
						<ele>868</ele>
						<time>2026-07-29T14:10:05Z</time>
					</trkpt>
					<trkpt lat="46.135720" lon="4.417300">
						<ele>869</ele>
						<time>2026-07-29T14:10:29Z</time>
					</trkpt>
					<trkpt lat="46.135520" lon="4.417260">
						<ele>870</ele>
						<time>2026-07-29T14:10:56Z</time>
					</trkpt>
					<trkpt lat="46.135080" lon="4.416970">
						<ele>871</ele>
						<time>2026-07-29T14:12:00Z</time>
					</trkpt>
					<trkpt lat="46.134990" lon="4.416950">
						<ele>872</ele>
						<time>2026-07-29T14:12:12Z</time>
					</trkpt>
					<trkpt lat="46.134830" lon="4.416850">
						<ele>872</ele>
						<time>2026-07-29T14:12:36Z</time>
					</trkpt>
					<trkpt lat="46.134820" lon="4.416750">
						<ele>872</ele>
						<time>2026-07-29T14:12:45Z</time>
					</trkpt>
					<trkpt lat="46.134940" lon="4.416550">
						<ele>871</ele>
						<time>2026-07-29T14:13:10Z</time>
					</trkpt>
					<trkpt lat="46.135040" lon="4.416310">
						<ele>870</ele>
						<time>2026-07-29T14:13:35Z</time>
					</trkpt>
					<trkpt lat="46.135240" lon="4.415980">
						<ele>869</ele>
						<time>2026-07-29T14:14:16Z</time>
					</trkpt>
					<trkpt lat="46.135430" lon="4.415440">
						<ele>866</ele>
						<time>2026-07-29T14:15:12Z</time>
					</trkpt>
					<trkpt lat="46.135550" lon="4.415170">
						<ele>863</ele>
						<time>2026-07-29T14:15:42Z</time>
					</trkpt>
					<trkpt lat="46.135820" lon="4.414190">
						<ele>858</ele>
						<time>2026-07-29T14:17:19Z</time>
					</trkpt>
					<trkpt lat="46.136040" lon="4.413660">
						<ele>854</ele>
						<time>2026-07-29T14:18:16Z</time>
					</trkpt>
					<trkpt lat="46.136170" lon="4.412980">
						<ele>852</ele>
						<time>2026-07-29T14:19:22Z</time>
					</trkpt>
					<trkpt lat="46.136220" lon="4.412360">
						<ele>851</ele>
						<time>2026-07-29T14:20:19Z</time>
					</trkpt>
					<trkpt lat="46.136280" lon="4.412090">
						<ele>851</ele>
						<time>2026-07-29T14:20:45Z</time>
					</trkpt>
					<trkpt lat="46.136520" lon="4.411510">
						<ele>850</ele>
						<time>2026-07-29T14:21:48Z</time>
					</trkpt>
					<trkpt lat="46.136610" lon="4.411210">
						<ele>849</ele>
						<time>2026-07-29T14:22:18Z</time>
					</trkpt>
					<trkpt lat="46.136650" lon="4.411030">
						<ele>848</ele>
						<time>2026-07-29T14:22:36Z</time>
					</trkpt>
					<trkpt lat="46.136730" lon="4.410260">
						<ele>843</ele>
						<time>2026-07-29T14:23:48Z</time>
					</trkpt>
					<trkpt lat="46.136950" lon="4.409380">
						<ele>838</ele>
						<time>2026-07-29T14:25:14Z</time>
					</trkpt>
					<trkpt lat="46.137020" lon="4.408980">
						<ele>838</ele>
						<time>2026-07-29T14:25:52Z</time>
					</trkpt>
					<trkpt lat="46.137010" lon="4.408840">
						<ele>838</ele>
						<time>2026-07-29T14:26:05Z</time>
					</trkpt>
					<trkpt lat="46.136930" lon="4.408740">
						<ele>838</ele>
						<time>2026-07-29T14:26:19Z</time>
					</trkpt>
					<trkpt lat="46.136600" lon="4.408550">
						<ele>837</ele>
						<time>2026-07-29T14:27:07Z</time>
					</trkpt>
					<trkpt lat="46.136440" lon="4.408510">
						<ele>834</ele>
						<time>2026-07-29T14:27:29Z</time>
					</trkpt>
					<trkpt lat="46.136310" lon="4.408510">
						<ele>832</ele>
						<time>2026-07-29T14:27:46Z</time>
					</trkpt>
					<trkpt lat="46.136200" lon="4.408550">
						<ele>830</ele>
						<time>2026-07-29T14:28:01Z</time>
					</trkpt>
					<trkpt lat="46.136140" lon="4.408520">
						<ele>829</ele>
						<time>2026-07-29T14:28:10Z</time>
					</trkpt>
					<trkpt lat="46.135850" lon="4.407900">
						<ele>829</ele>
						<time>2026-07-29T14:29:19Z</time>
					</trkpt>
					<trkpt lat="46.135720" lon="4.407680">
						<ele>830</ele>
						<time>2026-07-29T14:29:45Z</time>
					</trkpt>
					<trkpt lat="46.135400" lon="4.407350">
						<ele>827</ele>
						<time>2026-07-29T14:30:38Z</time>
					</trkpt>
					<trkpt lat="46.135190" lon="4.407240">
						<ele>824</ele>
						<time>2026-07-29T14:31:08Z</time>
					</trkpt>
					<trkpt lat="46.135060" lon="4.407060">
						<ele>824</ele>
						<time>2026-07-29T14:31:32Z</time>
					</trkpt>
					<trkpt lat="46.135020" lon="4.406960">
						<ele>825</ele>
						<time>2026-07-29T14:31:42Z</time>
					</trkpt>
					<trkpt lat="46.134930" lon="4.406910">
						<ele>824</ele>
						<time>2026-07-29T14:31:55Z</time>
					</trkpt>
					<trkpt lat="46.134690" lon="4.406400">
						<ele>826</ele>
						<time>2026-07-29T14:32:52Z</time>
					</trkpt>
					<trkpt lat="46.134430" lon="4.406020">
						<ele>822</ele>
						<time>2026-07-29T14:33:42Z</time>
					</trkpt>
					<trkpt lat="46.134360" lon="4.405810">
						<ele>821</ele>
						<time>2026-07-29T14:34:03Z</time>
					</trkpt>
					<trkpt lat="46.134280" lon="4.405680">
						<ele>818</ele>
						<time>2026-07-29T14:34:19Z</time>
					</trkpt>
					<trkpt lat="46.134090" lon="4.405000">
						<ele>813</ele>
						<time>2026-07-29T14:35:27Z</time>
					</trkpt>
					<trkpt lat="46.134070" lon="4.404830">
						<ele>814</ele>
						<time>2026-07-29T14:35:43Z</time>
					</trkpt>
					<trkpt lat="46.133720" lon="4.403760">
						<ele>806</ele>
						<time>2026-07-29T14:37:32Z</time>
					</trkpt>
					<trkpt lat="46.133650" lon="4.403620">
						<ele>804</ele>
						<time>2026-07-29T14:37:48Z</time>
					</trkpt>
					<trkpt lat="46.133430" lon="4.403300">
						<ele>799</ele>
						<time>2026-07-29T14:38:30Z</time>
					</trkpt>
					<trkpt lat="46.133000" lon="4.403000">
						<ele>794</ele>
						<time>2026-07-29T14:39:34Z</time>
					</trkpt>
					<trkpt lat="46.132660" lon="4.402640">
						<ele>793</ele>
						<time>2026-07-29T14:40:30Z</time>
					</trkpt>
					<trkpt lat="46.132330" lon="4.402470">
						<ele>789</ele>
						<time>2026-07-29T14:41:17Z</time>
					</trkpt>
					<trkpt lat="46.132030" lon="4.402200">
						<ele>783</ele>
						<time>2026-07-29T14:42:04Z</time>
					</trkpt>
					<trkpt lat="46.131390" lon="4.401690">
						<ele>770</ele>
						<time>2026-07-29T14:43:42Z</time>
					</trkpt>
					<trkpt lat="46.131330" lon="4.401610">
						<ele>768</ele>
						<time>2026-07-29T14:43:53Z</time>
					</trkpt>
					<trkpt lat="46.131070" lon="4.401430">
						<ele>762</ele>
						<time>2026-07-29T14:44:31Z</time>
					</trkpt>
					<trkpt lat="46.130950" lon="4.401390">
						<ele>759</ele>
						<time>2026-07-29T14:44:47Z</time>
					</trkpt>
					<trkpt lat="46.130410" lon="4.401420">
						<ele>746</ele>
						<time>2026-07-29T14:46:00Z</time>
					</trkpt>
					<trkpt lat="46.129710" lon="4.401340">
						<ele>731</ele>
						<time>2026-07-29T14:47:33Z</time>
					</trkpt>
					<trkpt lat="46.129540" lon="4.401260">
						<ele>728</ele>
						<time>2026-07-29T14:47:57Z</time>
					</trkpt>
					<trkpt lat="46.129110" lon="4.401170">
						<ele>721</ele>
						<time>2026-07-29T14:48:55Z</time>
					</trkpt>
					<trkpt lat="46.128820" lon="4.401020">
						<ele>719</ele>
						<time>2026-07-29T14:49:36Z</time>
					</trkpt>
					<trkpt lat="46.128680" lon="4.400990">
						<ele>717</ele>
						<time>2026-07-29T14:49:55Z</time>
					</trkpt>
					<trkpt lat="46.128480" lon="4.400860">
						<ele>715</ele>
						<time>2026-07-29T14:50:24Z</time>
					</trkpt>
					<trkpt lat="46.128330" lon="4.400860">
						<ele>713</ele>
						<time>2026-07-29T14:50:44Z</time>
					</trkpt>
					<trkpt lat="46.128220" lon="4.400760">
						<ele>712</ele>
						<time>2026-07-29T14:51:02Z</time>
					</trkpt>
					<trkpt lat="46.128210" lon="4.400670">
						<ele>712</ele>
						<time>2026-07-29T14:51:10Z</time>
					</trkpt>
					<trkpt lat="46.128230" lon="4.400610">
						<ele>712</ele>
						<time>2026-07-29T14:51:16Z</time>
					</trkpt>
					<trkpt lat="46.128410" lon="4.400350">
						<ele>713</ele>
						<time>2026-07-29T14:51:50Z</time>
					</trkpt>
					<trkpt lat="46.128780" lon="4.399680">
						<ele>715</ele>
						<time>2026-07-29T14:53:10Z</time>
					</trkpt>
					<trkpt lat="46.128970" lon="4.399120">
						<ele>716</ele>
						<time>2026-07-29T14:54:07Z</time>
					</trkpt>
					<trkpt lat="46.129160" lon="4.398700">
						<ele>721</ele>
						<time>2026-07-29T14:54:54Z</time>
					</trkpt>
					<trkpt lat="46.129140" lon="4.398410">
						<ele>721</ele>
						<time>2026-07-29T14:55:21Z</time>
					</trkpt>
					<trkpt lat="46.128890" lon="4.397910">
						<ele>720</ele>
						<time>2026-07-29T14:56:18Z</time>
					</trkpt>
					<trkpt lat="46.128890" lon="4.397860">
						<ele>720</ele>
						<time>2026-07-29T14:56:22Z</time>
					</trkpt>
					<trkpt lat="46.128960" lon="4.397780">
						<ele>721</ele>
						<time>2026-07-29T14:56:34Z</time>
					</trkpt>
					<trkpt lat="46.129090" lon="4.397700">
						<ele>723</ele>
						<time>2026-07-29T14:56:53Z</time>
					</trkpt>
					<trkpt lat="46.129160" lon="4.397600">
						<ele>725</ele>
						<time>2026-07-29T14:57:06Z</time>
					</trkpt>
					<trkpt lat="46.129290" lon="4.397580">
						<ele>726</ele>
						<time>2026-07-29T14:57:24Z</time>
					</trkpt>
					<trkpt lat="46.129360" lon="4.397470">
						<ele>727</ele>
						<time>2026-07-29T14:57:37Z</time>
					</trkpt>
					<trkpt lat="46.129580" lon="4.397400">
						<ele>729</ele>
						<time>2026-07-29T14:58:07Z</time>
					</trkpt>
					<trkpt lat="46.129700" lon="4.397260">
						<ele>730</ele>
						<time>2026-07-29T14:58:28Z</time>
					</trkpt>
					<trkpt lat="46.130110" lon="4.396980">
						<ele>733</ele>
						<time>2026-07-29T14:59:29Z</time>
					</trkpt>
					<trkpt lat="46.130260" lon="4.396840">
						<ele>734</ele>
						<time>2026-07-29T14:59:52Z</time>
					</trkpt>
					<trkpt lat="46.130940" lon="4.396410">
						<ele>737</ele>
						<time>2026-07-29T15:01:32Z</time>
					</trkpt>
					<trkpt lat="46.131100" lon="4.396250">
						<ele>737</ele>
						<time>2026-07-29T15:01:57Z</time>
					</trkpt>
					<trkpt lat="46.131230" lon="4.396000">
						<ele>736</ele>
						<time>2026-07-29T15:02:26Z</time>
					</trkpt>
					<trkpt lat="46.132060" lon="4.396230">
						<ele>750</ele>
						<time>2026-07-29T15:04:19Z</time>
					</trkpt>
					<trkpt lat="46.132090" lon="4.396180">
						<ele>750</ele>
						<time>2026-07-29T15:04:25Z</time>
					</trkpt>
					</trkseg>
				</trk>
			</gpx>